OBJECTID,county,name,sector,address,phone,y,x,hours,website,additional,snap,wic,fm_senior,re_mat,re_num,re_lib_serves,re_type
1,Adair,Walmart Supercenter - Columbia,Grocery,"2988 Burkesville Rd, Columbia, KY 42728",270-384-4745,37.075592,-85.334465,24/7,https://www.walmart.com/store/569/columbia-ky/details,N/A,Yes,Yes,N/A,N/A,N/A,N/A,N/A
2,Adair,Save-a-Lot - Columbia,Grocery,"105 E Guardian St, Columbia, KY 42728",270-384-6689,37.101392,-85.307404,"Every day, 8-7",https://savealot.com/grocery-stores/columbia-42728-23323/,N/A,Yes,Yes,N/A,N/A,N/A,N/A,N/A
3,Adair,IGA - Columbia,Grocery,"900 Jamestown St, Columbia, KY 42728",270-384-9374,37.094194,-85.304364,"Every day, 7-9",https://www.myiga.com/my-store/store-locator#!/?distance=10&q=42728,N/A,Yes,No,N/A,N/A,N/A,N/A,N/A
4,Adair,Udell's Fruit Market,Produce Market,"301 Hudson St, Columbia, KY 42728",270-385-9129,37.100011,-85.31815,"Mon-Fri 9-6, Sat 9-3",N/A,N/A,Yes,Yes,N/A,N/A,N/A,N/A,N/A
5,Adair,Farmers Market on the Square,Farmers Market,"105 Merchant St. Columbia, Kentucky 42728",270-634-2125,37.104172,-85.305921,Seasonal,https://www.facebook.com/fm2columbia/,N/A,No,Yes,N/A,N/A,N/A,N/A,N/A
6,Adair,Adair County Farmers Market,Farmers Market,"409 Fairground Street, Columbia, KY 42728",270-384-2317,37.104644,-85.296736,Seaonal,https://www.kyagr.com/AgBusiness/7668,N/A,No,No,Yes,N/A,N/A,N/A,N/A
7,Adair,Adair County Recycling,Recycling Centers,64 Service Road Columbia KY 42728,270-378-0782,37.11653,-85.299465,"Mon-Fri 7-3, Sat 7-noon",http://adairwp.clerkinfo.net/?page_id=553,Call the Recycling Center If you would like to take a tour.,N/A,N/A,N/A,"AL, PL( HDPE, PET), FE, NONFE, OCC, CARBAT, OPMIX, ST CANS, WHITE, ONP, ESCRAP, MRP, RUB",13,"Dropoff, other",Government facility
8,Adair,Blankenship Recycling,Recycling Centers,322 Parrott Avenue Columbia KY,270-634-4552,37.110648,-85.298147,N/A,N/A,Purchase scrap metal,N/A,N/A,N/A,"AL, FE, NONFE, ST CANS, WHITE",5,"Dropoff, broker",Commercial recycler
9,Adair,hwy 551 Scrap Metal,Recycling Centers,249 Piercy Rod Columbia KY 42728,270-384-8914,37.166989,-85.26852,N/A,N/A,N/A,N/A,N/A,N/A,"AL, FE, NONFE, CARBAT, ST CANS, WHITE, UO, MRP",8,Dropoff,Commercial recycler
10,Adair,Pyles Demolition Recycling,Recycling Centers,221 Corporate Drive Columbia KY 42728,270-384-3478,37.077272,-85.33029,N/A,N/A,"Pyles Demolition Recycling provides dumpsters and services your recyling and waste management needs. Wrecking And Demolition Contractors, Excavation & Excavating Contractors",N/A,N/A,N/A,"AL, FE, NONFE, OCC, UO, MRP",6,"Dropoff, other",Commercial recycler
11,Adair,Adair Child Support Office,Family Services,"424 Public Square # 24, Columbia, KY 42728",270-384-5932,37.103464,-85.306293,Mon-Fri 7-4,https://csws.chfs.ky.gov/csws/General/Landing.aspx,N/A,N/A,N/A,N/A,N/A,N/A,N/A,N/A
12,Adair,Lake Cumberland Community Services,Community Services,"23 Industry Drive Jamestown, KY 42629",270-384-2147,37.003971,-85.074532,Mon-Fri 8-4:30,http://www.lc-caa.org/,N/A,N/A,N/A,N/A,N/A,N/A,N/A,N/A
13,Adair,Human Resources Department - Columbia,Community Services,"703 Jamestown St, Columbia, KY 42728",270-384-2163,36.984969,-85.062536,Mon-Fri 8-4:30,https://kentucky.gov/Pages/home.aspx,N/A,N/A,N/A,N/A,N/A,N/A,N/A,N/A
14,Adair,Kentucky Career Center - Columbia,Career Services,"969 Campbellsville Road Columbia, KY 42728",270-384-1741,37.114457,-85.300718,Mon-Fri 8-4:30,https://kcc.ky.gov/Pages/default.aspx,N/A,N/A,N/A,N/A,N/A,N/A,N/A,N/A
15,Adair,Adair County Public Library,Library,"307 Greensburg Street Columbia, KY 42728-1488",270-384-2472,37.104544,-85.308156,"Mon - Wed 8-5, Thurs 9-6, Fri 8-5, Sat 8-noon",http://adaircountypublicLibrary.com,N/A,N/A,N/A,N/A,N/A,N/A,Free computer usage and free WiFi,
16,Adair,Adair County Extension,Cooperative Extension Offices,"409 Fairground St. Columbia, KY 42728-0309",270-384-2317,37.104478,-85.296356,"Mon-Fri 8-4:30, closed daily 12-1",http://adair.ca.uky.edu/,N/A,N/A,N/A,N/A,N/A,N/A,N/A,N/A
17,Bath,Save-a-Lot - Owingsville,Grocery,"78 Creek Side Dr, Owingsville, KY 40360",606-674-9343,38.125215,-83.747512,"Mon-Sat 8-8, Sun 12-6",https://savealot.com/grocery-stores/owingsville-40360-24908/,N/A,Yes,Yes,N/A,N/A,N/A,N/A,N/A
18,Bath,Bath County Farmer's Market,Farmers market,"2914 East Hwy 60 in Owingsville, Kentucky",606-336-0438,38.139189,-83.719727,Seasonal,https://www.facebook.com/bathkyfarmersmarket/,N/A,N/A,N/A,N/A,N/A,N/A,N/A,N/A
19,Bath,Steve and Sons Recycling,Recycling Centers,"2839 S Hwy 211, Salt Lick, KY 40371",606-683-2057,38.1207983,-83.6174723,N/A,https://steve-and-sons-recycling.business.site/#details,N/A,N/A,N/A,N/A,"AL, FE, NONFE, CATBAT,",4,N/A,N/A
20,Bath,Christian Social Services - Owingsville,Family Services,"44 Coyle St, Owingsville, KY 40360",606-674-6906,38.143721,-83.764684,Tues-Fri 9:30-4:30,https://www.facebook.com/Christian-Social-Service-Center-Inc-252034821481803/,N/A,N/A,N/A,N/A,N/A,N/A,N/A,N/A
21,Bath,Bath County Memorial Library,Library,"24 West Main Street, P.O. Box 380 Owingsville, KY 40360-2015",606-674-2531,38.144855,-83.764481,Mon-Sat 9:30-5:30,https://www.bathLibrary.org/,N/A,N/A,N/A,N/A,N/A,N/A,"Help with test, resumes & more. Free computer access and digital resources. Room rentals.",
22,Bath,Sharpsburg Branch Library,Library,"7781 West Tunnel Hill Road Sharpsburg, KY 40374",606-247-2100,38.199676,-83.927013,Mon-Sat 9:30-5:30,https://www.bathLibrary.org/,N/A,N/A,N/A,N/A,N/A,N/A,N/A,N/A
23,Bath,Bath County Extension,Cooperative Extension Offices,"2914 E Hwy 60 Owingsville, KY 40360-8815",606-674-6121,38.139417,-83.719961,"Mon-Fri 8-4:30, closed daily 12-1",http://bath.ca.uky.edu/,N/A,N/A,N/A,N/A,N/A,N/A,N/A,N/A
24,Bell,Kroger - Middlesboro,Grocery,"515 N 12th St, Middlesboro, KY 40965",606-248-3410,36.614314,-83.70408,"Mon-Sat 7-midnight, Sun 8-10",https://www.kroger.com/stores/details/024/00355?cid=loc_02400355_gmb,N/A,Yes,Yes,N/A,N/A,N/A,N/A,N/A
25,Bell,Save-a-Lot - Pineville,Grocery,"622 US-119, Pineville, KY 40977",606-337-5558,36.744747,-83.683224,"Everyday, 8-9",https://savealot.com/grocery-stores/pineville-40977-24467/,N/A,Yes,Yes,N/A,N/A,N/A,N/A,N/A
26,Bell,Food City - Middlesboro,Grocery,"110 11th St, Middlesboro, KY 40965",606-248-0987,36.609105,-83.700741,"Everyday, 6-midnight",https://www.foodcity.com/stores/store-details/428/?utm_source=googlebusiness&utm_medium=businesslocal&utm_campaign=grocery&utm_content=428,N/A,Yes,Yes,N/A,N/A,N/A,N/A,N/A
27,Bell,Walmart Supercenter - Middlesboro,Grocery,"Us Hwy 441, US-25E Scenic, Middlesboro, KY 40965",606-248-9087,36.609105,-83.700741,24/7,https://www.walmart.com/store/739/middlesboro-ky/details,N/A,Yes,Yes,N/A,N/A,N/A,N/A,N/A
28,Bell,Save-a-Lot - Middlesboro,Grocery,"415 Dansbury Ave, Middlesboro, KY 40965",606-248-0380,36.61362,-83.706107,Everyday 8-9,https://savealot.com/grocery-stores/middlesboro-40965-24471/,N/A,Yes,Yes,N/A,N/A,N/A,N/A,N/A
29,Bell,Long's Pic Pac,Grocery,"134 Pine St, Pineville, KY 40977",606-337-3411,36.76334,-83.694297,"Mon-Sat 7-10, Sun 9-9",https://longspicpac.com/circular,N/A,Yes,Yes,N/A,N/A,N/A,N/A,N/A
30,Bell,Bell County Farmers Market,Farmers Market,"1915 Cumberland Avenue, Middlesboro, KY 40965",606-671-7677,36.607583,-83.712409,Seasonal,https://www.facebook.com/mborofarmersmarketinsidecratercity/,N/A,No,No,Yes,N/A,N/A,N/A,N/A
31,Bell,Bell Co Recycling Center,Recycling Centers,900 North 15th Street Middlesborro KY 40977,606-248-78161,36.618776,-83.708774,N/A,https://bellcounty.ky.gov/services/Pages/default.aspx,Also accepts motor oil,N/A,N/A,N/A,"GL, AL, PL( HDPE, PET), FE, NONFE, OCC, OPMIX, OPSORT, ST CANS, ONP, UO, ESCRAP, MRP, RUB",14,"Dropoff, curbside",Government facility
32,Bell,Robbins Recycling,Recycling Centers,"5424 US hwy 119 Calvin, KY 40813",606-337-3662,36.725703,-83.620638,N/A,https://b-m.facebook.com/Robbinsrecycling1991/,"Scrap metal dealer -- Robbins Recycling and we can turn your paper, plastic and metal into cash!",N/A,N/A,N/A,"AL, PL( HDPE, PET), FE, NONFE, OCC, CARBAT",6,"Handler, dropoff, broker",Commercial recycler
33,Bell,Tri K Recycling - Middlesboro,Recycling Centers,225 Old 25e Loop Middlesboro KY 40965,606-248-6909,36.681033,-83.6854847,N/A,N/A,"email - buellboysauto@gmail.com Tristate scrap metal of Middlesboro, KY is a full service Recycling Center offering top dollar for your copper, aluminum brass and stainless steel. Bring your electric motors, insulated wiring, Christmas lights, bikes, washers, dryers, lamps to our yard",N/A,N/A,N/A,"AL, FE, NONFE, CARBAT, ST CANS, ESCRAP",6,"Dropoff, broker",Commercial recycler
34,Bell,Social Service Department - Pineville,Family Services,"211 Kentucky Ave, Pineville, KY 40977",606-337-6171,36.761666,-83.695549,Mon-Fri 8-5,https://www.dcfoffices.org/office/ky_40977_bell-county-department-of-children-and-Family Services-services,N/A,N/A,N/A,N/A,N/A,N/A,N/A,N/A
35,Bell,Bell County WIC Program,Family Services,"111 21st St, Middlesboro, KY 40965",606-248-2862,36.607499,-83.71565,Mon-Fri 9-5,https://wicprogram.us/wic-program-provider/bell_county_health_department_wic_middlesboro_middlesboro_ky,N/A,N/A,N/A,N/A,N/A,N/A,N/A,N/A
36,Bell,US Social Security Administration - Middlesboro,Family Services,"10 SE Tech Dr, Middlesboro, KY 40965",800-772-1213,36.614427,-83.734961,Mon-Fri 9-4,https://www.ssa.gov/,N/A,N/A,N/A,N/A,N/A,N/A,N/A,N/A
37,Bell,Southeast Community and Technical College Middlesboro Campus Unemployment Office,Career Services,"100 College Rd. Middlesboro, KY, 40965",606-248-0768,36.6102713,-83.7348372,Mon-Fri 8-4:30,https://www.unemploymentoffice.org/southeast-kentucky-Community Services-and-technical-college-middlesboro-campus-kentucky,N/A,N/A,N/A,N/A,N/A,N/A,N/A,N/A
38,Bell,Middlesboro - Bell County Public Library,Library,"126 South 20th Street P.O. Box 1677 Middlesboro, KY 40965-3677",606-248-4812,36.606287,-83.714346,"Mon-Fri 9-6, Sat 10-4",http://www.bellcpl.org/,N/A,N/A,N/A,N/A,N/A,N/A,"Bookmobile, free Community Room rental, Hoopla ebooks, free computer access",
39,Bell,Pineville Public Library,Library,"214 Walnut Street, P.O. Box 1490 Pineville KY 40977-1490",606-337-3422,36.760734,-83.696553,"Mon-Fri 9-6, Sat 10-4",http://www.bellcpl.org/,N/A,N/A,N/A,N/A,N/A,N/A,"Bookmobile, free Community Room rental, Hoopla ebooks, free computer access",
40,Bell,Bell County Extension,Cooperative Extension Offices,"101 Courthouse Square Pineville, KY 40977-1635",606-337-2376,36.7620601,-83.6950678,"Mon-Fri 8-4:30, closed daily 12-12:30",http://bell.ca.uky.edu/,N/A,N/A,N/A,N/A,N/A,N/A,N/A,N/A
41,Boyd,Aldi - Ashland,Grocery,"130 Russell Rd, Ashland, KY 41101",855-955-2534,38.493635,-82.668501,"Mon-Fri, 9-9, Sat-Sun 9-8",https://www.aldi.us/en/,N/A,Yes,No,N/A,N/A,N/A,N/A,N/A
42,Boyd,"Walmart Supercenter - US-60, Ashland",Grocery,"12504 US-60, Ashland, KY 41102",606-929-9510,38.388509,-82.711228,24/7,https://www.walmart.com/store/2638/ashland-ky/details,N/A,Yes,Yes,N/A,N/A,N/A,N/A,N/A
43,Boyd,Save-a-Lot - Ashland,Grocery,"5850 US Route 60 Summit Plaza, Ashland, KY 41102",606-928-2318,38.436991,-82.685422,"Mon-Sat 9-9, Sun 11-7",https://savealot.com/grocery-stores/ashland-41102-23823/,N/A,Yes,Yes,N/A,N/A,N/A,N/A,N/A
44,Boyd,"Wamart Supercenter -  River Hill Drive, Ashland",Grocery,"351 River Hill Dr, Ashland, KY 41101",606-329-0012,38.485726,-82.658322,24/7,https://www.walmart.com/store/1426/ashland-ky/details,N/A,Yes,Yes,N/A,N/A,N/A,N/A,N/A
45,Boyd,"Kroger - 12th Street, Ashland",Grocery,"711 12th St, Ashland, KY 41101",606-325-8231,38.477626,-82.649695,"Everday, 6-midnight",https://www.kroger.com/stores/details/029/00783?cid=loc_02900783_gmb,N/A,Yes,Yes,N/A,N/A,N/A,N/A,N/A
46,Boyd,"Kroger - Diederich Blvd, Ashland",Grocery,"370 Diederich Blvd, Ashland, KY 41101",606-325-8911,38.477626,-82.649695,Everday 6-midnight,https://www.kroger.com/stores/details/029/00796?cid=loc_02900796_gmb,N/A,Yes,Yes,N/A,N/A,N/A,N/A,N/A
47,Boyd,Ashland Food Fair,Grocery,"2912 Blackburn Ave, Ashland, KY 41101",606-329-2111,38.477626,-82.649695,Everyday 7-10,http://foodfairmarkets.com/,N/A,Yes,Yes,N/A,N/A,N/A,N/A,N/A
48,Boyd,Hilltop Market,Grocery,"3466 13th St, Ashland, KY 41102",606-324-4624,38.455489,-82.66894,Mon-Sat 9-6,https://www.facebook.com/ArtripsHilltopMarket,N/A,No,Yes,N/A,N/A,N/A,N/A,N/A
49,Boyd,Boyd County Farmers' Market,Farmer's Market,"Kyova 10 Theatre at Kyova Mall 10699 US Route 60 Ashland, Kentucky 41102",606-739-5184,38.40114,-82.71471,Seasonal,https://www.facebook.com/pages/Boyd-County-Farmers-Market/753180384812872,N/A,No,No,Yes,N/A,N/A,N/A,N/A
50,Boyd,B F Iron & Metal Inc,Recycling Centers,100 Joe Wells Rd Ashland KY 41102,304-638-2102,38.388599,-82.73224,N/A,N/A,"We Buy All Steel Products (Anything Magnetic) Cars, Tine Metal, Steel, Fences, Plates, I-Beams, And Much More. Anything A Magnet Can Stick To We Can Recycle",N/A,N/A,N/A,"FE, NONFE, ST CANS",3,"Dropoff, broker",Commercial recycler
51,Boyd,City of Ashland Recycling,Recycling Centers,13th Street Bridge Ashland KY,606-327-2040,38.452421,-82.613105,"Tues 6am - 10am, Thurs-Fri 3pm - 7pm, Sat 8am - 4pm",http://ashlandky.gov/departments/public_works/solidw,"The City of Ashland Kentucky is committed to protecting our environment and serving the community with our recycle program. The Ashland Recycling Center is located under the 13th Street Bridge. Effective September 27, 2018, the Ashland Recycling Center is open to City of Ashland residents only.  A city utility bill that includes a ""Garbage"" charge (along with a photo ID) OR a Kentucky Driver's License with an Ashland, KY address is required as proof of residency.",N/A,N/A,N/A,"AL, PL( HDPE, PET), OCC, ST CANS, ONP, MRP",6,Dropoff,Government facility
52,Boyd,Daniels Metals,Recycling Centers,12030 Paul Coffey Blvd Ashland KY 41102,606-928-8033,38.452421,-82.613105,N/A,N/A,Purchase Scrap Metal Email: LRDtrucking@gmail.com,N/A,N/A,N/A,"AL, FE, NONFE, CARBAT",4,"Dropoff, Broker, Other",Commercial recycler
53,Boyd,"DTR, Inc AKA Dalton Tires",Recycling Centers,2640 Hoods Creek Pike Ashland KY 41102,606-325-7717,38.481682,-82.690482,N/A,https://www.facebook.com/pages/Dalton-Tire-Sales/11,N/A,N/A,N/A,N/A,rubber,1,Dropoff,Commercial recycler
54,Boyd,Mansbach AKA Progress Metals Co,Recycling Centers,1900 Front Street Ashland KY 41101,606-329-9600,38.477791,-82.635449,N/A,http://www.columbusrecycling.com/locations/ashland-k,"Progress Metal Recycling Company is a scrap metal wholesaler primarily engaged in automotive scrap processing. Does not accept cans, gas tanks, or batteries.",N/A,N/A,N/A,FE NONFE,2,Process,Commercial recycler
55,Boyd,River City Recycling Inc,Recycling Centers,1837 River Cities Dr Ashland KY 41101,606-329-9305,38.372484,-82.755541,N/A,N/A,"Also accepts brass, copper and scrap metal. Call for material requirements.",N/A,N/A,N/A,"AL, FE, NONFE, CARBAT",4,"Process, dropoff",Commercial recycler
56,Boyd,Social Security Administration - Ashland,Family Services,"1405 Greenup Ave #132, Ashland, KY 41101",800-772-1213,38.480667,-82.640184,Mon-Fri 9-4,https://www.ssa.gov/,N/A,N/A,N/A,N/A,N/A,N/A,N/A,N/A
57,Boyd,Social Services Department - Ashland,Family Services,"1539 Greenup Ave, Ashland, KY 41101",606-920-2007,38.480044,-82.638912,Mon-Fri 8-5,https://www.dcfoffices.org/office/ky_41105_byod-county-social-services-office,N/A,N/A,N/A,N/A,N/A,N/A,N/A,N/A
58,Boyd,Cares,Community Services,"2516 Carter Ave, Ashland, KY 41101
",606-324-2949,38.471565,-82.628701,"Mon-Fri 10-5:30, closed daily 3:30-4:30",https://boydcountycares.org/,N/A,N/A,N/A,N/A,N/A,N/A,N/A,N/A
59,Boyd,United Way - NE KY,Community Services,"2000 Carter Ave suite d, Ashland, KY 41101",606-325-1810,38.475078,-82.635601,Mon-Fri 8-4,https://www.uwnek.org/,N/A,N/A,N/A,N/A,N/A,N/A,N/A,N/A
60,Boyd,Habitat for Humanity - Ashland,Community Services,"1544 Winchester Ave, Ashland, KY 41101",606-324-1325,38.478611,-82.639936,,https://www.habitat.org/,N/A,N/A,N/A,N/A,N/A,N/A,N/A,N/A
61,Boyd,Kentucky Career Center - Ashland,Career Services,"1844 Carter Ave. Ashland, KY 41101",606-920-2024,38.4761277,-82.6371549,Mon-Fri 8-4:30,https://kcc.ky.gov/Pages/default.aspx,N/A,N/A,N/A,N/A,N/A,N/A,N/A,N/A
62,Boyd,Boyd County Public Library,Library,1740 Central Avenue Ashland KY 41101-7653,606-329-0090,38.47552,-82.639818,"Mon-Thurs 9-8, Fri-Sat 9-5, Sun 1-5",http://www.thebookplace.org/,N/A,N/A,N/A,N/A,N/A,N/A,"Free WiFi, meeting room rentals, Book club",
63,Boyd,Catlettsburg Branch Library,Library,2704 Louisa Street Catlettsburg KY 41129-1114,606-739-8332,38.416453,-82.598136,"Mon-Thurs 9-8, Fri-Sat 9-5, Sun 1-5",http://www.thebookplace.org/,N/A,N/A,N/A,N/A,N/A,N/A,"Free WiFi, meeting room rentals, Book club",
64,Boyd,Kyova Branch Library,Library,"10699 US Route 60, Suite 920 Ashland KY 41102",606-929-5346,38.401561,-82.714304,"Mon-Thurs 9-8, Fri-Sat 9-5, Sun 1-5",http://www.thebookplace.org/,N/A,N/A,N/A,N/A,N/A,N/A,"Free WiFi, meeting room rentals, Book club",
65,Boyd,Boyd County Extension,Cooperative Extension Offices,"2420 Center Street Catletsburg, KY 41129-1279",606-739-5184,38.418348,-82.598082,Mon-Fri 8-4:30,http://boyd.ca.uky.edu/,N/A,N/A,N/A,N/A,N/A,N/A,N/A,N/A
66,Breathitt,Save-a-Lot - Jackson,Grocery,"1471 KY-15, Jackson, KY 41339",606-666-9451,37.568826,-83.401118,Everday 8-9,https://savealot.com/grocery-stores/jackson-41339-24740/,N/A,Yes,Yes,N/A,N/A,N/A,N/A,N/A
67,Breathitt,Jackson IGA,Grocery,"723 KY-15, Jackson, KY 41339",606-666-8188,37.550963,-83.358781,"Mon-Sat 8-9, Sun 9-9",https://www.jacksoniga.com/,N/A,Yes,Yes,N/A,N/A,N/A,N/A,N/A
68,Breathitt,Jiffy Mart,Grocery,"800 KY-15, Jackson, KY 41339",606-666-5986,37.557616,-83.367225,"Mon-Sat 6-10, Sun 6:30-10",http://www.jiffymartstores.com/,N/A,Yes,Yes,N/A,N/A,N/A,N/A,N/A
69,Breathitt,Coomer Produce,Produce Market,"203 KY-15, Jackson, KY 41339",606-568-0964,37.558122,-83.379019,Everyday 9-5,https://www.facebook.com/Coomerproduce/,N/A,No,No,N/A,N/A,N/A,N/A,N/A
70,Breathitt,Breathitt County Farmer's Market,Farmers' Market,"3215 Quicksand Rd Jackson, Kentucky 41339",606-666-8812,37.535879,-83.347957,Seasonal,https://www.facebook.com/BreathittFarmersMarket/,N/A,No,No,Yes,N/A,N/A,N/A,N/A
71,Breathitt,Breathitt County Recycling Center,Recycling Centers,434 Hwy 1812 North Jackson KY 41339,606-666-3818,37.563845,-83.366139,N/A,https://breathittcounty.ky.gov/Pages/departments.aspx,N/A,N/A,N/A,N/A,"AL, PL( HDPE, PET), OCC, OPMIX, OPSORT, ST CANS, ONP, UO, ESCRAP, MRP",10,Dropoff,Government facility
72,Breathitt,Social Security Administration - Jackson,Family Services,"850 KY-15 N, Jackson, KY 41339",800-772-1213,37.56113,-83.396343,Mon-Fri 9-4,https://www.ssa.gov/,N/A,N/A,N/A,N/A,N/A,N/A,N/A,N/A
73,Breathitt,Health & Family Services - Jackson,Family Services,"1041 College Ave, Jackson, KY 41339",606-666-7506,37.554662,-83.3818,N/A,https://chfs.ky.gov/Pages/index.aspx,N/A,N/A,N/A,N/A,N/A,N/A,N/A,N/A
74,Breathitt,Middle KY Community Action - Jackson,Community Services,"171 Howell Heights Jackson, KY 41339",606-666-5902,37.554662,-83.3818,N/A,https://www.mkcap.org/index.html,N/A,N/A,N/A,N/A,N/A,N/A,N/A,N/A
75,Breathitt,Middle KY Community Action Local Office,Community Services,"1137 Main Street, Suite 105 ackson, KY 41339",606-666-5902,37.554662,-83.3818,N/A,https://www.mkcap.org/index.html,N/A,N/A,N/A,N/A,N/A,N/A,N/A,N/A
76,Breathitt,Interfaith of Breathitt County,Community Services,"1148 Main St, Jackson, KY 41339",606-666-7760,37.554164,-83.38383,Mon-Thurs 9-1,https://www.facebook.com/InterfaithBC/,N/A,N/A,N/A,N/A,N/A,N/A,N/A,N/A
77,Breathitt,Kentucky Career Center - Jackson,Career Services,"500 Brown Street Jackson , KY 41339",606-666-2369,37.553626,-83.383426,Mon-Fri 8-4:30,https://kcc.ky.gov/Pages/default.aspx,N/A,N/A,N/A,N/A,N/A,N/A,N/A,N/A
78,Breathitt,Breathitt County Public Library,Library,"1024 College Avenue Jackson, KY 41339-1016",606-666-5541,37.553284,-83.383306,"Mon-Fri 8-5, Sat 9-4",http://www.breathittcountyLibrary.com/,N/A,N/A,N/A,N/A,N/A,N/A,"Free computer access, free WiFI, meeting rooms, expanded children's area",
79,Breathitt,Breathitt County Extension,Cooperative Extension Offices,"1155 Main St. Jackson, KY 41339",606-666-8812,37.554195,-83.38309,"Mon-Fri 8-4:30, closed daily from 12-1",http://breathitt.ca.uky.edu/,N/A,N/A,N/A,N/A,N/A,N/A,N/A,N/A
80,Carter,Save-a-Lot - Olive Hill,Grocery,"131 Jessica Ln, Olive Hill, KY 41164",606-286-5053,38.297666,-83.180985,Everyday 8-9,https://savealot.com/grocery-stores/olive-hill-41164-24863/,N/A,Yes,Yes,N/A,N/A,N/A,N/A,N/A
81,Carter,Ralph's Food Fair,Grocery,"630 Carol Malone Blvd, Grayson, KY 41143",606-474-5522,38.33935,-82.942182,Everyday 7-10,http://www.foodfairmarkets.com/,N/A,Yes,Yes,N/A,N/A,N/A,N/A,N/A
82,Carter,Save-a-Lot - Grayson,Grocery,"584 KY-1947, Grayson, KY 41143",606-474-6003,38.344797,-82.949568,Everyday 8-9,https://savealot.com/grocery-stores/grayson-41143-23820/,N/A,Yes,Yes,N/A,N/A,N/A,N/A,N/A
83,Carter,Grayson Market,Farmers' Market,"94 Fairground Dr, Grayson KY 41143",606-474-6686,38.332203,-82.902964,Seasonal,https://carter.ca.uky.edu/Farmer%27s%20Market,N/A,No,No,Yes,N/A,N/A,N/A,N/A
84,Carter,Olive Hill Market,Farmers' Market,"131 Jessica Ln, Olive Hill, KY 41164",606-474-6686,38.297666,-83.180985,Seasonal,https://carter.ca.uky.edu/Farmer%27s%20Market,N/A,No,No,Yes,N/A,N/A,N/A,N/A
85,Carter,Hall Brothers Recycling,Recycling Centers,1897 E. Midland Trail Grayson KY 41143,606-474-5205,38.335073,-82.898503,N/A,N/A,Scrap metal dealer,N/A,N/A,N/A,"AL, FE, NONFE, CARBAT",4,"Handler, dropoff, broker",Commercial recycler
86,Carter,Child Support - Grayson,Family Services,"300 W Main St #301 Grayson, KY 41143",855-306-8959,38.333436,-82.9517,Mon-Fri 8-4:30,https://csws.chfs.ky.gov/csws/General/Landing.aspx,N/A,N/A,N/A,N/A,N/A,N/A,N/A,N/A
87,Carter,Northeast KY Community Action - Olive Hill,Community Services,"539 Hitchins Ave, Olive Hill, KY 41164",606-286-4443,38.298809,-83.18657,N/A,http://nkcaa.net/,N/A,N/A,N/A,N/A,N/A,N/A,N/A,N/A
89,Carter,Cabinet for Families & Children - Grayson,Family Services,"873 E. Midland Trail Grayson, KY - 41143",606-474-8989,38.341894,-82.932203,Mon-Fri 8-4:30,https://www.dcfoffices.org/office/ky_41143_carter-county-dcf-office,N/A,N/A,N/A,N/A,N/A,N/A,N/A,N/A
90,Carter,"Bethany House Christian Service Center, Inc.",Community Services,"106 Hillside St, Olive Hill, KY 41164",606-286-5045,38.298448,-83.174446,N/A,https://www.facebook.com/BETHANYHOUSECSC,N/A,N/A,N/A,N/A,N/A,N/A,N/A,N/A
91,Carter,Kentucky Career Center - Grayson,Career Services,"1758 E. Midland Trail Grayson, KY 41171",606-474-2412,38.333993,-82.905201,Mon-Fri 8-4:30,https://kcc.ky.gov/Pages/default.aspx,N/A,N/A,N/A,N/A,N/A,N/A,N/A,N/A
92,Carter,Carter County Public Library,Library,116 West Main Street Grayson KY 41143-6465,606-475-1528,38.332888,-82.949118,Tues-Sat 10:30-4:30,http://www.cartercountypublicLibrary.info/,N/A,N/A,N/A,N/A,N/A,N/A,Carter County Genealogy,
93,Carter,Olive Hill Branch Library,Library,120 Comet Drive Olive Hill KY 41164,606-286-8070,38.303418,-83.1728,Tues-Sat 10:30-4:30,http://www.cartercountypublicLibrary.info/,N/A,N/A,N/A,N/A,N/A,N/A,Carter County Genealogy,
94,Carter,Carter County Extension,Cooperative Extension Offices,"94 Fairground Dr Grayson, KY 41143-9520",606-474-6686,38.331952,-82.903752,Mon-Fri 8-4:30,http://carter.ca.uky.edu/,N/A,N/A,N/A,N/A,N/A,N/A,N/A,N/A
95,Casey,IGA - Liberty,Grocery,"150 Liberty Sq. Shopping Center, Liberty, KY 42539",606-787-6262,37.318457,-84.927906,"Mon-Sat 6-9, Sun 7-9",https://www.libertyiga.com/,N/A,Yes,No,N/A,N/A,N/A,N/A,N/A
96,Casey,Casey County Discount Marketplace,Grocery,"1190 KY-910, Liberty, KY 42539",606-787-0957,37.198444,-84.949385,"Mon-Thurs 8-7, Fri 8-5, Sun 8-6",https://www.caseydiscount.com/,N/A,Yes,Yes,N/A,N/A,N/A,N/A,N/A
97,Casey,Lavern's Country Market,Grocery,"52 S Fork Creek Rd, Liberty, KY 42539",606-787-9845,37.196415,-84.948339,Mon-Sat 8-5,https://www.facebook.com/pages/Laverns-Country-Market/687037444730128,N/A,Yes,Yes,N/A,N/A,N/A,N/A,N/A
98,Casey,Save-a-Lot - Liberty,Grocery,"675 N Wallace Wilkinson Blvd, Liberty, KY 42539",606-787-8562,37.32321,-84.925704,"Mon-Sat 7:30-8, Sun 10-8",https://savealot.com/grocery-stores/liberty-42539-24678/,N/A,Yes,Yes,N/A,N/A,N/A,N/A,N/A
99,Casey,Casey County Farmers' Market,Farmer's Market,"518 Middleburg St, Liberty, KY 42539",N/A,37.317821,-84.938805,Seasonal,https://www.facebook.com/pages/category/Community/Casey-County-Farmers-Market-2001803176807837/,N/A,No,No,Yes,N/A,N/A,N/A,N/A
100,Casey,Casey County Road Dept,Recycling Centers,1175 Campbellsville Street Liberty KY 42539,606-787-0703,37.32032,-84.947487,N/A,N/A,N/A,N/A,N/A,N/A,"GL, AL, FE, NONFE, OCC, OPMIX, OPSORT, ST CANS, WHITE, ONP, UO, MRP, RUB",13,Dropoff,Government facility
101,Casey,Kentucky Career Center - Liberty,Career Services,"1 Pettyjohn Street Liberty, KY 42539",606-787-1405,37.316506,-84.940152,Mon-Fri 8-4:30,https://kcc.ky.gov/Pages/default.aspx,N/A,N/A,N/A,N/A,N/A,N/A,N/A,N/A
102,Casey,Casey County Public Library,Library,"238 Middlesburg Street Liberty, KY 42539-3002",606-787-9381,37.316471,-84.935906,"Mon-Fri 9-6, Sat 9-3",http://www.caseyLibrary.org,N/A,N/A,N/A,N/A,N/A,N/A,"Free classes, Free WiFi, free ebooks",
103,Casey,Casey County Extension,Cooperative Extension Offices,"1517 S. Wallace Wilkinson Blvd. Liberty, KY 42539-9805",606-787-7384,37.298426,-84.948841,"Mon-Fri 8-4:30, closed daily from 12-1",http://casey.ca.uky.edu/,N/A,N/A,N/A,N/A,N/A,N/A,N/A,N/A
104,Clark,Kroger - Winchester,Grocery,"1661 Bypass Rd, KY-1958, Winchester, KY 40391",859-745-4959,37.99432,-84.217801,Everday 6-midnight,https://www.kroger.com/stores/details/024/00402?cid=loc_02400402_gmb,N/A,Yes,Yes,N/A,N/A,N/A,N/A,N/A
105,Clark,Save-a-Lot - Winchester,Grocery,"755 Ecton Rd, Winchester, KY 40391",859-744-6259,38.002162,-84.151344,Everyday 9-9,https://savealot.com/grocery-stores/winchester-40391-24651/,N/A,Yes,Yes,N/A,N/A,N/A,N/A,N/A
106,Clark,Walmart Supercenter - Winchester,Grocery,"1859 Bypass Rd, Winchester, KY 40391",859-744-5070,37.988008,-84.210716,24/7,https://www.walmart.com/store/702/winchester-ky/details,N/A,Yes,Yes,N/A,N/A,N/A,N/A,N/A
107,Clark,South Main Grocery Store,Grocery,"385 S Main St, Winchester, KY 40391",859-744-8268,37.984268,-84.181357,Mon-Sat 9-7,https://south-main-grocery.hub.biz/?fbclid=IwAR39-4hTCMwsaaE_qR70HqVHQaeRaw5umJgsj8onaMxg8HauXlL0SiHiLgY,N/A,Yes,No,N/A,N/A,N/A,N/A,N/A
108,Clark,Beech Spring Farm Market,Produce Market,"4776 Old Boonesboro Rd, Winchester, KY 40391",859-744-2868,37.944175,-84.226094,Seasonal,http://www.beechspringsfarmmarket.com/,N/A,No,Yes,No,N/A,N/A,N/A,N/A
109,Clark,CRHC Freedom Metals,Recycling Centers,425 Gawthrop Drive Winchester KY 40391,859-744-7555,38.029462,-84.239474,"Mon-Fri 9- 4, Sat 8-4",http://freedommetals.com/contact/,"CRHC Freedom Metals, LLC, one of the regionâ€™s largest scrap dealers, offers great prices on all types of ferrous and nonferrous metals. Fax: 859.744.7559",N/A,N/A,N/A,"AL, FE, NONFE, CARBAT, ST CANS, ESCRAP",6,"Dropoff, broker",Commercial recycler
110,Clark,Stuff Recycling,Recycling Centers,6169 Lexington Ave Winchester KY 40391,859-745-7882,38.028928,-84.278781,N/A,http://www.stuffrecycling.com/,"Bring your ferrous scrap (metal that sticks to a magnet like iron, steel or an automobile) or nonferrous scrap (like aluminum, copper, brass, and wire) and get paid in cash.",N/A,N/A,N/A,"AL, FE, NONFE, CARBAT, ST CANS, WHITE",6,"Handler, dropoff, broker",Commercial recycler
111,Clark,Walmart Supercenter - Winchester,Recycling Centers,1859 Bypass Rd Winchester KY 30391,859-744-5070,37.988068,-84.210719,N/A,N/A,N/A,N/A,N/A,N/A,CARBAT,1,"Dropoff, other",Automotive service
112,Clark,Winchester Municipal Utilities Recycling Center,Recycling Centers,150 Maple Street Winchester KY 40391,859-744-1170,37.997074,-84.176483,24/7,http://www.wmutilities.com/Views/public/Content.aspx?,"WMU Voluntary Recycling Center at 175 N. Maple Street is open 24 hours per day, 7 days per week. The Recycling Center is located behind WMU's Main Office at 150 N. Main Street; however, it is only accessible from the WMU N. Maple Street entrance. Any questions please call 859-744-1170",N/A,N/A,N/A,"GL, AL, PL( HDPE, PET), OCC, OPMIX, ST CANS, WHITE, ONP, ESCRAP",9,"Dropoff, curbside",Government facility
113,Clark,Clark County Community Services,Community Services,"30 Taylor Ave, Winchester, KY 40391",859-744-5034,37.995868,-84.184881,Mon-Fri 9-2,http://www.clarkcountyCommunity Servicesservices.org/,N/A,N/A,N/A,N/A,N/A,N/A,N/A,N/A
114,Clark,Clark County Child Support,Family Services,"7 Cleveland Ave, Winchester, KY 40391",859-744-1124,37.993238,-84.177484,Mon-Fri 8-4,https://csws.chfs.ky.gov/csws/General/Landing.aspx,N/A,N/A,N/A,N/A,N/A,N/A,N/A,N/A
115,Clark,Evergreen Community Support - Winchester,Community Services,"11 S Highland St, Winchester, KY 40391, USA",859-745-0111,37.992306,-84.17525,Mon-Fri 9-5,https://www.facebook.com/evergreenCommunity Servicessupports/,N/A,N/A,N/A,N/A,N/A,N/A,N/A,N/A
116,Clark,National Youth Advocate Program - Winchester,Community Services,"104 W Broadway St, Winchester, KY 40391",859-385-4669,37.994025,-84.179014,Mon-Fri 8-4:30,https://www.nyap.org/nyap-locations/kentucky.html,N/A,N/A,N/A,N/A,N/A,N/A,N/A,N/A
117,Clark,Clark County Public Library,Library,370 South Burns Avenue Winchester KY 40391-1876,859-744-5661,37.988408,-84.18845,"Mon-Thurs 9-8, Fri 9-5:30, Sat 9-5pm, Sun 1-5",http://www.clarkbooks.org,N/A,N/A,N/A,N/A,N/A,N/A,"Hoopla ebooks, job help, youth services",
118,Clark,Clark County Extension,Cooperative Extension Offices,"1400 Fortune Drive Winchester, KY 40391-8292",859-744-4682,38.021198,-84.179057,Mon-Fri 8-4:30,http://clark.ca.uky.edu/,N/A,N/A,N/A,N/A,N/A,N/A,N/A,N/A
119,Clay,Walmart - Manchester,Grocery,"240 Manchester Square Shpg Center, Manchester, KY 40962",606-598-6123,37.140824,-83.772833,"Everyday, 6-11pm",https://www.walmart.com/store/545/manchester-ky/details,N/A,Yes,Yes,N/A,N/A,N/A,N/A,N/A
120,Clay,Manchester IGA #1,Grocery,"414 Manchester Square, Manchester, KY 40962",606-598-6232,37.138297,-83.775499,"Mon-Sat 7-9, Sun 9-9",https://manchesteriga1.com/,N/A,Yes,Yes,N/A,N/A,N/A,N/A,N/A
121,Clay,Save-a-Lot - Garrard,Grocery,"120 Garrard Square, Garrard, KY 40921",606-598-0041,37.118853,-83.741236,Everyday 8-9,https://savealot.com/grocery-stores/garrard-40921-23697/,N/A,Yes,Yes,N/A,N/A,N/A,N/A,N/A
122,Clay,Save-a-Lot - Fall Rock,Grocery,4833 US 421 Fall Rock KY 40932,606-598-3057,37.214932,-83.787049,Everyday 8-9,https://savealot.com/grocery-stores/fall-rock-40932-23331/,N/A,Yes,Yes,N/A,N/A,N/A,N/A,N/A
123,Clay,Highway Produce Market,Produce Market,"Highway 421 N Manchester, Kentucky 40962",606-598-1804,37.137447,-83.768123,Seasonal,N/A,N/A,Yes,Yes,N/A,N/A,N/A,N/A,N/A
124,Clay,Pineview Farms,Farm,"174 State Hwy 1524, Manchester, KY 40962",606-598-5326,37.085614,-83.694523,Seasonal,N/A,N/A,No,No,N/A,N/A,N/A,N/A,N/A
125,Clay,Clay County Community Farmers' Market,Farmer's Market,"86 Muddy Gap Rd. Manchester, Kentucky 40962",606-598-2789,37.1398,-83.76943,Seasonal,https://www.facebook.com/claycountycommunityfarmersmarket/,N/A,No,Yes,Yes,N/A,N/A,N/A,N/A
126,Clay,Clay County Child Support,Family Services,"102 Walters St # 1, Manchester, KY 40962",606-598-8415,37.155536,-83.759203,Mon-Fri 8-4:30,https://csws.chfs.ky.gov/csws/General/Landing.aspx,N/A,N/A,N/A,N/A,N/A,N/A,N/A,N/A
127,Clay,Children's Services - Manchester,Family Services,"239 Richmond Rd, Manchester, KY 40962",606-598-0796,37.155536,-83.759203,Mon-Fri 8-4:30,https://csws.chfs.ky.gov/csws/General/Landing.aspx,N/A,N/A,N/A,N/A,N/A,N/A,N/A,N/A
128,Clay,Clay County community-Based services,Family Services,"25 Marcum Hill Rd, Manchester, KY 40962",606-598-2027,37.161653,-83.765967,Mon-Fri 8-4:30,https://chfs.ky.gov/agencies/dcbs/Pages/default.aspx,N/A,N/A,N/A,N/A,N/A,N/A,N/A,N/A
129,Clay,Daniel Boone Community Action Agency - Manchester,Community Services,"33 Marcum Hill Rd, Manchester, KY 40962",606-598-5127,37.155536,-83.759203,Mon-Fri 8-4:30,http://danielboonecaa.org/,N/A,N/A,N/A,N/A,N/A,N/A,N/A,N/A
130,Clay,Clay County Public Library,Library,211 Bridge Street Manchester KY 40962-1203,606-598-2617,37.154081,-83.761274,"Mon 9-8, Tues-Wed 9-5, Thurs 9-8, Fri 9-5, Sat 9-1",http://www.claycountyLibrary.org/,N/A,N/A,N/A,N/A,N/A,N/A,"Free computer access, free community room, bookmobile, ebooks, online test prep, free classes",
131,Clay,Clay County Extension,Cooperative Extension Offices,"69 Jameson Road Manchester, KY 40962-0421",606-598-2789,37.136403,-83.75981,Mon-Fri 8-4:30,http://clay.ca.uky.edu/,N/A,N/A,N/A,N/A,N/A,N/A,N/A,N/A
132,Clinton,IGA - Albany,Grocery,"120 Westview Shopping Center, Albany, KY 42602",606-387-5117,36.69894,-85.143803,"Mon-Thurs 7-8, Friday, Sat 7-9, Sun 7-8",https://www.myiga.com/,N/A,Yes,No,N/A,N/A,N/A,N/A,N/A
133,Clinton,Save-a-Lot - Albany,Grocery,"415 Burkesville Rd, Albany, KY 42602",606-387-8034,36.696793,-85.141252,Everyday 8-9,https://savealot.com/grocery-stores/albany-42602-23469/,N/A,Yes,Yes,N/A,N/A,N/A,N/A,N/A
134,Clinton,Clinton County Farmers' Market,Farmers' Market,"19 Mountain View Park Way Albany, KY 42602",606-688-4337,36.715554,-85.136474,Seasonal,https://www.clintoncoky.com/listing/clinton-county-farmers-market/,N/A,No,No,Yes,N/A,N/A,N/A,N/A
135,Clinton,Clinton County Recycling Center,Recycling Centers,136 Clinton Street Albany KY 42602,606-688-2746,36.687488,-85.129532,N/A,https://clintoncounty.ky.gov/Pages/default.aspx,N/A,N/A,N/A,N/A,"AL, PL( HDPE, PET), FE, NONFE, OCC, CARBAT, OPSORT, ONP",8,"Dropoff, curbside",Government facility
136,Clinton,Morrison Recycling & TS,Recycling Centers,235 Transfer Station Road Albany KY 42602,606-387-9902,36.751328,-85.201057,Mon-Fri 7-4,N/A,N/A,N/A,N/A,N/A,"GL, AL, PL( HDPE, PET), OCC, CARBAT, OPMIX, ONP, UO, MRP",9,"Process, dropoff",Commercial recycler
137,Clinton,Cabinet for Healthy and Family Services - Albany,Family Services,"801 Tennessee Rd D, Albany, KY 42602",606-387-6655,36.682599,-85.129864,Mon-Fri 8-4:30,https://chfs.ky.gov/Pages/index.aspx,N/A,N/A,N/A,N/A,N/A,N/A,N/A,N/A
138,Clinton,Lake Cumberland Community Action - Albany,Community Services,"110 Spring St # A, Albany, KY 42602",606-387-5880,36.6894582,-85.1345326,Mon-Fri 8-4:30,http://www.lc-caa.org/,N/A,N/A,N/A,N/A,N/A,N/A,N/A,N/A
139,Clinton,Kentucky Career Center - Albany,Career Services,"2353 North Highway 127 Albany, KY 42602",606-387-8082,36.718607,-85.13557,"Mon-Wed 8-4, Fri 8-4",https://kcc.ky.gov/Pages/default.aspx,N/A,N/A,N/A,N/A,N/A,N/A,N/A,N/A
140,Clinton,Clinton County Public Library,Library,"302 King Drive Albany, KY 42602-1603",606-387-5989,36.710746,-85.13553,"Mon 8-5, Tues 8-6:30, Wed 8-5, Fri 8-5, Sat 8-noon",http://clintoncountypublicLibrary.org,N/A,N/A,N/A,N/A,N/A,N/A,N/A,N/A
141,Clinton,Clinton County Extension,Cooperative Extension Offices,"2601 Business 127 North Albany, KY 42602",606-387-5404,36.722291,-85.13565,"Mon-Fri 7:30-4, closed daily 12-1",http://clinton.ca.uky.edu/,N/A,N/A,N/A,N/A,N/A,N/A,N/A,N/A
142,Cumberland,IGA - Burkesville,Grocery,"116 Keen St, Burkesville, KY 42717",270-864-2234,36.784193,-85.373069,"Mon-Thurs 7-8, Friday, Sat 7-9, Sun 7-8",https://www.myiga.com/,N/A,No,No,N/A,N/A,N/A,N/A,N/A
143,Cumberland,Kountry Kitchen Store,Grocery,"8459 Glasgow Rd, Burkesville, KY 42717",270-864-9200,36.830672,-85.492428,"Tues-Fri 8-5, Sat 8-4",kountrykitchenstore.com/,N/A,Yes,Yes,N/A,N/A,N/A,N/A,N/A
144,Cumberland,Burksville Farmers Market,Farmer's Market,"204 South Main Street Burkesville, Kentucky 42717",270-433-7400,36.715554,-85.136474,Seasonal,https://www.facebook.com/cumberlandcountyfood/,N/A,Yes,Yes,Yes,N/A,N/A,N/A,N/A
145,Cumberland,Cumberland County Recycling Program,Recycling Centers,"1805 South Main Street, Burkesville KY 42717",270-406-2707,36.770243,-85.359474,"Mon and Fri 7-3,  Tues and Thurs 7-11",https://cumberlandcounty.ky.gov/deptsagen/Pages/Re,N/A,N/A,N/A,N/A,"AL, PL( HDPE, PET), FE, NONFE, OCC, OPSORT, ST CANS, ONP, ESCRAP, MRP, RUB",11,Dropoff,Government facility
146,Cumberland,Scott's Scrap Yard,Recycling Centers,1012 Free Ferry Rd Burkesville KY 42717,270-433-6111,36.77019,-85.36435,N/A,N/A,N/A,N/A,N/A,N/A,"AL, FE, NONFE, CARBAT, ST CANS, WHITE",6,"Dropoff, broker",Commercial recycler
147,Cumberland,Social Service Department - Burkesville,Community Services,"232 Keen St, Burkesville, KY 42717",270-864-3834,36.782962,-85.372177,Mon-Fri 8-4:30,https://www.lcdhd.org/,N/A,N/A,N/A,N/A,N/A,N/A,N/A,N/A
148,Cumberland,Cumberland County Family Resources,Family Services,"353 N Main St, Burkesville, KY 42717",270-864-1262,36.794691,-85.368805,Mon-Fri 8-4:30,https://www.cland.k12.ky.us/Administration/18,N/A,N/A,N/A,N/A,N/A,N/A,N/A,N/A
149,Cumberland,Lake Cumberland Community Action - Burkesville,Community Services,"Courthouse, Burkesville, KY 42717",270-864-4386,36.790142,-85.370545,Mon-Fri 8-4:30,http://www.lc-caa.org/index.php,N/A,N/A,N/A,N/A,N/A,N/A,N/A,N/A
150,Cumberland,US Rural Development,Community Services,"202 N Main St, Burkesville, KY 42717",270-864-2631,36.791507,-85.36901,Mon-Fri 8-4:30,https://www.rd.usda.gov/,N/A,N/A,N/A,N/A,N/A,N/A,N/A,N/A
151,Cumberland,Kentucky Career Center - Burkesville,Career Services,"213 Upper Street Burkesville, KY 42717",270-864-9316,36.789241,-85.368685,Wed-Thurs 8-3:30,https://kcc.ky.gov/Pages/default.aspx,N/A,N/A,N/A,N/A,N/A,N/A,N/A,N/A
152,Cumberland,Cumberland County Public Library,Library,"114 Hill Street P.O. Box 440 Burkesville, KY 42717-0440",270-864-2207,36.790841,-85.371266,"Mon-Fri,8:30-4:50, Sat 8:30-11:50",http://cumberlandcountyLibrary.org,N/A,N/A,N/A,N/A,N/A,N/A,"Free computer access, free WiFi, bookmobilee, genealogy resources, printing services",
153,Cumberland,Cumberland County Extension,Cooperative Extension Offices,"90 Smith Grove Road Burkesville, KY 42717-0039",270-433-7700,36.774577,-85.36112,"Mon-Fri 7:30-4, closed daily 12-1",cumberland.ca.uky.edu/,N/A,N/A,N/A,N/A,N/A,N/A,N/A,N/A
154,Elliott,Save-a-Lot - Sandy Hook,Grocery,"1930 N, KY-7, Sandy Hook, KY 41171",606-738-6968,38.109284,-83.11457,"Everyday, 8-9",https://savealot.com/grocery-stores/sandy-hook-41171-45149/,N/A,Yes,Yes,N/A,N/A,N/A,N/A,N/A
155,Elliott,Elliott County Farmers Market,Farmer's Market,"2944 South Kentucky 7 Sandy Hook, KY 41171",606-738-6400,38.067075,-83.164341,Seasonal,https://www.facebook.com/ElliottCountyFarmersMarkett/?fref=ts%2Fpath#anchor,N/A,No,No,Yes,N/A,N/A,N/A,N/A
156,Elliott,Cabinet for Health and Family Services,Family Services,"Route 5, Box 1900, Junior Street Sandy Hook, KY 41171",606-738-5193,38.089942,-83.127031,Mon-Fri 8-4:30,https://elliottcounty.ky.gov/Departments/Pages/Cabinet-for-Health-and-Family Services-Services.aspx,N/A,N/A,N/A,N/A,N/A,N/A,N/A,N/A
157,Elliott,Elliott County Christian Community Center,Family Services,"157 Main St, Sandy Hook, KY 41171",606-738-4095,38.086384,-83.126255,Mon-Fri 8-4:30,https://www.facebook.com/pages/category/Religious-Organization/Elliott-County-Christian-Community Services-Center-Inc-ecccc-Inc-202844313086684/,N/A,N/A,N/A,N/A,N/A,N/A,N/A,N/A
158,Elliott,Kentucky Career Center - Sandy Hook,Community Services,"400 Main St, Sandy Hook, KY 41171",606-738-5796,38.085896,-83.127245,Mon-Fri 8:30-5,https://kcc.ky.gov/Pages/default.aspx,N/A,N/A,N/A,N/A,N/A,N/A,N/A,N/A
159,Elliott,Elliott County Christian Community Center,Community Services,"157 Main St, Sandy Hook, KY 41171",606-738-4095,38.086378,-83.126253,Mon-Fri 10-4,https://www.facebook.com/pages/category/Religious-Organization/Elliott-County-Christian-Community Services-Center-Inc-358544607604109/,N/A,N/A,N/A,N/A,N/A,N/A,N/A,N/A
160,Elliott,Rocky J. Adkins Public Library,Library,"207 S KY-7 P.O. 750 Sandy Hook, KY 41171-0750",606-738-5796,38.089746,-83.126258,Mon-Frid 8:30-5,https://www.facebook.com/ECPLRocks/,N/A,N/A,N/A,N/A,N/A,N/A,Ebooks,N/A
161,Elliott,Elliott County Extension,Cooperative Extension Offices,"2944 S KY 7 Sandy Hook, KY 41171-0709",606-738-6400,38.067335,-83.164643,Mon-Fri 8-4:30,http://elliott.ca.uky.edu/,N/A,N/A,N/A,N/A,N/A,N/A,N/A,N/A
162,Estill,Price Less Foods - Irvine,Grocery,"1012 Winchester Rd, Irvine, KY 40336",606-723-5338,37.71242,-83.97595,Everyday 8-9,https://www.mypricelessfoods.com/,N/A,yes,Yes,N/A,N/A,N/A,N/A,N/A
163,Estill,Save-a-Lot - Irvine,Grocery,"1290 Richmond Rd, Irvine, KY 40336",606-723-6372,37.699971,-83.993775,"Mon-Fri 8-9, Sat 8-10, Sun 8-9",https://savealot.com/grocery-stores/irvine-40336-24650/,N/A,yes,Yes,N/A,N/A,N/A,N/A,N/A
164,Estill,Estill County Farmers' Market,Farmer's Market,"30 South Irvine Road, Irvine, KY 40336",606-726-0679,37.694176,-83.977737,Seasonal,https://www.facebook.com/estillcountyfarmersmarket/,N/A,maybe this year,maybe,Yes,N/A,N/A,N/A,N/A
165,Estill,Advanced Disposal,Recycling Centers,2700 Winchester Rd Irvine KY 40336,606-723-5552,37.737238,-83.984627,N/A,https://www.advanceddisposal.com/for-home.aspx,N/A,N/A,N/A,N/A,"GL, AL, PL( HDPE, PET), OPMIX, ST CANS, ONP, MRP",7,curbside,commercial recycler
166,Estill,C & S Re Cycling,Recycling Centers,5565 Richmond Rd Irvine KY 40336,606-723-9101,37.701965,-84.064336,N/A,N/A,Scrap Metal Dealer,N/A,N/A,N/A,"AL, NONFE, ST CANS",3,"Dropoff, broker",commercial recycler
167,Estill,Cox Recycling,Recycling Centers,485 McKee Road Irvine KY 40336,606-599-7793,37.701965,-84.064336,N/A,N/A,"We purchase all ferrous materials copper, aluminum, etc, all non magnetic metals. We purchase all non ferrous materials which includes appliances, and any other magnetic metals. We specialize in escrap, (computer equipment, electronic and all there components.",N/A,N/A,N/A,"AL, FE, NONFE, ST CANS, ESCRAP",5,"Dropoff, broker",Commercial recycler
168,Estill,Estill County Recycling Center,Recycling Centers,532 Kirkland Ave Irvine KY 40336,606-723-5580,37.682957,-83.957684,Mon-Thurs 7-5:30,http://estillky.com/index.php/estill-road-department-rec,Containers should be rinsed and lids removed.,N/A,N/A,N/A,"AL, PL( HDPE, PET), FE, NONFE, OCC, OPMIX, OPSORT, ST CANS, ONP, ESCRAP, MRP",11,"Dropoff, curbside",Government facility
169,Estill,Schools Family Resource Center,Family Services,"155 Riverview Rd, Irvine, KY 40336",606-723-7733,37.701158,-83.987825,Mon-Fri 8-4:30,https://www.estill.k12.ky.us/WII/Content2/frc,N/A,N/A,N/A,N/A,N/A,N/A,N/A,N/A
170,Estill,Community-Based Services - Irvine,Community Services,"102 Mack St, Irvine, KY 40336",606-723-5124,37.699871,-83.975874,Mon-Fri 8-4:30,https://kentucky.gov/health/Pages/default.aspx,N/A,N/A,N/A,N/A,N/A,N/A,N/A,N/A
171,Estill,American Red Cross - Irvine,Community Services,"177 Broadway St, Irvine, KY 40336",606-723-1914,37.700457,-83.972406,Mon-Fri 8-4:30,https://www.redcross.org/,N/A,N/A,N/A,N/A,N/A,N/A,N/A,N/A
172,Estill,Estill County Public Library,Library,"246 Main Street Irvine, KY 40336-1099",606-723-3030,37.702929,-83.974995,"Mon-Fri 10-6, Sat 10-3",https://estillpublib.org/,N/A,N/A,N/A,N/A,N/A,N/A,"Free computer access, free WiFi, free notary services, printing services, bookmobile, computer classes",
173,Estill,Estill County Extension,Cooperative Extension Offices,"76 Golden Court Irvine, KY 40336",606-723-4557,37.699596,-84.008125,Mon-Fri 8-4:30,http://estill.ca.uky.edu/,N/A,N/A,N/A,N/A,N/A,N/A,N/A,N/A
174,Fleming,Save-a-Lot - Flemingsburg,Grocery,"201 S Main Cross St, Flemingsburg, KY 41041",606-845-0647,38.421209,-83.734411,Everyday 9-9,https://savealot.com/grocery-stores/flemingsburg-41041-24147/,N/A,Yes,Yes,N/A,N/A,N/A,N/A,N/A
175,Fleming,Dollar General - Flemingsburg,Grocery,"112 Clark St., Flemingsburg, KY 41041",937-795-4560,38.41866,-83.735902,Everyday 7-11pm,https://www.dollargeneral.com/,N/A,Yes,Yes,N/A,N/A,N/A,N/A,N/A
176,Fleming,Ken's Fresh Foods,Grocery,"110 Clark St, Flemingsburg, KY 41041",606-849-2366,38.418104,-83.737131,Everyday 7-9,https://www.kensfreshfoods.com/,N/A,Yes,Yes,N/A,N/A,N/A,N/A,N/A
177,Fleming,Dinner Bell Country Market,Produce Market,"1532 Maysville Rd, Flemingsburg, KY 41041",606-849-1919,38.442272,-83.741988,N/A,https://www.facebook.com/TheDinnerBellCountryMarket/,N/A,No,Yes,N/A,N/A,N/A,N/A,N/A
178,Fleming,Fleming County Farmer's market,Farmer's Market,"1384 Elizaville Rd, Flemingsburg, KY 41041",606-845-4641,38.420921,-83.759612,Seasonal,located at the fleming county cooperative Cooperative Extension Offices parking lot https://www.facebook.com/flemingcountyfarmersmarket/,N/A,No,No,Yes,N/A,N/A,N/A,N/A
179,Fleming,Flemingsburg City Maintenance Garage,Recycling Centers,140 West Electric Ave Flemingsburg KY 41041,606-845-9307,38.422285,-83.735947,N/A,http://www.flemingcountyky.us/road.asp,N/A,N/A,N/A,N/A,"GL, AL, PL( HDPE, PET), OCC, OPMIX, WHITE, ONP, MRP",8,"Dropoff, curbside",Government facility
180,Fleming,Social Service Department - Flemingsburg,Family Services,"102 Clark St, Flemingsburg, KY 41041",606-723-5146,38.418829,-83.736135,Mon-Fri 8-4:30,https://www.dcfoffices.org/office/ky_40336_estill-county-dcf-office,N/A,N/A,N/A,N/A,N/A,N/A,N/A,N/A
181,Fleming,Licking Valley Community Action,Community Services,"203 High St Flemingsburg, KY 41041",606-845-0081,38.4153237,-83.7387011,Mon-Fri 8-4:30,http://www.lvcap.com/,N/A,N/A,N/A,N/A,N/A,N/A,N/A,N/A
182,Fleming,Habitat for Humanity - Flemingsburg,Community Services,"117 W Main St, Flemingsburg, KY 41041",N/A,38.418829,-83.736135,Mon-Fri 8-4:30,N/A,N/A,N/A,N/A,N/A,N/A,N/A,N/A,N/A
183,Fleming,Fleming County Public Library,Library,"202 Bypass Boulevard Flemingsburg, KY 410141-1298",606-845-7851,38.41654,-83.751438,"Mon 8-6, Tues 8-8, Mon 8-6, Thurs 8-8, Fri 8-5, Sat 8-3",http://www.youseemore.com/fleming,N/A,N/A,N/A,N/A,N/A,N/A,"ebooks, bookmobile, children services, book clubs",
184,Fleming,Fleming County Extension,Cooperative Extension Offices,"1384 Elizaville Rd Flemingsburg, KY 41041-0192",606-845-4641,38.420911,-83.759437,"Mon - Fri 8:30-5, closed daily 12-1",http://fleming.ca.uky.edu/,N/A,N/A,N/A,N/A,N/A,N/A,N/A,N/A
185,Floyd,McDowell IGA,Grocery,"9623 KY-122, McDowell, KY 41647",606-377-6911,37.458511,-82.749136,"Mon-Sat 7-10, Sun 9-9",https://mcdowelliga.net/,N/A,Yes,Yes,N/A,N/A,N/A,N/A,N/A
186,Floyd,Martin IGA,Grocery,"12405 Main St, Martin, KY 41649",606-285-3932,37.564116,-82.758651,"Mon-Sat 7-9, Sun 8-9",https://martiniga.net/,N/A,Yes,Yes,N/A,N/A,N/A,N/A,N/A
187,Floyd,Food City - Prestonsburg,Grocery,"429 University Dr, Prestonsburg, KY 41653",606-889-9375,37.685445,-82.782326,Mon-Sat 6-12am,https://www.foodcity.com/stores/store-details/471/?utm_source=googlebusiness&utm_medium=businesslocal&utm_campaign=grocery&utm_content=471,N/A,Yes,Yes,N/A,N/A,N/A,N/A,N/A
188,Floyd,Save-a-Lot - Prestonsburg,Grocery,"525 Village Dr, Prestonsburg, KY 41653",606-886-2230,37.655555,-82.782755,Everyday 8-9,https://savealot.com/grocery-stores/prestonsburg-41653-24611/,N/A,Yes,Yes,N/A,N/A,N/A,N/A,N/A
189,Floyd,Walmart - Prestonsburg,Grocery,"477 Village Dr, Prestonsburg, KY 41653",606-886-6681,37.655316,-82.78193,Everyday 6-11pm,https://www.walmart.com/store/696/prestonsburg-ky/details,N/A,Yes,Yes,N/A,N/A,N/A,N/A,N/A
190,Floyd,Triangle Market,Grocery,"98 Triangle Street, Martin, KY 41649",606-285-3513,37.560926,-82.760854,Mon-Fri,https://www.facebook.com/TriangleMarket,N/A,Yes,Yes,N/A,N/A,N/A,N/A,N/A
191,Floyd,Save-a-Lot - Martin,Grocery,"39 Stephens Branch, Martin, KY 41649",606-285-9700,37.555682,-82.772569,"Mon-Sat 8-9, Sun 9-8",https://savealot.com/grocery-stores/martin-41649-23505/,N/A,Yes,Yes,N/A,N/A,N/A,N/A,N/A
192,Floyd,Big O's Produce,Produce Market,"600 US Highway 23 S Prestonsburg, Kentucky 41653",606-791-7041,37.641357,-82.756793,N/A,https://www.facebook.com/pages/category/Local-Business/Big-Os-Produce-327331827840212/,N/A,No,No,N/A,N/A,N/A,N/A,N/A
193,Floyd,Farmer's Market - Prestonsburg,Farmer's Market,"361 N. Lake Drive Prestonsburg, Ky 41653",606-339-4424,37.675444,-82.778566,Seasonal,https://www.facebook.com/Floydcfmarket/,Contact: Gary Gearheart. Located on the right hand corner https://www.facebook.com/Floydcfmarket/,"Yes, when we can get the machine to work....",No,Yes,N/A,N/A,N/A,N/A
194,Floyd,Prestonsburg Public Works,Recycling Centers,200 North Lake Drive Prestonsburg KY 41653,606-886-3537,37.669224,-82.773853,N/A,N/A,N/A,N/A,N/A,N/A,"PL( HDPE, PET), FE, NONFE, OCC, OPSORT, ST CANS, ONP",7,"Dropoff, curbside",Government facility
195,Floyd,T&B Recycling 440 Ivyton Road Salyersville KY 41465,Recycling Centers,T&B Recycling 440 Ivyton Rd Salyersville KY 41465,606-874-9675,37.702296,-82.978871,N/A,N/A,Scrap metal dealer,N/A,N/A,N/A,"AL, NONFE",2,"Dropoff, broker",Commercial recycler
196,Floyd,The Mountain Metal Company,Recycling Centers,35 Depot Road Prestonsburg KY 41653,606-886-2102,37.672113,-82.781642,"Mon-Fri 8-4, Sat 8-11:30am",http://mountainmetalr.com/home.html,N/A,N/A,N/A,N/A,"AL, FE, NONFE, CARBAT",4,"Handler, Process, Dropoff, Broker",Commercial recycler
197,Floyd,Social Security Adminstration - Prestonsburg,Family Services,"1897 KY-321, Prestonsburg, KY 41653",800-772-1213,37.70292941,-82.78522811,Mon-Fri 8-4:30,https://www.ssa.gov/,N/A,N/A,N/A,N/A,N/A,N/A,N/A,N/A
198,Floyd,Families & Children Cabinet - Prestonsburg,Family Services,"311 N Arnold Ave, Prestonsburg, KY 41653",606-889-1724,37.669454,-82.776102,Mon-Fri 8-4:30,https://chfs.ky.gov/Pages/index.aspx,N/A,N/A,N/A,N/A,N/A,N/A,N/A,N/A
199,Floyd,Family Support and Food Stamps,Family Services,"1009 N Lake Dr, Prestonsburg, KY 41653",606-889-1800,37.695273,-82.769583,Sun-Fri 9-5,https://chfs.ky.gov/agencies/dcbs/dfs/Pages/default.aspx,N/A,N/A,N/A,N/A,N/A,N/A,N/A,N/A
200,Floyd,Floyd County Child Support,Family Services,"430 S Lake Dr, Prestonsburg, KY 41653",606-889-0977,37.6656,-82.769806,Mon-Fri 7-4,https://csws.chfs.ky.gov/csws/,N/A,N/A,N/A,N/A,N/A,N/A,N/A,N/A
201,Floyd,Child Support Division - Prestonsburg,Family Services,"127 S Lake Dr, Prestonsburg, KY 41653",606-889-1714,37.667827,-82.772966,Mon-Fri 8-4:30,https://csws.chfs.ky.gov/csws/General/Landing.aspx,N/A,N/A,N/A,N/A,N/A,N/A,N/A,N/A
202,Floyd,Kentucky Career Center - Prestonsburg,Career Services,"686 N. Lake Drive Prestonsburg, KY 41653",606-889-1772,37.675618,-82.778148,"Mon-Wed 8-5, Thurs 8-4:30, Fri 8-noon",https://kcc.ky.gov/Pages/default.aspx,N/A,N/A,N/A,N/A,N/A,N/A,N/A,N/A
203,Floyd,Big Sandy Area Community Action Program - Allen,Career Services,"60 Court St. Allen, KY 41601",606-874-2420,37.615253,-82.721914,Mon-Fri 8-4:30,bsacap.org,N/A,N/A,N/A,N/A,N/A,N/A,N/A,N/A
204,Floyd,Office for Children with Special Health Care Needs,Family Services,"5000 KY Route 321 Prestonsburg, KY 41653",606-889-1761,37.728985,-82.765938,Mon-Fri 8-4:30,https://chfs.ky.gov/agencies/ccshcn/Pages/default.aspx,N/A,N/A,N/A,N/A,N/A,N/A,N/A,N/A
205,Floyd,Floyd County Public Library,Library,161 North Arnold Avenue Prestonsburg KY 41653-1269,606-886-2981,37.668148,-82.774891,"Mon 8:30-5, Tues 8:30-6:30, Wed 8:30-5, Thurs 8:30-6:30, Fri 8:30-5, Sat 8:30-1",http://www.fclib.org,N/A,N/A,N/A,N/A,N/A,N/A,"Printing services, free computer access, meeting rooms, book clubs, geneology room, free WiFi, free programs, test proctoring, bookmobile",
206,Floyd,Eastern Branch Library,Library,"10983 KY Route 80 Eastern, KY 41622",606-377-2860,37.506349,-82.814515,"Mon 8:30-5, Tues 8:30-6:30, Wed 8:30-5, Thurs 8:30-6:30, Fri 8:30-5, Sat 8:30-1",http://www.fclib.org,N/A,N/A,N/A,N/A,N/A,N/A,"Printing services, free computer access, meeting rooms, book clubs, geneology room, free WiFi, free programs, test proctoring, bookmobile",
207,Floyd,Floyd County Extension,Cooperative Extension Offices,"3490 KY Route 321 Prestonsburg, KY 41653",606-845-4641,37.713796,-82.765515,"Mon-Fri 8-4:30, closed daily 12-1",http://floyd.ca.uky.edu/,N/A,N/A,N/A,N/A,N/A,N/A,N/A,N/A
208,Garrard,Save-a-Lot - Lancaster,Grocery,"140 Pleasant Retreat Dr, Lancaster, KY 40444",859-792-1679,37.602063,-84.591102,"Everyday, 8-9",https://savealot.com/grocery-stores/lancaster-40444-45147/,N/A,Yes,Yes,N/A,N/A,N/A,N/A,N/A
209,Garrard,Sticky Wicket Farms,Produce Market,"1544 High Bridge Rd, Lancaster, KY 40444",859-548-4517,37.769952,-84.673919,N/A,https://stickywicketfarms.com/,N/A,No,No,N/A,N/A,N/A,N/A,N/A
210,Garrard,Garrard County Farmers Market,Farmer's Market,"117 Lexington St Lancaster, Kentucky 40444",859-339-2665,37.620534,-84.57872,Seasonal,https://www.facebook.com/GarrardCFarmersM/,N/A,No,No,Yes,N/A,N/A,N/A,N/A
211,Garrard,Garrard County Transfer Station,Recycling Centers,Hanging Fork Road Lancaster KY 40444,800-828-8171,37.635965,-84.65634,N/A,N/A,N/A,N/A,N/A,N/A,"CARBAT, RUB",2,"Dropoff, other",Automative Service
212,Garrard,Lancaster-Garrard Co. Recycling,Recycling Centers,400 South Campbell St Lancaster KY 40444,859-792-1868,37.614201,-84.578106,"Mon-Fri 9-5, Sat 9-4",http://garrardcounty.us/index.php/solid-waste-recycling,N/A,N/A,N/A,N/A,"GL, AL, PL( HDPE, PET), OCC, CARBAT, OPMIX, ST CANS, ONP, ESCRAP",9,"Handler, Process, Dropoff, curbside",Government facility
213,Garrard,Triple T Metal Corporation,Recycling Centers,240 George Wilson Rd Lancaster KY 40444,859-548-5509,37.747983,-84.619057,N/A,https://www.facebook.com/Triple-T-Metals-Corporation,N/A,N/A,N/A,N/A,"AL, FE, NONFE, ST CANS",4,"Dropoff, broker",Commercial recycler
214,Garrard,Social Service Department - Lancaster,Family Services,"136 Commerce Dr, Lancaster, KY 40444",859-792-2186,37.599254,-84.593922,N/A,https://www.dcfoffices.org/office/ky_40444_garrard-county-dcf-office,N/A,N/A,N/A,N/A,N/A,N/A,N/A,N/A
215,Garrard,Garrard County Child Support,Family Services,7 Public Square Lancaster KY 40444,859-792-1231,37.619177,-84.57922,Mon-Fri 8-4,https://csws.chfs.ky.gov/csws/General/Landing.aspx,N/A,N/A,N/A,N/A,N/A,N/A,N/A,N/A
216,Garrard,Garrard County Public Library,Library,"101 Lexington Street Lancaster, KY 40444-1155",859-792-3424,37.619905,-84.578732,"Mon 9-5, Tues 9-8, Wed 9-5, Thurs 9-8, Fri 9-5, Sat 9-3",http://garrardLibrary.org/,N/A,N/A,N/A,N/A,N/A,N/A,"Job search assistant, research help, help with computer services, book clubs, teen game nights",
217,Garrard,Garrard County Extension,Cooperative Extension Offices,"1302 Stanford St. Lancaster, KY 40444-1238",859-792-3026,37.604147,-84.586075,Mon-Fri 8-4:30,http://garrard.ca.uky.edu/,N/A,N/A,N/A,N/A,N/A,N/A,N/A,N/A
218,Green,Block City Grocery - Greensburg,Grocery,"4601 KY-218, Greensburg, KY 42743",270-565-5111,37.181468,-85.615487,"Mon-Sat 6-9, Sun 9-9",https://www.facebook.com/blockcityky/?rf=216530168863414,N/A,Yes,Yes,N/A,N/A,N/A,N/A,N/A
219,Green,Greensburg Recycling Center,Recycling Centers,214 Industrial Drive Greensburg KY 42743,270-932-4298,37.245893,-85.492234,N/A,http://www.greensburgonline.com/Facilities/Facility/Det,N/A,N/A,N/A,N/A,"AL, PL( HDPE, PET), OCC, OPMIX, ST CANS, ONP",6,Dropoff,Government facility
220,Green,Lake Cumberland Community Services,Community Services,"100 E Court St, Greensburg, KY 42743",270-932-7324,37.260712,-85.501186,Mon-Fri 8-4:30,http://www.lc-caa.org/,N/A,N/A,N/A,N/A,N/A,N/A,N/A,N/A
221,Green,Food Stamp Office - Greensburg,Family Services,"605 Columbia Hwy, Greensburg, KY 42743",855-306-8959,37.248992,-85.502137,Mon-Fri 8-4:30,https://chfs.ky.gov/Pages/index.aspx,N/A,N/A,N/A,N/A,N/A,N/A,N/A,N/A
222,Green,Kentucky Career Center - Greensburg,Career Services,"113 North Main Street Greensburg, KY 42743",270-932-5936,37.261721,-85.501663,Wed-Thurs 8-3:30,https://kcc.ky.gov/Pages/default.aspx,N/A,N/A,N/A,N/A,N/A,N/A,N/A,N/A
223,Green,Green County Public Library,Library,112 West Court Street Greensburg KY 42743-1562,270-932-7081,37.261188,-85.502566,"Mon 8:30-6:30, Tues 8:30-4:30, Wed 8:30-12:30, Thurs 8:30-4:30, Fri 8:30-4:30, Sat 8:30-12:30",http://www.gcpl.info,N/A,N/A,N/A,N/A,N/A,N/A,"Printing services, book clubs, outreach services, children services",
224,Green,Green County Extension,Cooperative Extension Offices,"298 Happyville Road Greensburg, KY 42743",270-932-5311,37.275412,-85.510991,"Mon-Fri 7:30-4, closed daily 12-1",http://green.ca.uky.edu/,N/A,N/A,N/A,N/A,N/A,N/A,N/A,N/A
225,Greenup,Greenup Food Fair,Grocery,"1625 Ashland Rd, Greenup, KY 41144",606-473-9891,38.568188,-82.825314,Everyday 8-9,http://www.foodfairmarkets.com/,N/A,Yes,Yes,N/A,N/A,N/A,N/A,N/A
226,Greenup,Greenup County Farmers Market,Farmers Market,"Advance Memorial United Methodist Church  1007 Bellefonte Road Flatwoods, KY 41139",606-836-0201,38.515108,-82.720325,Seasonal,https://www.facebook.com/Greenup-County-Farmers-Market-552621841925051/,N/A,No,No,Yes,N/A,N/A,N/A,N/A
227,Greenup,Social Service Department - Greenup,Community Services,"1103 Seaton Ave, Greenup, KY 41144",606-473-7366,38.570206,-82.832432,Mon-Fri 8-4:30,https://kentucky.gov/Pages/home.aspx,N/A,N/A,N/A,N/A,N/A,N/A,N/A,N/A
228,Greenup,Greenup County Child Support,Family Services,"301 Main St # 205, Greenup, KY 41144",606-473-1734,38.57827,-82.836269,9-4:30,https://csws.chfs.ky.gov/csws/General/Landing.aspx,N/A,N/A,N/A,N/A,N/A,N/A,N/A,N/A
229,Greenup,"Emmaus Respite and Resource Center, Inc",Community Services,"410 Main St, Greenup, KY 41144",606-547-1140,38.577229,-82.83635,Mon-Fri 8:30-4:30,http://www.emmausrandr.org/,N/A,N/A,N/A,N/A,N/A,N/A,N/A,N/A
230,Greenup,Flatwoods Branch Library,Library,1705 Argillite Road Flatwoods KY 41139,606-836-3771,38.524198,-82.716311,"Mon-Tues 10-8, Wed 10-5, Thurs 10-8, Fri-Sat 10-5",www.youseemore.com/greenup/,N/A,N/A,N/A,N/A,N/A,N/A,"Hoopla ebooks, bookmobile,genealogy services, online test prep",
231,Greenup,Greenup County Public Library,Library,"508 Main Street Greenup, KY 41144",606-473-6514,38.576868,-82.835767,"Mon 9-8, Tues-Wed 9-5, Thurs 9-8, Sat 9-2",http://www.youseemore.com/greenup/,N/A,N/A,N/A,N/A,N/A,N/A,"Hoopla ebooks, bookmobile,genealogy services, online test prep",
232,Greenup,McKell Branch Library,Library,"22 McKell Lane South Shore, KY 41175",606-932-4478,38.723388,-82.946916,"Mon 9-8, Tues-Fri 9-5, Sat 9-2",www.youseemore.com/greenup/,N/A,N/A,N/A,N/A,N/A,N/A,"Hoopla ebooks, bookmobile,genealogy services, online test prep",
233,Greenup,Greenup County Extension,Cooperative Extension Offices,"35 Wurtland Ave Wurtland, KY 41144",606-836-0201,38.552198,-82.789856,Mon-Fri 8-4:30,http://greenup.ca.uky.edu/,N/A,N/A,N/A,N/A,N/A,N/A,N/A,N/A
234,Harlan,Food City - Harlan,Grocery,"2478 US-421, Harlan, KY 40831",606-573-3311,36.825149,-83.322139,Everyday 6-12am,https://www.foodcity.com/stores/store-details/437/?utm_source=googlebusiness&utm_medium=businesslocal&utm_campaign=grocery&utm_content=437,N/A,Yes,Yes,N/A,N/A,N/A,N/A,N/A
235,Harlan,Save-a-Lot - Harlan,Grocery,"93 Industrial Park Rd, Harlan, KY 40831",606-573-5891,36.834696,-83.326999,Everyday 8-9,https://savealot.com/grocery-stores/harlan-40831-24476/,N/A,Yes,Yes,N/A,N/A,N/A,N/A,N/A
236,Harlan,Cash Saver - Harlan,Grocery,"416 S Main St, Harlan, KY 40831",606-573-5231,36.834696,-83.326999,Everyday 8-10,https://www.harlancashsaver.com/WeeklyAd/Index,N/A,No,No,N/A,N/A,N/A,N/A,N/A
237,Harlan,Walmart - Harlan,Grocery,"201 Walton Road, Harlan, KY 40831",606-573-2206,36.817516,-83.318128,Everyday 6-12am,https://www.walmart.com/store/1743/harlan-ky/details,N/A,Yes,Yes,N/A,N/A,N/A,N/A,N/A
238,Harlan,Don's Super Saver,Grocery,"200 Waldon Dr, Harlan, KY 40831",606-573-4063,36.819637,-83.319044,Everyday 8-10,https://www.donssupersaver.com/,N/A,Yes,Yes,N/A,N/A,N/A,N/A,N/A
239,Harlan,Food City - Cumberland,Grocery,"1314 E Main St, Cumberland, KY 40823",606-589-4513,36.974868,-82.983236,Everyday 6-12am,https://www.foodcity.com/stores/store-details/437/?utm_source=googlebusiness&utm_medium=businesslocal&utm_campaign=grocery&utm_content=437,N/A,Yes,Yes,N/A,N/A,N/A,N/A,N/A
240,Harlan,Save-a-Lot - Evarts,Grocery,"158 E Main St, Evarts, KY 40828",606-837-2300,36.865582,-83.193166,Everyday 8-10,https://savealot.com/grocery-stores/evarts-40828-24477/,N/A,Yes,Yes,N/A,N/A,N/A,N/A,N/A
241,Harlan,Roper's Market,Grocery,"144 State Hwy 72, Baxter, KY 40806",606-573-1517,36.865582,-83.193166,Mon-Sat 8-4:30,N/A,N/A,Yes,Yes,N/A,N/A,N/A,N/A,N/A
242,Harlan,Apple Tree,Produce Market,"21991 US-119, Cumberland, KY 40823",606-589-5735,36.991243,-82.943601,N/A,N/A,N/A,No,No,N/A,N/A,N/A,N/A,N/A
243,Harlan,Harlan County Farmers Market,Farmers Market,"201 S. Main St Harlan, Kentucky 40831",606-505-6069,36.845965,-83.322726,Seasonal,https://www.facebook.com/harlancountyfarmersmarket/,N/A,No,No,Yes,N/A,N/A,N/A,N/A
244,Harlan,Baxter Metal Co,Recycling Centers,44 Yard Loop Baxter KY 40806,606-573-3200,36.875642,-83.300258,N/A,https://www.facebook.com/pages/category/Business-S,N/A,N/A,N/A,N/A,"AL, FE, NONFE, ST CANS, WHITE",5,"HANDLER, DROPOFF, BROKER",Commercial recycler
245,Harlan,Harlan County Recycling,Recycling Centers,15 S. Highway 413 Baxter KY 40806,606-573-9423,36.875642,-83.300258,N/A,N/A,N/A,N/A,N/A,N/A,"AL, PL( HDPE, PET), FE, NONFE, OCC, OPMIX, ST CANS, WHITE, ONP, ESCRAP, MRP, RUB",12,"Handler, process, dropoff, curbside",Government facility
246,Harlan,Social Security Administration - Harlan,Family Services,"189 Village Center Rd, Harlan, KY 40831",800-772-1213,36.814564,-83.317453,Mon-Fri 9-4,www.ssa.gov/,N/A,N/A,N/A,N/A,N/A,N/A,N/A,N/A
247,Harlan,Food Stamp Office - Harlan,Family Services,"115 S Cumberland Ave # 201, Harlan, KY 40831",855-306-8959,36.84636,-83.323501,Mon-Fri 8-4:30,https://chfs.ky.gov/Pages/index.aspx,N/A,N/A,N/A,N/A,N/A,N/A,N/A,N/A
248,Harlan,Harlan County CAA,Community Services,"319 Camden Street, Old National Guard Armory, Harlan, KY 40831",606-573-5330,36.840232,-83.328029,Mon-Fri 8-4:30,https://harlancountycaa.com/,N/A,N/A,N/A,N/A,N/A,N/A,N/A,N/A
249,Harlan,Cawood A James Family Resource,Family Services,"279 Ball Park Rd, Harlan, KY 40831",606-574-9224,36.809836,-83.315147,Mon-Fri 8-4:30,http://www.harlan.k12.ky.us/,N/A,N/A,N/A,N/A,N/A,N/A,N/A,N/A
250,Harlan,Evarts Elementary Family Resource Youth Services Center,Family Services,"132 Keister St, Evarts, KY 40828",606-837-2386,36.86869,-83.193305,Mon-Fri 7:30-3:30,http://www.harlan.k12.ky.us/ees/frysc.html,N/A,N/A,N/A,N/A,N/A,N/A,N/A,N/A
251,Harlan,KIH Harlan Career Center,Career Services,"124 S Cumberland Ave, Harlan, KY 40831",606-574-1020,36.845976,-83.324094,Mon-Fri 8-4:30,https://kcc.ky.gov/Pages/default.aspx,N/A,N/A,N/A,N/A,N/A,N/A,N/A,N/A
252,Harlan,Harlan County CAA,Community Services,"319 Camden Street Harlan, KY 40831",606-573-5335,36.840232,-83.328029,Mon-Fri 805,harlancountycaa.com,N/A,N/A,N/A,N/A,N/A,N/A,N/A,N/A
253,Harlan,Community & Business Development Center,Career Services,"700 College Rd. Cumberland, KY 40823",606-589-2145,36.968213,-82.997427,Mon-Fri 8-4:30,N/A,N/A,N/A,N/A,N/A,N/A,N/A,N/A,N/A
254,Harlan,Mountain Association for Community Economic Development (MACED),Community Services,"433 Chestnut St. Berea, KY 40403",859-986-2373,37.567559,-84.298183,Mon-Fri 8-5,https://maced.org/,N/A,N/A,N/A,N/A,N/A,N/A,N/A,N/A
255,Harlan,Evarts Public Library,Library,104 Harlan Street P.O. Box 100 Evarts KY 40828-0100,606-837-9703,36.86384,-83.193276,"Mon 9-5, Tues 9-7, Wed 9-5, Thurs 9-7, Fri 9-5, Sat 9-5",http://www.harlancountylibraries.org,N/A,N/A,N/A,N/A,N/A,N/A,"Women's club, ebooks, free WiFi",
256,Harlan,Harlan County Public Library,Library,107 North Third Street Harlan KY 40831,606-573-5220,36.847186,-83.320197,"Mon 9-5, Tues 9-7, Wed 9-5, Thurs 9-7, Fri 9-5, Sat 9-5",http://www.harlancountylibraries.org,N/A,N/A,N/A,N/A,N/A,N/A,"Women's club, ebooks, free WiFi",
257,Harlan,Rebecca Caudill Public Library,Library,"310 West Main Street Cumberland, KY 40823-2335",606-589-2409,36.974876,-82.992414,"Mon 9-5, Tues 9-7, Wed 9-5, Thurs 9-7, Fri 9-5, Sat 9-5",http://www.harlancountylibraries.org,N/A,N/A,N/A,N/A,N/A,N/A,"Women's club, ebooks, free WiFi",
258,Harlan,Harlan County Extension,Cooperative Extension Offices,"519 South Main St. Harlan, KY 40831-1911",606-836-0201,36.843628,-83.322254,Mon-Fri 8-4:30,http://harlan.ca.uky.edu/,N/A,N/A,N/A,N/A,N/A,N/A,N/A,N/A
259,Jackson,Town and Country Market,Grocery,"4368 KY-30, Annville, KY 40402",606-364-2323,37.319475,-83.971122,"Mon-Fri 5:30-11, Sat 7-11, Sun 8-11",https://www.facebook.com/pages/category/Gas-Station/Annville-Town-Country-Market-143267792372485/,N/A,Yes,Yes,N/A,N/A,N/A,N/A,N/A
260,Jackson,Dollar General - McKee,Grocery,"390 Main st. McKee, KY 40447",502-234-1920,37.430491,-83.99104,Everday 8-10,https://www.dollargeneral.com/,N/A,Yes,Yes,N/A,N/A,N/A,N/A,N/A
261,Jackson,Save-a-Lot - McKee,Grocery,"258 US-421, McKee, KY 40447",606-287-8330,37.432734,-83.9815,"Mon-Sat 8-8, Sun 10-6",https://savealot.com/grocery-stores/mckee-40447-22754/,N/A,Yes,Yes,N/A,N/A,N/A,N/A,N/A
262,Jackson,Dollar General - Tyner,Grocery,"10 Creech Hollow Rd, Tyner, KY 40486",606-364-6613,37.346036,-83.904381,Everyday 8-10,https://www.dollargeneral.com/,N/A,Yes,No,N/A,N/A,N/A,N/A,N/A
263,Jackson,Jackson County Farmers Market (Bond Memorial Park),Farmer's Market (Friday),"US-421, McKee, KY 40447",606-287-7693,37.504242,-84.174524,Seasonal,https://jackson.ca.uky.edu/content/jackson-county-farmers-market,N/A,Yes,yes,yes,N/A,N/A,N/A,N/A
264,Jackson,Jackson County Regional Food Center,Farmer's Market (Monday),"366 State Hwy 3443, Tyner, KY 40486",606-364-3436,37.73145,-84.275559,Seasonal,https://www.facebook.com/JacksonCountyRegionalFoodCenter/,N/A,yes,yes,yes,N/A,N/A,N/A,N/A
265,Jackson,Sand Gap Christian Church/ Youth Center And Food Bank,Food Pantry,"Sand Gap, KY 40481",606-965-3205,37.487059,-84.069727,N/A,https://www.facebook.com/sgcc421/?rf=162046263826338,N/A,yes,yes,yes,N/A,N/A,N/A,N/A
266,Jackson,Jackson County Transfer Station,Recycling Centers,McCammon RidgeRoad McKee KY 40447,606-287-7688,37.415351,-83.963531,N/A,https://jacksoncounty.ky.gov/Services/Pages/Departm,N/A,N/A,N/A,N/A,"AL, PL( HDPE, PET), FE, NONFE, OCC, CARBAT, OPMIX, OPSORT, ST CANS, WHITE, ONP, UO, ESCRAP, MRP, RUB",15,Dropoff,Government facility
267,Jackson,Jackson Metals,Recycling Centers,1344 HWY 421 N McKee KY 40447,606-287-8908,37.415351,-83.963531,N/A,https://www.facebook.com/pg/JacksonMetalRecycling/,N/A,N/A,N/A,N/A,"AL, FE, NONFE, CARBAT",4,"Dropoff, broker",Commercial recycler
268,Jackson,Social Services Department - McKee,Family Services,"1038 McCammon Ridge Rd McKee, KY 40447",606-287-7114,37.423537,-83.975133,Mon-Fri 8-4:30,https://chfs.ky.gov/agencies/dcbs/Pages/default.aspx,N/A,N/A,N/A,N/A,N/A,N/A,N/A,N/A
269,Jackson,Jackson County Child Support,Family Services,"McKee, KY 40447",606-287-5219,37.4309321,-83.9984049,Mon-Fri 8-4,https://csws.chfs.ky.gov/csws/,N/A,N/A,N/A,N/A,N/A,N/A,N/A,N/A
270,Jackson,Tyner Family Resource Center,Family Services,"1340 KY-30, Tyner, KY 40486",606-364-3878,37.3440167,-83.9321136,Mon-Fri 8-4:30,https://www.jackson.k12.ky.us/,N/A,N/A,N/A,N/A,N/A,N/A,N/A,N/A
271,Jackson,Daniel Boone Community Action Agency - McKee,Community Services,"5748 State Hwy 290, McKee, KY 40447",606-364-4484,37.360028,-83.974797,Mon-Fri 8-4:30,http://danielboonecaa.org/,N/A,N/A,N/A,N/A,N/A,N/A,N/A,N/A
272,Jackson,KY Cabinet For Family and Health Services,Family Services,"234-238 McCammon Ridge Rd, McKee, KY 40447",606-287-7114,37.423537,-83.975133,Mon-Fri 8-4:30,https://chfs.ky.gov/Pages/index.aspx,N/A,N/A,N/A,N/A,N/A,N/A,N/A,N/A
273,Jackson,Daniel Boone Development - McKee,Community Services,"5748 KY Hwy 290 McKee, KY 40447",606-364-4484,37.128665,-83.7614636,Mon -Fri  8-4:30,http://danielboonecaa.org/,N/A,N/A,N/A,N/A,N/A,N/A,N/A,N/A
274,Jackson,Jackson County Public Library,Library,338 North Main Street McKee KY 40447,606-287-8113,37.43051,-84.000347,"Mon 8:30-6, Tues-Wed 8:30-5, Thurs 8:30-6, Fri 8:30-5, Sat 10-2",http://www.jacksoncolibky.com,N/A,N/A,N/A,N/A,N/A,N/A,"Community room, veterans virtual living room, bookmobile, online test prep, work services, children and teen services",
275,Jackson,Jackson County Extension,Cooperative Extension Offices,"1408 Main Street South McKee, KY 40447-0188",606-287-7693,37.430119,-84.009842,Mon-Fri 8-4:30,http://jackson.ca.uky.edu/,N/A,N/A,N/A,N/A,N/A,N/A,N/A,N/A
276,Johnson,Food City - Paintsville,Grocery,"330 North Mayo Trail, Paintsville, KY 41240",606-789-8860,37.821375,-82.819871,Everyday 6-12am,https://www.foodcity.com/stores/store-details/424/?utm_source=googlebusiness&utm_medium=businesslocal&utm_campaign=grocery&utm_content=424,N/A,Yes,Yes,N/A,N/A,N/A,N/A,N/A
277,Johnson,Walmart Supercenter - Paintsville,Grocery,"470 No, S Mayo Trail, Paintsville, KY 41240",606-789-8920,37.823253,-82.825463,Everyday 6-11pm,https://www.walmart.com/store/1233/paintsville-ky/details,N/A,Yes,Yes,N/A,N/A,N/A,N/A,N/A
278,Johnson,Save-a-Lot - Paintsville,Grocery,"229 N S Mayo Trail, Paintsville, KY 41240",606-789-8393,37.811055,-82.806704,"Mon-Sat 8-9, Sun 9-8",https://savealot.com/grocery-stores/paintsville-41240-23488/,N/A,Yes,Yes,N/A,N/A,N/A,N/A,N/A
279,Johnson,Davis Produce - Hagerhill,Produce Market,"7330 KY-321, Hagerhill, KY 41222",606-789-5264,37.755022,-82.77757,"Mon-Fri 7-8, Sat 7-7, Sun 8:30-6",https://www.facebook.com/davis.produce/,N/A,Yes,Yes,N/A,N/A,N/A,N/A,N/A
280,Johnson,Johnson County Farmers' Market,Farmer's Market,"826 F. M. Stafford, Paintsville, Ky 41240",606-789-8108,37.808089,-82.798013,Seasonal,https://www.facebook.com/JohnsonCountyFarmersMarket01/,Contact: Lori Gearheart. located in the Cooperative Cooperative Extension Offices parking lot,Not yet,Yes,Yes,N/A,N/A,N/A,N/A
281,Johnson,Apple Valley Sanitation,Recycling Centers,4890 US 23 Hager Hill KY 41222,606-789-5980,37.77646,-82.792538,"Mon-Fri 7-3:30, Sat 7:30-11:30",https://www.facebook.com/pages/Apple-Valley-Sanitati,Also accepts used motor oil.,N/A,N/A,N/A,"FE, NONFE, OCC, WHITE, UO, RUB",6,"Handler, dropoff",Commercial recycler
282,Johnson,Walmart Supercenter - Paintsville,Recycling Centers,470 No. Mayo Trail Paintsville KY 41240,606-789-8920,37.77646,-82.792538,Everyday 6-11pm,https://www.walmart.com/store/1233/paintsville-ky/details,N/A,N/A,N/A,N/A,"CARBAT, UO",2,"Dropoff, other",Automotive service
283,Johnson,Johnson County Child Support,Family Services,"225 Court St, Paintsville, KY 41240",606-789-3338,37.814233,-82.807278,Mon-Fri 8-4,https://csws.chfs.ky.gov/csws/General/Landing.aspx,N/A,N/A,N/A,N/A,N/A,N/A,N/A,N/A
284,Johnson,Cabinet For Health & Family - Paintsville,Family Services,"205 Main St, Paintsville, KY 41240",606-788-7100,37.814375,-82.805047,Mon-Fri 8-4:30,https://chfs.ky.gov/Pages/index.aspx,N/A,N/A,N/A,N/A,N/A,N/A,N/A,N/A
285,Johnson,"Kentucky Career Center - Court Street, Paintsville",Career Services,"230 Court St. Paintsville, KY 41240",606-789-3641,37.814502,-82.806791,Mon-Fri 8-4:30,https://kcc.ky.gov/Pages/default.aspx,N/A,N/A,N/A,N/A,N/A,N/A,N/A,N/A
286,Johnson,"Kentucky Career Center - Main Street, Paintsville",Career Services,"5659 Main St. Paintsville, KY 41260",606-788-7080,37.821737,-82.768007,Mon-Fri 8-4:30,https://kcc.ky.gov/Pages/default.aspx,N/A,N/A,N/A,N/A,N/A,N/A,N/A,N/A
287,Johnson,Johnson County Public Library,Library,444 Main Street Painstville KY 41240-0788,606-789-4355,37.813394,-82.808218,"Mon 9:30-5, Tues 9:30-8, Wed 9:30-5, Thurs 9:30-8, Fri 9:30-5, Sat 9-2",http://www.johnsoncountypublicLibrary.org,N/A,N/A,N/A,N/A,N/A,N/A,"Free computer access, printing services, bookmobile, meeting rooms, free WiFi, free community workshop",
288,Johnson,Johnson County Extension,Cooperative Extension Offices,"826 F.M. Stafford Avenue Paintsville, KY 41240-1252",606-789-8108,37.808018,-82.797217,Mon-Fri 8-4:30,http://johnson.ca.uky.edu/,N/A,N/A,N/A,N/A,N/A,N/A,N/A,N/A
289,Knott,Mousie Market,Grocery,"9888 KY-550, Mousie, KY 41839",606-946-2111,37.418835,-82.877506,Everday 11-8,https://www.iga.com/,N/A,No,No,N/A,N/A,N/A,N/A,N/A
290,Knott,Casey's IGA,Grocery,"130 Holly Mill Mall Road, Hindman, KY 41822",606-785-4600,37.314492,-82.943827,"Mon-Sat 7-9, Sun 9-9",https://caseysiga.com/,N/A,Yes,Yes,N/A,N/A,N/A,N/A,N/A
291,Knott,Save-a-Lot - Hindman,Grocery,"402 KY-899, Hindman, KY 41822",606-785-5665,37.31465,-82.939583,"Mon-Sat 7-9, Sun 10-8",https://savealot.com/grocery-stores/hindman-41822-24473/,N/A,Yes,Yes,N/A,N/A,N/A,N/A,N/A
292,Knott,Yoder's Country Market,Grocery,"1319 Hindman Bypass, Hindman, KY 41822",606-785-3344,37.31465,-82.939583,"Mon-Fri 9-5:30, Sat 10-3",https://www.yoderscountrymarket.net/Grocery/folder/41,N/A,Yes,Yes,N/A,N/A,N/A,N/A,N/A
293,Knott,Golden Apple Fruit Market - Hindman,Produce Market,"820 KY-160, Hindman, KY 41822",859-273-8629,37.325633,-82.968351,N/A,https://www.facebook.com/hindmansgoldenapple/,N/A,Yes,Yes,N/A,N/A,N/A,N/A,N/A
294,Knott,Knott County Farmers Market,Farmers Market,"56 Education Lane Hindman, Kentucky 41822",606-785-5329,37.33475,-82.977312,Seasonal,https://www.facebook.com/KnottCFM/,N/A,No,No,Yes,N/A,N/A,N/A,N/A
295,Knott,Childers Enterprises,Recycling Centers,55 Holly hills Villa Road Hindman KY 41822,606-785-3911,37.314941,-82.942778,N/A,https://www.facebook.com/pages/Childers-Enterprises/,N/A,N/A,N/A,N/A,"AL, PL( HDPE, PET), OCC, OPMIX, OPSORT, ST CANS, ONP, MRP",8,"Dropoff, broker",Commercial recycler
296,Knott,Knott Transfer Station and Recycling Dropoff,Recycling Centers,256 Transfer Station Road Hindman KY 41822,606-785-0249,37.318598,-82.973004,N/A,N/A,N/A,N/A,N/A,N/A,"AL, PL( HDPE, PET), FE, NONFE, OCC, OPMIX, OPSORT, ST CANS, WHITE, ONP, UO, MRP, RUB, EGC,",14,Dropoff,Commercial recycler
297,Knott,Smith's Scrap Yard,Recycling Centers,10625 KY-550 Fisty KY 41743,606-251-3011,37.318598,-82.973004,N/A,N/A,"Smith's Scrap Yard is located at the address Po Box 129 in Fisty, Kentucky 41743. They can be contacted via phone at (606) 251-3011 for pricing, hours and directions.",N/A,N/A,N/A,"FE, NONFE",2,"Dropoff, broker",Commercial recycler
298,Knott,Knott County Human Services Center,Family Services,"40 Center St, Hindman, KY 41822",606-785-4095,37.3349717,-82.9800913,Mon-Fri 8-4:30,N/A,N/A,N/A,N/A,N/A,N/A,N/A,N/A,N/A
299,Knott,Cabinet- Health & Family Services,Family Services,"50 Professor Clarke Cir, Hindman, KY 41822",606-785-3107,37.336544,-82.981393,Mon-Fri 8-4:30,https://chfs.ky.gov/Pages/index.aspx,N/A,N/A,N/A,N/A,N/A,N/A,N/A,N/A
300,Knott,Food Stamps Office and Family Support,Family Services,"125 Cowtown Rd, Hindman, KY 41822",606-785-3137,37.330003,-82.988218,Mon-Fri 8-4:30,https://chfs.ky.gov/Pages/index.aspx,N/A,N/A,N/A,N/A,N/A,N/A,N/A,N/A
301,Knott,Kentucky Career Center - Hindman,Career Services,"1622 Hwy 160 S Hindman, KY 41822",606-785-3322,37.322365,-82.96534,Mon-Fri 8-4:30,https://kcc.ky.gov/Pages/default.aspx,N/A,N/A,N/A,N/A,N/A,N/A,N/A,N/A
302,Knott,Knott County Public Library,Library,238 Highway 160 South P.O. Box 667 Hindman KY 41822,606-785-5412,37.335311,-82.976879,Mon-Fri 8:30-4:30,http://www.knottcountyLibrary.com,N/A,N/A,N/A,N/A,N/A,N/A,"online homework help for kids, free computer access, copy and printing services",
303,Knott,Knott County Extension,Cooperative Extension Offices,"149 Parks Branch Road Hindman, KY 41822-0462",606-789-8108,37.3224029,-82.9559529,"Mon-Fri 8-4:30, closed 12-1",http://knott.ca.uky.edu/,N/A,N/A,N/A,N/A,N/A,N/A,N/A,N/A
304,Knox,IGA - Barbourville,Grocery,"193 Parkway Plaza, Barbourville, KY 40906",606-546-8320,36.859612,-83.869793,Everyday 7-10,https://www.myiga.com/,N/A,Yes,No,N/A,N/A,N/A,N/A,N/A
305,Knox,Save-a-Lot - Barbourville,Grocery,"786 US-25E Scenic, Barbourville, KY 40906",606-546-8843,36.857346,-83.871891,Everyday 9-6,https://savealot.com/grocery-stores/barbourville-40906-23471/,N/A,Yes,Yes,N/A,N/A,N/A,N/A,N/A
306,Knox,Kroger - Corbin,Grocery,"14889 N Us, US-25E Scenic, Corbin, KY 40701",606-528-8630,36.959316,-84.075202,Everyday 7-10,https://www.kroger.com/stores/details/024/00760?cid=loc_02400760_gmb,N/A,Yes,Yes,N/A,N/A,N/A,N/A,N/A
307,Knox,Knox County Farmers' Market,Farmers Market,"Knox County Extension Pavilion 215 Truehaft Rd, Barbourville, KY",606-627-1810,36.850476,-83.86595,Seasonal,https://www.facebook.com/knoxcountyfarmersmarket/,N/A,Yes,Yes,Yes,N/A,N/A,N/A,N/A
308,Knox,Graceway AKA Barbourville Iron & Metals,Recycling Centers,137 Concrete Plant Road Barbourville KY 40906,606-546-3434,36.85016,-83.856438,N/A,N/A,N/A,N/A,N/A,N/A,"AL, FE, NONFE, ST CANS",4,"Dropoff, broker",Commercial recycler
309,Knox,Lewis Recycling,Recycling Centers,Culton Hill Road Flat Lick KY 40935,606-622-2228,36.835526,-83.779283,N/A,N/A,N/A,N/A,N/A,N/A,"AL, FE, NONFE",3,"Dropoff, broker",Commercial recycler
310,Knox,T&W Auto Salvage,Recycling Centers,8588 US HWY 25E Flat Lick KY 40935,606-542-5577,36.877588,-83.823036,N/A,N/A,N/A,N/A,N/A,N/A,"AL, FE, NONFE, ST CANS",4,"Dropoff, broker",Commercial recycler
311,Knox,Families & Children Cabinet -DSS,Family Services,"209 Knox St, Barbourville, KY 40906",606-546-3121,36.86705,-83.887533,Mon-Fri 8-4:30,https://chfs.ky.gov/Pages/index.aspx,N/A,N/A,N/A,N/A,N/A,N/A,N/A,N/A
312,Knox,Office for Children with Special Health Care Needs - Barbourville,Family Services,"110 Johnson Ln Barbourville, KY 40906",606-546-5109,36.868945,-83.887326,Mon-Fri 8-4:30,https://chfs.ky.gov/agencies/ccshcn/Pages/default.aspx,N/A,N/A,N/A,N/A,N/A,N/A,N/A,N/A
313,Knox,Food Stamp Office - Barbourville,Family Services,"710 Pitzer St, Barbourville, KY 40906",855-306-8959,36.849443,-83.886713,Mon-Fri 8-4:30,https://chfs.ky.gov/Pages/index.aspx,N/A,N/A,N/A,N/A,N/A,N/A,N/A,N/A
314,Knox,"KCEOC Community Action Partinership, Inc",Community Services,"5448 Old Dixie Hwy A, Gray, KY 40734",606-546-3152,36.9196518,-83.9323048,Mon-Fri 8-5,http://www.povertyisreal.org/index.php?lang=en,N/A,N/A,N/A,N/A,N/A,N/A,N/A,N/A
315,Knox,G R Hampton Resource Center,Family Services,"60 KY-3441, Barbourville, KY 40906",606-546-4210,36.849443,-83.886713,Mon-Fri 8-3:30,https://www.knoxkyschools.com/schools/gr-hampton-elementary-school,N/A,N/A,N/A,N/A,N/A,N/A,N/A,N/A
316,Knox,Lend-A-Hand Center,Community Services,"3234 State Hwy 718, Walker, KY 40997",606-542-4212,36.8837622,-83.687205,N/A,https://www.facebook.com/lendahandcenter/,N/A,N/A,N/A,N/A,N/A,N/A,N/A,N/A
317,Knox,Flat Lick Family Resource Center,Family Services,"110 Ky 3085, Flat Lick, KY 40935",606-542-5147,36.8402883,-83.7859249,Mon-Fri 8-4,http://www2.knoxkyschools.com/learning/frysc/,N/A,N/A,N/A,N/A,N/A,N/A,N/A,N/A
318,Knox,Kentucky Career Center - Barbourville,Career Services,"464 Court Square Barbourville, KY 40906",606-546-2639,36.866251,-83.888048,Mon-Fri 8-5,https://kcc.ky.gov/Pages/default.aspx,N/A,N/A,N/A,N/A,N/A,N/A,N/A,N/A
319,Knox,Knox County Public Library,Library,"206 Knox Street Barbourville, KY 40906-1428",606-546-5339,36.866634,-83.887463,"Mon-Wed 9-5, Thurs 12-7, Fri 9-5, Sat 9-1",http://knoxpublicLibrary.com,N/A,N/A,N/A,N/A,N/A,N/A,"Free computer access, bookmobile",
320,Knox,Knox County Extension,Cooperative Extension Offices,"215 Treuhaft Boulevard, Suite 7 Barbourville, KY 40906",606-546-3447,36.850861,-83.865629,"Mon-Fri 8-4:30, closed daily 12-1",http://knox.ca.uky.edu/,N/A,N/A,N/A,N/A,N/A,N/A,N/A,N/A
321,Laurel,Save-a-Lot - London,Grocery,"825 S Laurel Rd, London, KY 40741",606-864-3882,37.095279,-84.067259,Everyday 8-9,https://savealot.com/grocery-stores/london-40741-23473/,N/A,Yes,Yes,N/A,N/A,N/A,N/A,N/A
322,Laurel,Kroger - London,Grocery,"1805 N Main St, London, KY 40741",606-864-4311,37.138494,-84.099751,"Mon 7-11, Tues-Sun 7-10",https://www.kroger.com/stores/details/024/00331?cid=loc_02400331_gmb,N/A,Yes,Yes,N/A,N/A,N/A,N/A,N/A
323,Laurel,Willow Creek Market,Grocery,"9241 E Laurel Rd, London, KY 40741",606-864-0043,37.084997,-83.902405,"Mon-Fri 9-5, Sat 9-4",N/A,N/A,No,No,N/A,N/A,N/A,N/A,N/A
324,Laurel,EC Porter IGA,Grocery,"714 E 4th St, London, KY 40741",606-864-5145,37.084997,-83.902405,"Mon-Sat 7-9, Sun 8-9",https://porter.iga.com/,N/A,Yes,Yes,N/A,N/A,N/A,N/A,N/A
325,Laurel,Walmart Supercenter - London,Grocery,"1851 Highway 192 W, London, KY 40741",606-878-6119,37.11408,-84.091671,Everyday 6-11pm,https://www.walmart.com/store/1113/london-ky/details,N/A,Yes,Yes,N/A,N/A,N/A,N/A,N/A
326,Laurel,Kroger - London,Grocery,"1732 KY-192, London, KY 40741",606-878-1254,37.106621,-84.089195,"Mon-Thurs 7-11, Fri-Sat 7-12, Sun 7-11",https://www.kroger.com/?cid=PDM-KROGER.GMB-LOCAL,N/A,Yes,Yes,N/A,N/A,N/A,N/A,N/A
327,Laurel,The Amazing JJ,Produce Market,"140 James Lewis Dr, London, KY 40744",606-878-0690,37.105641,-84.064416,N/A,https://mobile.facebook.com/The-Amazing-JJ-1872239872843987/,N/A,No,No,N/A,N/A,N/A,N/A,N/A
328,Laurel,The Jones Market,Produce Market,"1508 S Laurel Rd, London, KY 40744",606-765-7292,37.105641,-84.064416,Mon-Sat 9-5,https://www.facebook.com/TJM5119/,N/A,No,No,N/A,N/A,N/A,N/A,N/A
329,Laurel,Shae's Produce,Produce Market,"2050 North Laurel Road London, Kentucky 40741",606-309-0216,37.167518,-84.119862,N/A,https://www.facebook.com/Shaes-Produce-302424343503449/,N/A,No,No,N/A,N/A,N/A,N/A,N/A
330,Laurel,London-Laurel County Farmers' Market,Farmers Market,"529 S Main St London, Kentucky 40741",606-864-4167,37.12585,-84.081637,Seasonal,https://www.facebook.com/pages/category/Farmers-Market/London-Laurel-County-Farmers-Market-105850682843290/,N/A,No,yes,Yes,N/A,N/A,N/A,N/A
331,Laurel,London Regional Recycle Facility,Recycling Centers,950 TLC Lane London KY 40741,606-864-5521,37.120108,-84.056849,24/7,https://www.londonky.gov/departments/recycling-progr,"We are working hard to accommodate all of your recycling needs.  If you have any questions, feel free to contact us anytime at 606-864-5521. coflsaedge@gmail.com Curbside recycling available for the city of London.",N/A,N/A,N/A,"GL, AL, PL( HDPE, PET, PS, PP, PVC, LDPE, OTHER), FE, NONFE, OCC, CARBAT, OPMIX, OPSORT, ST CANS, WHITE, ONP, UO, ESCRAP, MRP, EGC",16,"Handler, process, dropoff, curbside",Government facility
332,Laurel,Laurel County Family Support,Family Services,"101 S Main St, London, KY 40741",606-878-7740,37.128386,-84.083835,Mon-Fri 8-4:30,https://chfs.ky.gov/Pages/index.aspx,N/A,N/A,N/A,N/A,N/A,N/A,N/A,N/A
333,Laurel,Pennyrile Allied Community Services,Community Services,"1612 Hampton Rd, London, KY 40741",606-330-0708,37.108472,-84.074477,N/A,http://www.pacs-ky.org/,N/A,N/A,N/A,N/A,N/A,N/A,N/A,N/A
334,Laurel,American Red Cross - London,Community Services,"107 C V B Dr, London, KY 40741",606-878-6333,37.1287351,-84.0841454,N/A,https://www.redcross.org/local/kentucky.html,N/A,N/A,N/A,N/A,N/A,N/A,N/A,N/A
335,Laurel,Kentucky Career Center - London,Career Services,"100 University Drive London, KY 40741",606-330-2115,37.1154814,-84.0627179,"Tues, Thurs 8-4",https://kcc.ky.gov/Pages/default.aspx,N/A,N/A,N/A,N/A,N/A,N/A,N/A,N/A
336,Laurel,Daniel Boone Development  - London,Community Services,"188 Dog Patch Trading Center London, KY 40741",606-864-9121,37.1464721,-84.1106611,Mon-Fri 8-4:30,http://danielboonecaa.org/,N/A,N/A,N/A,N/A,N/A,N/A,N/A,N/A
337,Laurel,Independent Opportunities Comm,Family Services,"90 Southern School Rd, Somerset, KY 42501",606-676-0630,37.038208,-84.622722,Mon-Fri 8-4:30,http://independentopportunities.com/,N/A,N/A,N/A,N/A,N/A,N/A,N/A,N/A
338,Laurel,Laurel County Public Library,Library,120 College Park Drive London KY 40741-1414,606-864-5759,37.116019,-84.060935,"Mon-Fri 9-8, Sat 9-5, Sun 1-5",http://www.laurelLibrary.org,N/A,N/A,N/A,N/A,N/A,N/A,"Free computer access, printing services, free WiFi, bookmobile, outreach services",
339,Laurel,Laurel County Extension,Cooperative Extension Offices,"200 County Extension Rd. London, KY 40741",606-864-4167,37.119805,-84.079359,Mon-Fri 8-4:30,http://laurel.ca.uky.edu/,N/A,N/A,N/A,N/A,N/A,N/A,N/A,N/A
340,"Laurel
","Walmart Supercenter -  South Stewart Road, Corbin",Grocery,"60 S Stewart Rd, Corbin, KY 40701",606-523-1770,36.972574,-84.102507,Everyday 6-11pm,https://www.walmart.com/store/1259/corbin-ky/details,N/A,Yes,Yes,N/A,N/A,N/A,N/A,N/A
341,Lawrence,Walmart Supercenter - Louisa,Grocery,"275 walton Dr, Louisa, KY 41230",606-673-4427,38.102213,-82.624198,Everyday 6-11pm,https://www.walmart.com/store/4461/louisa-ky/details,N/A,Yes,Yes,N/A,N/A,N/A,N/A,N/A
342,Lawrence,Save-a-Lot - Louisa,Grocery,"Rt 7-Box 20110, Louisa, KY 41230",606-638-3605,38.12458,-82.623425,Everyday 8-9,https://savealot.com/grocery-stores/louisa-41230-23818/,N/A,Yes,Yes,N/A,N/A,N/A,N/A,N/A
343,Lawrence,Food City - Louisa,Grocery,"70 Business US 23, Louisa, KY 41230",606-638-3434,38.117871,-82.619571,Everyday 6-12am,https://www.foodcity.com/stores/store-details/433/?utm_source=googlebusiness&utm_medium=businesslocal&utm_campaign=grocery&utm_content=433,N/A,Yes,Yes,N/A,N/A,N/A,N/A,N/A
344,Lawrence,4 got n tymes,farm,"2770 Little Cat Fork Rd, Louisa, KY 41230",606-465-4501,38.183627,-82.763105,"Mon-Sat 10-6, Sun 12-5",https://www.facebook.com/forgotntymesfarm/,N/A,No,No,N/A,N/A,N/A,N/A,N/A
345,Lawrence,Lawrence County Farmers Market,Farmers Market,"249 Industrial Park Road,Louisa, 41230",606-673-9495,38.096421,-82.619246,Seasonal,https://lawrence.ca.uky.edu/content/farmers-market,N/A,No,No,Yes,N/A,N/A,N/A,N/A
346,Lawrence,Boyd's Scrapyard AKA TB Recycling,Recycling Centers,20857 US HWY 23 N Louisa KY 41230,606-686-1108,38.158604,-82.644263,N/A,https://www.facebook.com/Boydsautorecycling/,N/A,N/A,N/A,N/A,"AL, FE, NONFE",3,"Handler, process, dropoff",Commercial recycler
347,Lawrence,Lawrence County Recycling Center,Recycling Centers,175 Business Way Louisa KY 41230,606-638-4102,38.097194,-82.620389,N/A,http://lawrencekentucky.com/category/recycle-center/,"Markets to: Lexington area. &nbsp;2 Marathon hy-press vertical balers, 20/ton, 230 volt, forklift, van. Email: josborne@lycomonline.com",N/A,N/A,N/A,"AL, PL( HDPE, PET), OCC, OPMIX, OPSORT, ST CANS, ONP, MRP",8,"Handler, Process, Dropoff",Government facility
348,Lawrence,Social Service Department - Louisa,Family Services,"180 Bulldog Ln # 2, Louisa, KY 41230",606-638-4360,38.097968,-82.60403,Mon-Fri 8-4:30,N/A,N/A,N/A,N/A,N/A,N/A,N/A,N/A,N/A
349,Lawrence,Lawrence County Child Support,Family Services,"314 E Madison St, Louisa, KY 41230",606-638-4426,38.114936,-82.601732,Mon-Fri 8-4:30,https://csws.chfs.ky.gov/csws/,N/A,N/A,N/A,N/A,N/A,N/A,N/A,N/A
350,Lawrence,Child Support Division - Louisa,Family Services,"122 N Main Cross St, Louisa, KY 41230",606-638-9622,38.116155,-82.602946,Mon-Fri 8-4:30,https://csws.chfs.ky.gov/csws/,N/A,N/A,N/A,N/A,N/A,N/A,N/A,N/A
351,Lawrence,Northeast KY Community Action - Louisa,Career Services,"180 Bulldog Lane Louisa, KY 41230",606-638-4067,38.098112,-82.603987,Mon-Fri 8-4:30,nkcaa.net,N/A,N/A,N/A,N/A,N/A,N/A,N/A,N/A
352,Lawrence,Lawrence County Public Library,Library,102 West Main Street Louisa KY 41230,606-638-4497,38.114723,-82.604689,"Mon 9-5, Tues 9-6, Wed 9-5, Thurs 9-7, Fri 9-5, Sat 9-1",http://lcplky.org,N/A,N/A,N/A,N/A,N/A,N/A,"Free WiFi, quiet rooms, bookmobile, teen and childrens programs, ebooks",
353,Lawrence,Lawrence County Extension,Cooperative Extension Offices,"249 Industrial Park Road Louisa, KY 41230",606-673-9495,38.096908,-82.619623,"Mon-Fri 8-4:30, closed daily 12-1",lawrence.ca.uky.edu/,N/A,N/A,N/A,N/A,N/A,N/A,N/A,N/A
354,Lee,Save-a-Lot - Beattyville,Grocery,"2093 KY-11, Beattyville, KY 41311",606-464-8437,37.548823,-83.724574,Everyday 8-9,https://savealot.com/grocery-stores/beattyville-41311-24458/,N/A,Yes,Yes,N/A,N/A,N/A,N/A,N/A
355,Lee,Jack's IGA,Grocery,"285 Main St, Beattyville, KY 41311",606-464-2707,37.572932,-83.710893,Everyday 9-8,https://www.jacksigabeattyville.com/,N/A,Yes,Yes,N/A,N/A,N/A,N/A,N/A
356,Lee,Social Service Department - Beattyville,Family Services,"256 Main St #26, Beattyville, KY 41311",606-464-8801,37.57366,-83.70998,Mon-Fri 8-4:30,https://www.ebtcard.net/program/Family Services_support_office_lee_county_41311.html,N/A,N/A,N/A,N/A,N/A,N/A,N/A,N/A
357,Lee,Food Stamp Program - Beattyville,Family Services,"256 Main St #27, Beattyville, KY 41311",606-464-2404,37.57366,-83.70998,Mon-Fri 8-4:30,N/A,N/A,N/A,N/A,N/A,N/A,N/A,N/A,N/A
358,Lee,Lee County Habitat for Humanity,Community Services,"Main St, Beattyville, KY 41311",N/A,37.5744028,-83.7104985,N/A,https://www.habitat4humanity.org/,N/A,N/A,N/A,N/A,N/A,N/A,N/A,N/A
359,Lee,Kentucky Career Center - Beattyville,Career Services,"205 Main Street Beatyville, KY 41311",606-464-2254,37.573341,-83.710568,Mon-Fri 8-4:30,https://kcc.ky.gov/Pages/default.aspx,N/A,N/A,N/A,N/A,N/A,N/A,N/A,N/A
360,Lee,Middle KY Community Action - Beattyville,Community Services,"1970 Old Hwy 11 Beattyville, KY 41311",606-464-2259,37.637268,-83.694037,Mon-Fri 8-4:30,https://mkcap.org/index.html,N/A,N/A,N/A,N/A,N/A,N/A,N/A,N/A
361,Lee,Lee County Public Library,Library,"255 Industrial Park Road P.O. Box V Beattyville, KY 41311",606-464-8014,37.550763,-83.722267,"Mon-Fri 9-5, Sat 9-1",https://leecplky.booksys.net/opac/leecplky/index.html,N/A,N/A,N/A,N/A,N/A,N/A,N/A,N/A
362,Lee,Lee County Extension,Cooperative Extension Offices,"257 Industrial Park Rd Beattyville, KY 41311",606-464-2759,37.552919,-83.723476,Mon-Fri 8-4:30,http://lee.ca.uky.edu/,N/A,N/A,N/A,N/A,N/A,N/A,N/A,N/A
363,Leslie,Save-a-Lot - Hyden,Grocery,"92 KY-80, Hyden, KY 41749",606-672-3752,37.118853,-83.741236,Everyday 8-9,https://savealot.com/grocery-stores/hyden-41749-24739/,N/A,Yes,Yes,N/A,N/A,N/A,N/A,N/A
364,Leslie,Cox IGA Supermarket,Grocery,"21224 KY-80, Hyden, KY 41749",606-672-2070,37.151629,-83.372455,"Mon-Sat 7-9, Sun 9-8",https://www.iga.com/,N/A,Yes,Yes,N/A,N/A,N/A,N/A,N/A
365,Leslie,Begley General/Randy Lee's,Produce Market,"23983 Hwy. 421, Hyden, Ky",606 672-4858,37.150402,-83.402376,"Mon-Sat 8-6, Sun 11-4",https://www.facebook.com/BegleysGeneralStore/,N/A,No,No,N/A,N/A,N/A,N/A,N/A
366,Leslie,Leslie County Recycling Center,Recycling Centers,24778 HWY 421 Hyden KY 41749,606-672-4103,37.14716,-83.411094,N/A,http://www.lesliecoky.com/government/solid-waste-coo,N/A,N/A,N/A,N/A,"AL, PL( HDPE, PET), OCC, OPMIX, ST CANS, ONP, ESCRAP, MRP",8,Dropoff,Government facility
367,Leslie,Cabinet for Health and Family Services,Family Services,"21150 US-421, Hyden, KY 41749",606-672-2307,37.15081,-83.37245,Mon-Fri 8-4:30,https://chfs.ky.gov/Pages/index.aspx,N/A,N/A,N/A,N/A,N/A,N/A,N/A,N/A
368,Leslie,Leslie County Child Support,Family Services,"21892 Main St, Hyden, KY 41749",606-672-4452,37.1621141,-83.3734968,Mon-Fri 8-4:30,https://csws.chfs.ky.gov/csws/General/Landing.aspx,N/A,N/A,N/A,N/A,N/A,N/A,N/A,N/A
369,Leslie,"LKLP Community Action Council, Inc",Career Services,"121 Maple Street Hyden, KY 41749",606-672-2155,37.163361,-83.376399,Mon-Fri 8-4:30,https://www.lklp.org/,N/A,N/A,N/A,N/A,N/A,N/A,N/A,N/A
370,Leslie,Leslie County Public Library,Library,"22065 Main Street Hyden, KY 41749",606-672-2460,37.161899,-83.374865,"Mon 8-5, Tues 8-8, Wed 8-5, Thurs 8-8, Fri 8-5, Sat 8-2",http://www.leslieLibrary.com,N/A,N/A,N/A,N/A,N/A,N/A,"Ebooks, bookmobile, free online classes",
371,Leslie,Leslie County Extension,Cooperative Extension Offices,"22045 Main Street Hyden, KY 41749",606-672-2154,37.161881,-83.374415,Mon-Fri 8-4:30,http://leslie.ca.uky.edu/,N/A,N/A,N/A,N/A,N/A,N/A,N/A,N/A
372,Letcher,Food City - Whitesburg,Grocery,"251 Medical Plaza Ln, Whitesburg, KY 41858",606-632-9680,37.125159,-82.842931,Everyday 6-12am,https://www.foodcity.com/stores/store-details/436/?utm_source=googlebusiness&utm_medium=businesslocal&utm_campaign=grocery&utm_content=436,N/A,Yes,Yes,N/A,N/A,N/A,N/A,N/A
373,Letcher,Save-a-Lot - Whitesburg,Grocery,"136 Parkway Plaza Loop, Whitesburg, KY 41858",606-633-1884,37.123398,-82.839413,"Mon-Sat 8-9, Sun 9-8",https://savealot.com/grocery-stores/whitesburg-41858-23582/,N/A,Yes,Yes,N/A,N/A,N/A,N/A,N/A
374,Letcher,Walmart - Whitesburg,Grocery,"350 Cs-1003, Whitesburg, KY 41858",606-633-0152,37.11702,-82.79496,Everyday 6-11pm,https://www.walmart.com/store/552/whitesburg-ky/details,N/A,Yes,Yes,N/A,N/A,N/A,N/A,N/A
375,Letcher,Price Less Foods - Whitesburg,Grocery,"34 Whitesburg Plaza, Whitesburg, KY 41858",606-633-3086,37.116183,-82.796438,Everyday 7-10,https://www.mypricelessfoods.com/,N/A,Yes,No,N/A,N/A,N/A,N/A,N/A
376,Letcher,Isom IGA,Grocery,"29 Isom Dr, Isom, KY 41824",606-633-9820,37.184116,-82.907006,"Mon-Sat 7-9, Sun 10-9",https://isom.iga.com/,N/A,Yes,Yes,N/A,N/A,N/A,N/A,N/A
377,Letcher,Frank's Market,Grocery,"32 Marshalls Branch, Jenkins, KY 41537",606-639-2118,37.206595,-82.58036,N/A,N/A,Approximate location,No,No,N/A,N/A,N/A,N/A,N/A
378,Letcher,Golden Apple Fruit Market,Produce Market,"1523 Highway 119 N Whitesburg, Kentucky 41815",606-633 4994,37.125158,-82.786947,"Mon-Sat 8-8, Sun 11-8",https://www.facebook.com/GOLDENAPPLEFruitmarket/,N/A,N/A,N/A,N/A,N/A,N/A,N/A,N/A
379,Letcher,Letcher County Farmers Market,Farmers Market,"Veterans Memorial Parking Lot, 100 E Main St, Whitesburg, KY, 41858",606-634 9468,37.117181,-82.824773,Seasonal,https://www.facebook.com/WhitesburgLetcherCountyFarmersMarket/?rf=275717472568415,N/A,Yes,Yes,Yes,N/A,N/A,N/A,N/A
380,Letcher,Baker's Scrap Metal and Recycling,Recycling Centers,68 Ray Baker Hollow Thornton KY 41855,606-632-0007,37.1848025,-82.7780985,N/A,N/A,"Bakers Scrap Metal & Recycling is located in Thornton, Kentucky. This organization primarily operates in the Scrap and Waste Materials business",,,N/A,"AL, FE, NONFE, ST CANS",4,"Handler, process, dropoff, broker",Commercial Recycler
381,Letcher,City of Whitesburg Recycling Center,Recycling Centers,1447 HWY 931 South Whitesburg KY 41858,606-632-2267,37.135746,-82.823932,"Mon - Fri 7:30-4, Sat 7:30-12:30.",https://www.facebook.com/pg/CityofWhitesburgRecycl,"Market to: Northern KY, Lexington area. Equipment: 4 balers, 3 work, forklift/bobcat, paper shredder, spine cutter, 2 belt lines.",N/A,N/A,N/A,"AL, PL( HDPE, PET), OCC, OPMIX, OPSORT, ST CANS, WHITE, ONP, MRP",9,"Handler, curbside",Government facility
382,Letcher,Letcher County Child Support,Family Services,"95 E Main St # B, Whitesburg, KY 41858",606-633-9047,37.118625,-82.82739,Mon-Fri 9-4,https://csws.chfs.ky.gov/csws/General/Landing.aspx,N/A,N/A,N/A,N/A,N/A,N/A,N/A,N/A
383,Letcher,Cowan Community Center,Community Services,"81 Sturgill Branch, Whitesburg, KY 41858",606-633-3187,37.067587,-82.857315,N/A,http://www.cowanCommunity Servicescenter.org/,N/A,N/A,N/A,N/A,N/A,N/A,N/A,N/A
384,Letcher,Eolia Christian Community Outreach,Community Services,"135 Emily Ln, Eolia, KY 40826",606-633-2992,37.049198,-82.804403,N/A,http://www.eccotruth.org/,N/A,N/A,N/A,N/A,N/A,N/A,N/A,N/A
385,Letcher,Kentucky Career Center - Whitesburg,Career Services,"417 Hwy. 2034 Whitesburg, KY 41858",606-633-3154,37.116023,-82.797203,Mon-Fri 8-4:30,https://kcc.ky.gov/Pages/default.aspx,N/A,N/A,N/A,N/A,N/A,N/A,N/A,N/A
386,Letcher,Blackey Public Library,Library,"295 Main Street Loop, P.O. Box 337 Blackey KY 41804-0037",606-633-4013,37.139918,-82.980009,"Mon-Tues 9-5, Wed 9-7, Thurs 9-5, Fri 9-5, Sat 9-4",http://lcld.org/blackey.html,N/A,N/A,N/A,N/A,N/A,N/A,"Free computer access, free WiFi, printing services, reading and outreach programs, bookmobile",
387,Letcher,Harry M. Caudill Memorial Library,Library,220 Main Street Whitesburg KY 41858,606-633-7547,37.117649,-82.825929,"Mon-Tues 9-5, Wed 9-7, Thurs 9-5, Fri 9-5, Sat 9-4",http://lcld.org,N/A,N/A,N/A,N/A,N/A,N/A,"Free computer access, free WiFi, printing services, reading and outreach programs, bookmobile",
388,Letcher,Fleming Neon Public Library,Library,1008 Highway 317 P.O. Box 236 Neon KY 41840,606-855-4565,37.192277,-82.713489,"Mon-Tues 9-5, Wed 9-7, Thurs 9-5, Fri 9-5, Sat 9-4",http://lcld.org,N/A,N/A,N/A,N/A,N/A,N/A,"Free computer access, free WiFi, printing services, reading and outreach programs, bookmobile",
389,Letcher,Letcher County Extension,Cooperative Extension Offices,"478 Extension Drive Whitesburg, KY 41858",606-633-2362,37.11375,-82.832897,Mon-Fri 8-4:30,http://letcher.ca.uky.edu/,N/A,N/A,N/A,N/A,N/A,N/A,N/A,N/A
390,Letcher,Jenkins Public Library,Library,9543 Highway 805 P.O. Box 687 Jenkins KY 41537-0687,606-832-4101,37.172571,-82.633255,"Mon-Tues 9-5, Wed 9-7, Thurs 9-5, Fri 9-5, Sat 9-4",http://lcld.org,N/A,N/A,N/A,N/A,N/A,N/A,"Free computer access, free WiFi, printing services, reading and outreach programs, bookmobile",
391,Lewis,Save-a-Lot - Vanceburg,Grocery,"50 Market St, Vanceburg, KY 41179",606-796-2424,38.599406,-83.335159,Everyday 7-10,https://savealot.com/grocery-stores/vanceburg-41179-45093/,N/A,Yes,Yes,N/A,N/A,N/A,N/A,N/A
392,Lewis,Ron's IGA,Grocery,"4577 KY-10, Tollesboro, KY 41189",606-798-3921,38.560933,-83.594921,"Mon-Sat 8-8, Sun 10-7",https://ronsiga.net/,N/A,Yes,Yes,N/A,N/A,N/A,N/A,N/A
393,Lewis,Delicious Fruits,Produce Market,"543 Winesap Dr Quincy, Kentucky 41175",606-932-9283,38.64078,-83.051642,N/A,N/A,N/A,No,No,N/A,N/A,N/A,N/A,N/A
394,Lewis,Lewis County Farmers Market,Farmers Market,"67 Commercial Dr Vanceburg, KY 41179",606-796-2732,38.59064,-83.326719,Seasonal,https://www.facebook.com/lewiscountyfarmersmarket/,N/A,No,yes,yes,N/A,N/A,N/A,N/A
395,Lewis,Lewis County Recycling Center,Recycling Centers,199 County Drive Vanceburg KY 41179,606-796-0624,38.590529,-83.350549,Mon-Fri 7-3:30,https://lewiscounty.ky.gov/Departments-and-Services/,N/A,N/A,N/A,N/A,"GL, AL, PL( HDPE, PET, OTHER), FE, NONFE, OCC, CARBAT, OPMIX, OPSORT, ST CANS, WHITE, ONP, UO, ESCRAP, MRP, RUB",16,"Process, Dropoff",Government facility
396,Lewis,Vanceburg Recycling,Recycling Centers,90 River Street Vanceburg KY 41179,606-796-6003,38.604004,-83.323793,N/A,http://www.cityofvanceburg.com/publicworks,N/A,N/A,N/A,N/A,"GL, AL, PL( HDPE, PET, OTHER), FE, NONFE, OCC, OPMIX, OPSORT, ST CANS, ONP, ESCRAP",11,"Handler, Dropoff, Curbside",Government facility
397,Lewis,Watson Salvage Yard,Recycling Centers,607 Kilbreth Lane Vanceburg KY 41179,606-796-9197,38.457481,-83.502931,N/A,N/A,Salvage and scrap metal dealer,N/A,N/A,N/A,"AL, FE, NONFE, CARBAT, ST CANS, UO",6,"Handler, Dropoff, Broker",Commercial Recycler
398,Lewis,Lewis County DCBS Office/ Food Stamp Office,Family Services,"243 Commercial Dr, Vanceburg, KY 41179",855-306-8959,38.589229,-83.326311,Mon-Fri 8-4:30,https://chfs.ky.gov/agencies/dcbs/Pages/default.aspx,N/A,N/A,N/A,N/A,N/A,N/A,N/A,N/A
399,Lewis,Lewis County Public Library,Library,27 Third Street Vanceburg KY 41179-7682,606-796-2532,38.600242,-83.317296,"Mon-Tues 8:30-5, Wed 8:30-12:30, Thurs-Fri 8:30-5, Sat 8:30-12:30",http://lewiscountyLibrary.net/index.html,N/A,N/A,N/A,N/A,N/A,N/A,"Hoopla ebooks, bookmobile, online test prep, online job resources",
400,Lewis,Lewis County Extension,Cooperative Extension Offices,"284 Second Street Vanceburg, KY 41179-1104",606-796-2732,38.598883,-83.314213,"Mon-Fri 8-4:30, closed daily 12-1",http://lewis.ca.uky.edu/,N/A,N/A,N/A,N/A,N/A,N/A,N/A,N/A
401,Lincoln,Durham's Grocery,Grocery,"606 Lancaster St, Stanford, KY 40484",606-365-2716,37.532842,-84.661425,"Mon-Sat 7-8, Sun 8-8",https://www.durhamsgrocery.com/ads,N/A,No,Yes,N/A,N/A,N/A,N/A,N/A
402,Lincoln,Save-a-Lot - Stanford,Grocery,"100 Lacy St, Stanford, KY 40484",606-365-1187,37.531752,-84.65226,"Mon-Sat 9-9, Sun 8-9",https://savealot.com/grocery-stores/stanford-40484-24738/,N/A,Yes,Yes,N/A,N/A,N/A,N/A,N/A
403,Lincoln,Walmart Supercenter - Stanford,Grocery,"1283 US-27 N, Stanford, KY 40484",606-365-2153,37.547822,-84.646965,Everyday 6-11pm,https://www.walmart.com/store/825/stanford-ky/details,N/A,Yes,Yes,N/A,N/A,N/A,N/A,N/A
404,Lincoln,Bittersweet Farm Market,Farm,"3396 Bowen Road Stanford, Kentucky 40484",859-583-9599,37.548372,-84.800851,Mon-Sat 10-5:30,https://www.facebook.com/bittersweetfarmKY/,N/A,No,No,N/A,N/A,N/A,N/A,N/A
405,Lincoln,Lincoln County Farmers Market,Farmers Market,"567 Goshen Road Stanford, KY 40484",606-669-0772,37.53819,-84.645083,Seasonal,https://www.facebook.com/LCFarmersMarket/,N/A,No,No,Yes,N/A,N/A,N/A,N/A
406,Lincoln,Eastern Kentucky Recycling - Junction City,Recycling Centers,367 Phillips Lane Junction City KY 40440,606-355-2322,37.569151,-84.806915,Mon-Fri 8-4,www.easternkentuckyrecycling.com,N/A,N/A,N/A,N/A,"FE, NONFE",2,"Handler, process, dropoff, broker",Commercial Recycler
407,Lincoln,Eastern Kentucky Recycling - Orchard,Recycling Centers,345 Main Street Crab Orchard KY 40419,606-355-2322,37.455776,-84.501521,Mon-Fri 8-4,www.easternkentuckyrecycling.com,N/A,N/A,N/A,N/A,"AL, FE, NONFE, ST CANS",4,"Handler, process, dropoff, broker",Commercial Recycler
408,Lincoln,Lincoln Co. Recycling Center,Recycling Centers,553 KY HWY 698 Stanford KY 40484,606-365-9779,37.4995,-84.656397,N/A,http://www.lincolnky.com/departments/solid_waste.php,"Also accept old magazines-residential mix. Market to: cardboard, mixed bales - Rumpke, e waste - E-cyclers, Scrap metal, cans - Eastern, KY",N/A,N/A,N/A,"AL, PL( HDPE, PET), FE, OCC, OPMIX, ST CANS, WHITE, ONP",8,"Handler, process, dropoff, curbside",Government facility
409,Lincoln,Kentucky Cabinet for Health and Family Services - Protection and Permanency - Stanford,Family Services,"144 Frontier Blvd, Stanford, KY 40484",606-365-3551,37.54897,-84.675682,N/A,https://chfs.ky.gov/agencies/dcbs/Pages/default.aspx,N/A,N/A,N/A,N/A,N/A,N/A,N/A,N/A
410,Lincoln,Stanford Food Stamp Office,Family Services,"144 Frontier Blvd, Stanford, KY 40484",855-306-8959,37.54897,-84.675682,Mon-Fri 8-4:30,https://www.foodstampsoffices.com/stanford-ky/,N/A,N/A,N/A,N/A,N/A,N/A,N/A,N/A
411,Lincoln,Lincoln County Child Support,Family Services,"216 W Main St, Stanford, KY 40484",606-365-1619,37.529346,-84.662929,Mon-Fri 8-4:30,https://csws.chfs.ky.gov/csws/General/Landing.aspx,N/A,N/A,N/A,N/A,N/A,N/A,N/A,N/A
412,Lincoln,Bluegrass Community Action - Stanford,Community Services,"201 E Main St #5, Stanford, KY 40484",606-365-2312,37.528977,-84.660649,Mon-Fri 8-4:30,http://www.bluegrassCommunity Servicesaction.org/,N/A,N/A,N/A,N/A,N/A,N/A,N/A,N/A
413,Lincoln,Helping Hands Family Resource,Family Services,"93 College St, Hustonville, KY 40437",606-346-3271,37.473634,-84.819078,Mon-Fri 7-3:30,https://www.facebook.com/helpinghandsfrc/,N/A,N/A,N/A,N/A,N/A,N/A,N/A,N/A
414,Lincoln,Lincoln County Public Library,Library,201 Lancaster Street Stanford KY 40484-1347,606-365-7513,37.530327,-84.662144,"Mon 9-6, Tues 9-8, Wed 9-6, Thurs 9-8, Fri 9-6, Sat 9-3",http://www.lcplinfo.org,N/A,N/A,N/A,N/A,N/A,N/A,"Outreach services, genealogy services,, printing services, community exhibits",
415,Lincoln,Lincoln County Extension,Cooperative Extension Offices,"104 Metker Trail Stanford, Kentucky 40484",606-365-2447,37.543032,-84.654623,"Mon-Fri 8-4:30, closed daily 12-1",http://lincoln.ca.uky.edu/,N/A,N/A,N/A,N/A,N/A,N/A,N/A,N/A
416,Madison,Aldi - Richmond,Grocery,"798 Eastern Bypass, Richmond, KY 40475",855-955-2534,37.730503,-84.287053,Everyday 9-8,https://www.aldi.us/en/weekly-specials/our-weekly-ads/,N/A,Yes,No,N/A,N/A,N/A,N/A,N/A
417,Madison,Walmart Supercenter - Richmond,Grocery,"820 Eastern Bypass, Richmond, KY 40475",859-624-4330,37.728779,-84.283208,Everyday 6-11pm,https://www.walmart.com/store/719/richmond-ky/details,N/A,Yes,Yes,N/A,N/A,N/A,N/A,N/A
418,Madison,Meijer,Grocery,"2013 Lantern Ridge Dr, Richmond, KY 40475",859-575-5010,37.737839,-84.333296,24/7,https://www.meijer.com/shop/en/store/258,N/A,Yes,Yes,N/A,N/A,N/A,N/A,N/A
419,Madison,Kroger - Richmond,Grocery,"890 Richmond Plaza, Richmond, KY 40475",859-624-1093,37.73127,-84.274249,Mon-Fri 8-10,https://www.kroger.com/stores/details/024/00705?cid=loc_02400705PP_gmb,N/A,Yes,Yes,N/A,N/A,N/A,N/A,N/A
420,Madison,Save-a-Lot - Richmond,Grocery,"5042 Atwood Dr, Richmond, KY 40475",859-623-4499,37.756622,-84.269793,"Mon-Sat 8-9, Sun 10-7",https://savealot.com/grocery-stores/richmond-40475-24654/,N/A,Yes,Yes,N/A,N/A,N/A,N/A,N/A
421,Madison,Tienda Y Taqueria Hidalgo,Grocery,"517 Leighway Dr, Richmond, KY 40475",859-625-0945,37.737104,-84.315159,Everyday 9-9,https://tienda-y-taqueria-hidalgo.business.site/,N/A,No,Yes,N/A,N/A,N/A,N/A,N/A
422,Madison,Save-a-Lot - Berea,Grocery,"403 Richmond Rd N, Berea, KY 40403",859-986-0338,37.589122,-84.285876,Everyday 8-9,https://savealot.com/grocery-stores/berea-40403-24495/,N/A,Yes,Yes,N/A,N/A,N/A,N/A,N/A
423,Madison,Kelly's Fruit Market,Grocery,"476 Eastern Bypass, Richmond, KY 40475",859-624-2873,37.736173,-84.311406,Mon-Sat 10-5,https://www.facebook.com/KellysFruitMarket/,N/A,No,No,N/A,N/A,N/A,N/A,N/A
424,Madison,Walmart Supercenter - Berea,Grocery,"120 Jill St, Berea, KY 40403",859-986-2324,37.565356,-84.312601,Everyday 6-11pm,https://www.walmart.com/store/1190/berea-ky/details,N/A,Yes,Yes,N/A,N/A,N/A,N/A,N/A
425,Madison,Madison County Farmers Market,Farmers Market,"109 East Irvine St. Richmond, Kentucky",859-925-9936,37.748332,-84.292858,Seasonal,https://www.facebook.com/MadisonKYFarmersMarket/,N/A,No,No,Yes,N/A,N/A,N/A,N/A
426,Madison,Berea Farmers' Market,Farmers Market,"Parish House 101 Fee Park, 401 Chestnut St, Berea, KY 40403",859-813-0750,37.568165,-84.296943,Seasonal,https://www.facebook.com/bereafarmersmarket/,N/A,Yes,No,N/A,N/A,N/A,N/A,N/A
427,Madison,Berea College,Recycling Centers,310 N. Main Street,859-985-3844,37.576206,-84.289259,N/A,N/A,FOR BEREA COLLEGE STAFFAND STUDENTS ONLY. DROP-OFF BINS AT MANY CAMPUS LOCATIONS. ALSO ACCEPTS MAGAZINES,N/A,N/A,N/A,"GL, AL, PL( HDPE, PET), OCC, OPMIX, OPSORT, ST CANS, ONP",8,"Handler, dropoff",
428,Madison,Bluegrass Reg. Recycle Corp (BRRC),Recycling Centers,540 Recycle Drive Richmond KY 40475,859-626-9117,37.727307,-84.289143,N/A,http://www.thebrrc.com/,"The BRRC is a 501-C-3 organization located in Richmond, Kentucky.  BRRC is dedicated to training and educating the general public and government entities.  The BRRC is also committed to developing workable recycling systems throughout Kentucky and the Nation.",N/A,N/A,N/A,"PL( HDPE), OCC, MRP",3,"Handler, Process, Dropoff",Government Facility
429,Madison,Kentucky Recycling - Richmond,Recycling Centers,114 Quality Drive Richmond KY 40475,859-624-9670,37.698812,-84.263288,N/A,N/A,N/A,N/A,N/A,N/A,"PL( HDPE, PET), FE, NONFE, OCC, CARBAT, ESCRAP",6,Dropoff,Commercial recycler
430,Madison,Madison Co. SW Recycling Program,Recycling Centers,321 North Madison Ave Richmond KY 40475,859-624-4709,37.727307,-84.289143,N/A,https://madisoncountyky.us/index.php/recycling-progra,Bins for the recycling of electronic items are located at 208 Clarksville Lane and sent to Winchester for recycling. This service is offered free to the citizens of Madison County.,N/A,N/A,N/A,"AL, OCC, OPMIX, OPSORT, ST CANS, ONP, ESCRAP",7,Curbside,Government Facility
431,Madison,Richmond Scrap Iron & Metal,Recycling Centers,1209 Berea Road Richmond KY 40475,859-623-6226,37.752523,-84.2878,N/A,https://richmond-scrap-iron-metal-inc.business.site/,"Our operations include complete shredding, shearing and sorting facilities, baling, torching and auto crushing, as well as automobile and appliance decommissioning. Our operations include a complete fleet of trucks, containers and trailers, any size or type recycling container your operation may need.",N/A,N/A,N/A,"AL, FE, NONFE, CARBAT, ST CANS, WHITE",6,"Handler, process, dropoff, broker",Commercial recycler
432,Madison,Richmond-Madison Co. Recycling Ctr.,Recycling Centers,550 Recycle Drive Richmond KY 40475,859-625-0202,37.726422,-84.290442,N/A,https://www.richmond.ky.us/recycling-faqs-information/,Our innovative drop chute design makes your visit to the center a pleasant one. Simply open the doors and place materials inside the chutes. The materials are then ready for our employees to gather on the inside. This design saves both time and money,N/A,N/A,N/A,"GL, AL, PL( HDPE, PET), OCC, OPMIX, OPSORT, ST CANS, ONP",8,"Process, dropoff, curbside",Government Facility
433,Madison,Walmart Supercenter - Richmond,Recycling Centers,820 Eastern Bypass Richmond KY 40475,859-624-4330,37.752523,-84.2878,N/A,N/A,N/A,N/A,N/A,N/A,CARBAT,1,"Dropoff, other",Automotive service
434,Madison,Webb's Car Crushing,Recycling Centers,315 Waco Loop Rd Waco KY 40385,859-369-7747,37.752523,-84.2878,N/A,N/A,Salvage and scrap metal dealer,N/A,N/A,N/A,"AL, FE, NONFE, CARBAT, OPSORT",5,"Dropoff, broker",Commercial recycler
435,Madison,Social Security Office - Richmond,Family Services,"1060 GIBSON BAY DRIVE RICHMOND, KY 40475",866-838-8945,37.738273,-84.266699,Mon-Fri 9-4,www.ssa.gov/,N/A,N/A,N/A,N/A,N/A,N/A,N/A,N/A
436,Madison,Madison County Child Support,Family Services,"135 W Irvine St # 201, Richmond, KY 40475",859-624-4718,37.748546,-84.294247,Mon-Fri 8-4,https://www.madisoncountyky.us/index.php/child-support,N/A,N/A,N/A,N/A,N/A,N/A,N/A,N/A
437,Madison,KY River Foothills Council,Family Services,"311 Spangler Dr # I, Richmond, KY 40475",859-624-2046,37.735411,-84.315689,Mon-Fri 8:30-4:30,https://foothillscap.org/,N/A,N/A,N/A,N/A,N/A,N/A,N/A,N/A
438,Madison,South Madison Family Resource,Family Services,"109 Oakwood Dr, Berea, KY 40403",859-986-2383,37.591714,-84.288823,Mon-Fri 8-3:30,https://www.facebook.com/SouthMadisonFamily ServicesResourceCenter/,N/A,N/A,N/A,N/A,N/A,N/A,N/A,N/A
439,Madison,Kentucky Department for Community-Based Services,Community Services,"304 Anna Hume Blvd, Richmond, KY 40476",859-626-5833,37.758791,-84.269396,Mon-Fri 8-4:30,https://chfs.ky.gov/agencies/dcbs/Pages/default.aspx,N/A,N/A,N/A,N/A,N/A,N/A,N/A,N/A
440,Madison,Habitat for Humanity - Richmond,Community Services,"1417 E Main St, Richmond, KY 40475",859-625-9208,37.742247,-84.278704,Mon-Fri 8:30-5,https://hfhmcc.org/,N/A,N/A,N/A,N/A,N/A,N/A,N/A,N/A
441,Madison,South Madison Family Resource,Family Services,"75 Old US Hwy 25, Berea, KY 40403",859-387-3205,37.590324,-84.267762,N/A,http://www.madison.kyschools.us/Content/Family Services-resources-youth-service-centers,N/A,N/A,N/A,N/A,N/A,N/A,N/A,N/A
442,Madison,Kentucky Career Center - Richmond,Career Services,"830 Eastern By-Pass Richmond , KY 40475",859-544-6004,37.729792,-84.279467,Mon-Fri 8-4:30,https://kcc.ky.gov/Pages/default.aspx,N/A,N/A,N/A,N/A,N/A,N/A,N/A,N/A
443,Madison,Berea Location Library,Library,319 Chestnut Street Berea KY 40403-1508,859-986-7112,37.568775,-84.295761,"Mon-Thurs 9-8, Fri 9-6, Sat 9-6, Sun 1-5",https://www.madisonLibrary.org/,N/A,N/A,N/A,N/A,N/A,N/A,"Meeting rooms, outreach services, ebooks,printing services",
444,Madison,Madison County Public Library,Library,507 West Main Street Richmond KY 40475-1349,859-623-6704,37.749908,-84.299029,"Mon-Thurs 9-8, Fri 9-6, Sat 9-6, Sun 1-5",http://www.madisonLibrary.org,N/A,N/A,N/A,N/A,N/A,N/A,"Meeting rooms, outreach services, ebooks,printing services",
445,Madison,Madison County Extension,Cooperative Extension Offices,"230 Duncannon Lane Richmond, KY 40475",859-623-4072,37.701184,-84.273974,Mon-Fri 8-4:30,http://madison.ca.uky.edu/,N/A,N/A,N/A,N/A,N/A,N/A,N/A,N/A
446,Magoffin,Salyersville IGA,Grocery,"433 Parkway Dr, Salyersville, KY 41465",606-349-2214,37.746551,-83.062944,"Mon-Sat 7-10, Sun 9-9",https://salyersville.iga.com/,N/A,Yes,Yes,N/A,N/A,N/A,N/A,N/A
447,Magoffin,Poor Boy's Produce,Grocery,"Old Burning Fork Rd, Salyersville, KY 41465",606-349-1224,37.742689,-83.052203,Mon-Fri 8-4,https://www.facebook.com/PoorBoysProduceLondonFleaMarket/,N/A,No,No,N/A,N/A,N/A,N/A,N/A
448,Magoffin,Save-a-Lot - Salyersville,Grocery,"735 E Mountain Pkwy, Salyersville, KY 41465",606-349-8616,37.742689,-83.052203,"Mon-Sat 8-9, Sun 9-9",https://savealot.com/grocery-stores/salyersville-41465-24291/,N/A,Yes,Yes,N/A,N/A,N/A,N/A,N/A
449,Magoffin,Samuel Lyon's Grocery,Grocery,"1885 Coon Creek Rd, Salyersville, KY 41465",606-349-3544,37.818441,-83.096031,"Mon-Sat 8-8, Sun 10-7",N/A,N/A,No,Yes,N/A,N/A,N/A,N/A,N/A
450,Magoffin,Oakley Country Store,Grocery,"497 River Rd, Salyersville, KY 41465",606-884-6622,37.677594,-83.037343,N/A,N/A,N/A,No,Yes,N/A,N/A,N/A,N/A,N/A
451,Magoffin,Buddy's Produce,Produce Market,"Salyersville, KY 41465",606-433-9156,37.739933,-83.047582,N/A,https://www.facebook.com/pages/Buddies-Produce/134481240094516?hc_ref=ARTfS-PkX1PUb926NZHV1jbhSjTMxfaLLHfIrsIUu77W5srNRj3_bBe8qYJyD7pnQ_k&fref=tag,N/A,Yes,Yes,N/A,N/A,N/A,N/A,N/A
452,Magoffin,Magoffin County Farmers Market,Farmers Market,"333 West Maple Street Salyersville, KY 41465",606-349-3216,37.751718,-83.072976,Seasonal,https://www.facebook.com/pages/category/Product-Service/Magoffin-County-Farmers-Market-178449496305110/,N/A,No,No,Yes,N/A,N/A,N/A,N/A
453,Magoffin,Magoffin County Recycling Center,Recycling Centers,201 East Maple Street Salyersville KY 41465,606-349-6336,37.752189,-83.066233,N/A,N/A,Offer pickup from businesses and schools. Email: frankie_collett@hotmail.com,N/A,N/A,N/A,"AL, PL( HDPE, PET, OTHER), NONFE, OCC, OPMIX, OPSORT, ST CANS, ONP, MRP",9,"Process, Dropoff",Government Facility
454,Magoffin,T&B Recycling and Transport,Recycling Centers,440 Ivyton Road Salyersville KY 41465,606-349-1108,37.702306,-82.978868,Mon-Fri 8-4:30,https://www.facebook.com/pages/T-B-Recycling-Trans,N/A,N/A,N/A,N/A,"AL, FE, NONFE, CARBAT",4,"Process, dropoff, broker",Commercial recycler
455,Magoffin,Social Service Department - Salyersville,Family Services,"125 S Church St, Salyersville, KY 41465",606-349-3122,37.751934,-83.068809,Mon-Fri 8-4:30,https://chfs.ky.gov/Pages/index.aspx,N/A,N/A,N/A,N/A,N/A,N/A,N/A,N/A
456,Magoffin,Magoffin County Child Support,Family Services,"110 Maple St, Salyersville, KY 41465",606-349-2032,37.752693,-83.068419,Mon-Fri 8-4:30,https://csws.chfs.ky.gov/csws/General/Landing.aspx,N/A,N/A,N/A,N/A,N/A,N/A,N/A,N/A
457,Magoffin,Kentucky Career Center - Salyersville,Career Services,"131 Church Street Salyersville, KY 41465",606-349-2217,37.751934,-83.068874,Mon-Fri 8-4:30,https://kcc.ky.gov/Pages/default.aspx,N/A,N/A,N/A,N/A,N/A,N/A,N/A,N/A
458,Magoffin,Magoffin County Public Library,Library,172 S Church Street Salyersville KY 41465,606-349-2411,37.751703,-83.069436,Mon-Fri 9-5,http://www.youseemore.com/magoffinpl,N/A,N/A,N/A,N/A,N/A,N/A,N/A,N/A
459,Magoffin,Magoffin County Extension,Cooperative Extension Offices,"15 Rockhouse Fork Rd Salyersville, KY 41465",606-349-3216,37.7348811,-83.0226938,Mon-Fri 8-4:30,http://magoffin.ca.uky.edu/,N/A,N/A,N/A,N/A,N/A,N/A,N/A,N/A
460,Martin,Save-a-Lot - Inez,Grocery,"6127 Bypass Route 645, Inez, KY 41224",606-298-0030,37.860481,-82.555845,Everyday 8-9,https://savealot.com/grocery-stores/inez-41224-24472/,N/A,Yes,Yes,N/A,N/A,N/A,N/A,N/A
461,Martin,Jude's Produce,Grocery,"Blacklog Rd, Inez, KY 41224",606-534-4010,37.856965,-82.520499,N/A,https://www.facebook.com/Judes-Produce-1528429117487573/,N/A,No,No,N/A,N/A,N/A,N/A,N/A
462,Martin,Warfield IGA,Grocery,"9134 Beauty Rd, Warfield, KY 41267",606-395-5245,37.856965,-82.520499,"Mon-Sat 8-10, Sun 9-10",https://warfieldiga.com/location,N/A,Yes,Yes,N/A,N/A,N/A,N/A,N/A
463,Martin,Martin County Farmers Market,Farmers Market,"9 Holy St Inez, Kentucky 41224",606-298-7742,37.865677,-82.540306,Seasonal,https://www.facebook.com/pages/Martin-County-Farmers-Market/180280112675101,N/A,No,No,Yes,N/A,N/A,N/A,N/A
464,Martin,Checkered Flags Recycling,Recycling Centers,451 Blacklog Rd,606-534-7914,37.8527001,-82.5075988,N/A,https://www.facebook.com/dontbetrashyrecyclng/,N/A,N/A,N/A,N/A,N/A,N/A,N/A,Commercial recycler
465,Martin,Social Services Department - Inez,Family Services,"100 Main St, Inez, KY 41224",606-298-3577,37.866192,-82.537252,Mon-Fri 8-4:30,https://chfs.ky.gov/Pages/index.aspx,N/A,N/A,N/A,N/A,N/A,N/A,N/A,N/A
466,Martin,Appalachia Reach Out,Community Services,"2570 Rockcastle Rd, Inez, KY 41224",606-298-7470,37.895421,-82.55276,Mon-Fri 9-4,https://www.appalachiareachout.com/,N/A,N/A,N/A,N/A,N/A,N/A,N/A,N/A
467,Martin,Cabinet for Families & Children - Inez,Family Services,"104 Main St, Inez, KY 41224",606-298-7633,37.866049,-82.537157,Mon-Fri 8-4:30,https://chfs.ky.gov/Pages/index.aspx,N/A,N/A,N/A,N/A,N/A,N/A,N/A,N/A
468,Martin,Kentucky Career Center - Inez,Career Services,"387 East Main Street Inez, KY 41224",606-298-3217,37.868705,-82.533371,Mon-Fri 8-4:30,https://kcc.ky.gov/Pages/default.aspx,N/A,N/A,N/A,N/A,N/A,N/A,N/A,N/A
469,Martin,Martin County Public Library,Library,180 East Main Street P.O. Box 1318 Inez KY 41224-1318,606-298-7766,37.866403,-82.535814,Mon-Fri 9-5,http://www.martincoLibrary.com,N/A,N/A,N/A,N/A,N/A,N/A,"Computer classes, ask-a-librarian, disc repair, printing services, meeting rooms, genealogy room",
470,Martin,Rufus Reed Branch Library,Library,1442 River Front Road P.O. Box 359 Lovely KY 41231,606-395-6500,37.829112,-82.402024,Mon-Fri 9-5,http://www.martincoLibrary.com,N/A,N/A,N/A,N/A,N/A,N/A,"Computer classes, ask-a-librarian, disc repair, printing services, meeting rooms, genealogy room",
471,Martin,Martin County Extension,Cooperative Extension Offices,"9 Holy Street, Inez, KY 41224",606-298-7742,37.865176,-82.5417,"Mon-Fri 8-4:30, closed daily 12-1",http://martin.ca.uky.edu/,N/A,N/A,N/A,N/A,N/A,N/A,N/A,N/A
472,McCreary,Kroger - Whitley City,Grocery,"1187 N, US-27, Whitley City, KY 42653",606-376-2700,36.739253,-84.474018,Everyday 5-10,https://www.kroger.com/onlinedeli/servlet/en/delibakery,N/A,Yes,Yes,N/A,N/A,N/A,N/A,N/A
473,McCreary,Save-a-Lot - Whitley City,Grocery,"65 Crit King Rd, Whitley City, KY 42653",606-376-3626,36.718313,-84.467106,Everyday 8-9,https://savealot.com/grocery-stores/whitley-city-42653-24735/,N/A,Yes,Yes,N/A,N/A,N/A,N/A,N/A
474,McCreary,McCreary County Farmers Market,Farmers Market,"Soil Conservation Garage, 299 Wilburn K Ross Highway Stearns, KY 42647
",606-376-3008,36.702527,-84.464791,Seasonal,https://www.facebook.com/McCrearyCountyFarmersMarket/,N/A,Yes,Yes,Yes,N/A,N/A,N/A,N/A
475,McCreary,Grundy's Iron & Metal,Recycling Centers,"Inez, Kentucky",606-354-3606,36.644566,-84.435908,N/A,N/A,Salvage scrap metal dealer,N/A,N/A,N/A,"AL, FE, NONFE, ST CANS",4,"Process, dropoff, broker, other",Commercial recycler
476,McCreary,Co. Recycling/TS Center,Recycling Centers,Cabin Creek Rd. Stearns KY 42647,606-376-2413,36.701426,-84.46307,N/A,http://www.mccrearycounty.com/Departments.html,Accepts escrap and used motor oil,N/A,N/A,N/A,"AL, PL( HDPE, PET, OTHER), FE, NONFE, OCC, OPMIX, OPSORT, ST CANS, ONP, UO, ESCRAP, MRP",12,Dropoff,Government facility
477,McCreary,Department of Family Support,Family Services,"1618 US-27, Whitley City, KY 42653",606-376-5304,36.7640641,-84.4813017,Mon-Fri 8-4:30,https://www.ebtcard.net/program/Family Services_support_office_mccreary_county_42653.html,N/A,N/A,N/A,N/A,N/A,N/A,N/A,N/A
478,McCreary,Whitley City Family Resource,Family Services,"Pine Knot, KY 42635",606-376-9490,36.762027,-84.477353,Mon-Fri 7:45-3:15,https://www.mccreary.k12.ky.us/6/Content2/132,N/A,N/A,N/A,N/A,N/A,N/A,N/A,N/A
479,McCreary,McCreary County Public Library,Library,6 North Main Street P.O. Box 8 Whitley City KY 42653-0008,606-376-8738,36.725726,-84.469377,"Mon 9-7, Tues-Wed 9-5:30, Thurs 9-7, Fri 9-5:30, Sat 9-4",http://www.mccrearyLibrary.org,N/A,N/A,N/A,N/A,N/A,N/A,"Free WiFi, free computer access, bookmobile",
480,McCreary,McCreary County Extension,Cooperative Extension Offices,"McCreary Campus, Somerset CC Whitley City, KY 42653-0278",606-376-2524,36.715218,-84.467754,"Mon-Fri 8-4:30, closed daily 12-1",http://mccreary.ca.uky.edu/,N/A,N/A,N/A,N/A,N/A,N/A,N/A,N/A
481,Menifee,Frenchburg IGA,Grocery,"1175 KY-36, Frenchburg, KY 40322",606-768-4111,37.964847,-83.614258,"Mon-Sat 7-8, Sun 8-8",https://frenchburgiga.com/,N/A,Yes,Yes,N/A,N/A,N/A,N/A,N/A
482,Menifee,Menifee County Farmers' Market,Farmers Market,"62 Back Street Frenchburg, Kentucky 40322",606-768-3724,37.951819,-83.628147,Seasonal,https://www.facebook.com/Menifee-County-Farmers-Market-1412859525644869/,N/A,Yes,No,Yes,N/A,N/A,N/A,N/A
483,Menifee,Menifee County Maintenance Garage,Recycling Centers,State Route 36 Frenchburg KY 40322,606-768-2454,37.956069,-83.620569,Mon-Fri 8-4,N/A,N/A,N/A,N/A,N/A,"FE, NONFE, WHITE, UO",4,Dropoff,Government facility
484,Menifee,Social Service Department - Frenchburg,Family Services,"784 KY-36, Frenchburg, KY 40322",606-768-2154,37.959244,-83.616056,Mon-Fri 8-4:30,https://chfs.ky.gov/Pages/index.aspx,N/A,N/A,N/A,N/A,N/A,N/A,N/A,N/A
485,Menifee,Kentucky Adult Education,Career Services,"KY-36, Frenchburg, KY 40322",606-768-9741,37.951737,-83.626713,Mon-Fri 8-noon,https://kyvae.ky.gov/Login.aspx,N/A,N/A,N/A,N/A,N/A,N/A,N/A,N/A
486,Menifee,Gateway Community Action Agency - Frenchburg,Community Services,"59 Main St, Frenchburg, KY 40322",606-768-9741,37.951737,-83.626713,Mon-Fri 8-4:30,http://gatewaycaa.org/,N/A,N/A,N/A,N/A,N/A,N/A,N/A,N/A
487,Menifee,Kentucky Career Center - Frenchburg,Career Services,"28B Bible Camp Lane Frenchburg, KY 40322",800-927-1833,37.9660321,-83.6117655,Mon-Fri 8-4:30,https://kcc.ky.gov/Pages/default.aspx,N/A,N/A,N/A,N/A,N/A,N/A,N/A,N/A
488,Menifee,Menifee County Public Library,Library,"P.O. Box 49  1585 Main Street Frenchburg, KY 40322-0049",606-768-2212,37.95518,-83.651553,"Mon 9-5, Tues 9-7, Wed 9-5, Thurs 9-7, Fri 9-5, Sat 9-3",https://menifeecplky.booksys.net/opac/mcpl/,N/A,N/A,N/A,N/A,N/A,N/A,Free online Driver's practice tests,
489,Menifee,Menifee County Extension,Cooperative Extension Offices,"140 Main Street Frenchburg, KY 40322",606-768-3866,37.951308,-83.627993,"Mon-Fri 8-4:30, closed daily 12-1",http://menifee.ca.uky.edu/,N/A,N/A,N/A,N/A,N/A,N/A,N/A,N/A
490,Montgomery,Kroger - Mt. Sterling,Grocery,"810 Indian Mound Dr, Mt Sterling, KY 40353",859-497-4314,38.061319,-83.953746,Everyday 6-1,https://www.kroger.com/stores/details/024/00712?cid=loc_02400712_gmb,N/A,Yes,Yes,N/A,N/A,N/A,N/A,N/A
491,Montgomery,Walmart Supercenter - Mt. Sterling,Grocery,"499 Indian Mound Dr, Mt Sterling, KY 40353",859-497-9401,38.069238,-83.957167,Everyday 6-11pm,https://www.walmart.com/store/1140/mount-sterling-ky/details,N/A,Yes,Yes,N/A,N/A,N/A,N/A,N/A
492,Montgomery,Save-a-Lot - Mt. Sterling,Grocery,"605 Doe Run Dr, Mt Sterling, KY 40353",859-498-3076,38.072536,-83.918487,"Mon-Sat 8-8, Sun 12-6",https://savealot.com/grocery-stores/mt-sterling-40353-22809/,N/A,Yes,Yes,N/A,N/A,N/A,N/A,N/A
493,Montgomery,Creech's Food Mart,Grocery,"3252 US-460, Camargo, KY 40353",859-498-0977,38.000949,-83.899641,"Mon-Fri 7:30-10, Sat-Sun 8-10",https://www.facebook.com/pages/Creechs-Food-Mart/118911081495213,N/A,Yes,No,N/A,N/A,N/A,N/A,N/A
494,Montgomery,Walnut Leaf Country Market,Grocery,"4004 Camargo Rd Carmago, KY 40353",859-520-3105,37.999131,-83.897331,Mon-Sat 9-6,https://www.facebook.com/pages/Walnut-Leaf-Country-Ma/1535104786599729,N/A,Yes,No,N/A,N/A,N/A,N/A,N/A
495,Montgomery,Karl's/Jr's Produce,Produce Market,"1599 Indian Mound Dr, Mt Sterling, KY 40353",859-498-5044,38.044848,-83.955281,"Monday-Fri 8:30-5, Sat 9-3",https://www.facebook.com/pages/category/Shopping---Retail/Jrs-Produce-169532263073279/,N/A,No,Yes,N/A,N/A,N/A,N/A,N/A
496,Montgomery,Montgomery County Farmers' Market,Farmers Market,"153 South Maysville Street Mount Sterling, Kentucky 40353",859-279-2205,38.054453,-83.941222,Seasonal,https://www.facebook.com/pages/category/Farmers-Market/Montgomery-County-KY-Farmers-Market-999391673524365/,N/A,Yes,No,Yes,N/A,N/A,N/A,N/A
497,Montgomery,Rumpke Recycling Inc.,Recycling Centers,30 Lairson Road Jeffersonville KY 40337,859-498-3322,37.950248,-83.952076,Mon-Fri 8-5,https://www.rumpke.com/,N/A,N/A,N/A,N/A,"GL, AL, PL( HDPE, PET), OCC, CARBAT, OPMIX, ST CANS, ONP, UO, MRP",10,"Dropoff, curbside",Commercial recycler
498,Montgomery,Health and Civic Center,Family Services,"108 E Locust St, Mt Sterling, KY 40353",859-498-6312,38.055164,-83.939814,"Mon-Thurs, 8-4:30, Fri 8-noon",http://www.mtsterlingchamber.com/Community Services/civic/,N/A,N/A,N/A,N/A,N/A,N/A,N/A,N/A
499,Montgomery,State of Kentucky Family Support - Mt Sterling,Family Services,"212 Civic Ctr, Mt Sterling, KY 40353",859-498-5398,38.056355,-83.943051,Mon-Fri 8-4:30,https://csws.chfs.ky.gov/csws/General/Landing.aspx,N/A,N/A,N/A,N/A,N/A,N/A,N/A,N/A
500,Montgomery,Montgomery County Child Support,Family Services,"44 W Main St F, Mt Sterling, KY 40353",859-498-8718,38.055943,-83.942912,Mon-Fri 8-4,https://csws.chfs.ky.gov/csws/General/Landing.aspx,N/A,N/A,N/A,N/A,N/A,N/A,N/A,N/A
501,Montgomery,Evergreen Community Support - Mt. Sterling,Community Services,"131 Crescent Dr, Mt Sterling, KY 40353",859-497-8500,38.04451,-83.984797,N/A,https://www.facebook.com/pages/Evergreen-Community Services-Support-LLC/864312193604916,N/A,N/A,N/A,N/A,N/A,N/A,N/A,N/A
502,Montgomery,Community Action Council - Mt. Sterling,Community Services,"118 Maloney Way Mt. Sterling, KY 40353",859-244-2256,38.04858,-83.944142,Mon-Fri 8-4:30,http://gatewaycaa.org/locations/montgomery-county/,N/A,N/A,N/A,N/A,N/A,N/A,N/A,N/A
503,Montgomery,Kentucky Career Center - Mt. Sterling,Career Services,"200 Oak Grove Drive, Suite 3 Mt. Sterling, KY 40353",859-554-2525,38.100569,-83.904451,"Mon, Wed, Fri 8-4:30",https://kcc.ky.gov/Pages/default.aspx,N/A,N/A,N/A,N/A,N/A,N/A,N/A,N/A
504,Montgomery,Montgomery County Library,Library,328 North Maysville Street Mount Sterling KY 40353,859-498-2404,38.061795,-83.944377,"Mon-Thurs 9-8, Fri-Sat 9-6",https://www.facebook.com/mtsterlingLibrary/,N/A,N/A,N/A,N/A,N/A,N/A,"Children services, college prep classes",
505,Montgomery,Camargo Branch Library,Library,4460C Camargo Road Mt. Sterling KY 40353,859-499-4244,37.993694,-83.887448,"Mon-Thurs 9-8, Fri-Sat 9-6",N/A,N/A,N/A,N/A,N/A,N/A,N/A,"Arts and Crafts club, book clubs, free WiFi",
506,Montgomery,Montgomery County Extension,Cooperative Extension Offices,"106 East Locust Street Mt. Sterling, KY 40353-1404",859-498-8741,38.054953,-83.940793,Mon-Fri 8-4:30,http://montgomery.ca.uky.edu/,N/A,N/A,N/A,N/A,N/A,N/A,N/A,N/A
507,Morgan,West Liberty IGA,Grocery,"64 KY-191, West Liberty, KY 41472",606-743-2465,37.897108,-83.283523,"Mon-Sat 7-10, Sun 9-9",https://westlibertyiga.com/ads,N/A,Yes,Yes,N/A,N/A,N/A,N/A,N/A
508,Morgan,Save-a-Lot - West Liberty,Grocery,"7644 Liberty Rd W, West Liberty, KY 41472",606-743-2135,37.897663,-83.287556,Everyday 8-9,https://savealot.com/grocery-stores/west-liberty-41472-24741/,N/A,Yes,Yes,N/A,N/A,N/A,N/A,N/A
509,Morgan,Fannin's Vegetable Market,Produce Market,"2140 US Highway 460 W West Liberty, Kentucky 41472",606-743-2326,37.894469,-83.289536,Everyday 9-5,https://www.facebook.com/FanninsVegetableFarm/,N/A,N/A,N/A,N/A,N/A,N/A,N/A,N/A
510,Morgan,Morgan County Farmers' Market,Farmers Market,"219 W Main St West Liberty, Kentucky 41472",606-743-3292,37.915301,-83.260901,Seasonal,https://www.facebook.com/morgancofarmersmarket/,N/A,No,No,Yes,N/A,N/A,N/A,N/A
511,Morgan,Grassy Auto Parts,Recycling Centers,6374 US HWY 460 West West Liberty KY 41472,606-743-3167,37.866951,-83.342274,Mon-Fri 8-5,http://www.grassyautoparts.com/index.htm,"Buy back car bodies, appliances. Call for requirements.",N/A,N/A,N/A,"AL, FE, NONFE, CARBAT, ST CANS, WHITE",6,"Process, dropoff, broker",Commercial recycler
512,Morgan,Morgan Co. Solid Waste & Recycling,Recycling Centers,239 Co. Garage Road West Liberty KY 41472,606-743-4845,37.904944,-83.242463,Mon-Fri 8-4,https://morgancounty.ky.gov/Pages/Services.aspx,N/A,N/A,N/A,N/A,"AL, OCC, OPMIX, OPSORT, ST CANS, ONP, UO, MRP",8,Dropoff,Government facility
513,Morgan,Christian Social Services - West Liberty,Family Services,"256 Court St, West Liberty, KY 41472",606-743-4132,37.92003,-83.259771,N/A,N/A,N/A,N/A,N/A,N/A,N/A,N/A,N/A,N/A
514,Morgan,Cabinet for Health and Family Services,Family Services,"405 Prestonsburg St, West Liberty, KY 41472",606-743-3158,37.921567,-83.256844,Mon-Fri 8-4:30,chfs.ky.gov,N/A,N/A,N/A,N/A,N/A,N/A,N/A,N/A
515,Morgan,Gateway Community Action Agency,Career Services,"151 University Drive West Liberty, KY 41472",606-743-3133,37.900406,-83.288998,Mon-Fri 8-4:30,gcscap.org,N/A,N/A,N/A,N/A,N/A,N/A,N/A,N/A
516,Morgan,Morgan County Public Library,Library,151 University Avenue West KY 41472-1140,606-743-4151,37.899106,-83.288633,"Mon-Tues 9-7, Wed 9-5, Thurs-Fri 9-7, Sat 10-3",http://www.youseemore.com/mcpl,N/A,N/A,N/A,N/A,N/A,N/A,"Free computer and internet access, bookmobile, meeting rooms, teen and children services, computer classes, Ancestry Library",
517,Morgan,Morgan County Extension,Cooperative Extension Offices,"1002 Prestonsburg Street West Liberty, KY 41472",606-743-3292,37.917644,-83.243179,Mon-Fri 8-4:30,http://morgan.ca.uky.edu/,N/A,N/A,N/A,N/A,N/A,N/A,N/A,N/A
518,Owsley,Shopwise,Grocery,"277 KY-28, Old Landing, KY 41311",606-593-7308,37.47542,-83.669776,"Mon-Sat 7:30-9, Sun 12-6",https://www.facebook.com/BoonevilleShopwise/,N/A,Yes,Yes,N/A,N/A,N/A,N/A,N/A
519,Owsley,Southfork Farms,Farm,"402 KY 1938 Booneville, Kentucky 41314",606-454-5109,37.455227,-83.69247,Seasonal,https://www.facebook.com/ted.johnson.77312/,N/A,No,Yes,N/A,N/A,N/A,N/A,N/A
520,Owsley,Owsley County Farmers' Market,Farmers Market,"Shepherds Lane Booneville, KY 41314",606-593-5109,37.476029,-83.665002,Seasonal,https://www.facebook.com/Owsley-County-Farmers-Market-483318505393817/,N/A,No,Yes,Yes,N/A,N/A,N/A,N/A
521,Owsley,Department for Human Resources - Booneville,Family Services,"1 Mulberry St, Booneville, KY 41314",606-593-5191,37.475569,-83.674721,Mon-Fri 8-4:30,https://chfs.ky.gov/Pages/index.aspx,N/A,N/A,N/A,N/A,N/A,N/A,N/A,N/A
522,Owsley,Daniel Boone Development - Booneville,Community Services,Owsley County Courthouse,606-593-5153,37.4758059,-83.6751181,Mon-Fri 8-4:30,http://danielboonecaa.org/,N/A,N/A,N/A,N/A,N/A,N/A,N/A,N/A
523,Owsley,Owsley County Public Library,Library,185 Highway 11 Booneville KY 41314,606-593-5700,37.4760016,-83.6797524,"Mon-Wed 9-5, Thurs 9-8, Fri 9-5",https://www.facebook.com/pages/category/Library/Owsley-County-Public-Library-1745629035657364/,N/A,N/A,N/A,N/A,N/A,N/A,"Free computer and internet access, copy and printing services, tutoring services, meeting rooms and GED classes",
524,Owsley,Owsley County Extension,Cooperative Extension Offices,"02 Industrial Park Road, Booneville, KY 41314",606-593-5109,37.4527224,-83.6831904,"Mon-Fri 8-4:30, closed daily 12-1",http://owsley.ca.uky.edu/,N/A,N/A,N/A,N/A,N/A,N/A,N/A,N/A
525,Perry,United Grocery Outlet,Grocery,"410 Village Ln, Hazard, KY 41701",606-435-0543,37.279961,-83.232135,"Mon-Sat 8-8, Sun 10-6",http://www.myugo.com/,N/A,Yes,Yes,N/A,N/A,N/A,N/A,N/A
526,Perry,Bulan Meats and Grocery,Grocery,"5633 KY-476, Bulan, KY 41722",606-436-2432,37.298897,-83.166895,"Mon-Sat 8-8, Sun 10-8",https://www.facebook.com/bulanmeats.ngrocery/,N/A,Yes,No,N/A,N/A,N/A,N/A,N/A
527,Perry,Food City - Hazard,Grocery,"50 Morton Blvd, Hazard, KY 41701",606-436-8204,37.298897,-83.166895,Everyday 7-10,https://www.foodcity.com/stores/store-details/438/?utm_source=googlebusiness&utm_medium=businesslocal&utm_campaign=grocery&utm_content=438,N/A,Yes,Yes,N/A,N/A,N/A,N/A,N/A
528,Perry,Walmart Supercenter - Hazard,Grocery,"120 Daniel Boone Plaza, Hazard, KY 41701",606-439-1882,37.298897,-83.166895,Everyday 6-11pm,https://www.walmart.com/store/1247/hazard-ky/details,N/A,Yes,Yes,N/A,N/A,N/A,N/A,N/A
529,Perry,Save-a-Lot - Hazard,Grocery,"163 Citizens Lane, Hazard, KY 41701",606-439-6510,37.260125,-83.199264,Everyday 9-9,https://savealot.com/grocery-stores/hazard-41701-24475/,N/A,Yes,Yes,N/A,N/A,N/A,N/A,N/A
530,Perry,Happy IGA,Grocery,"10036 KY-15, Vicco, KY 41773",606-476-8729,37.2054,-83.090866,Mon-Sat 7:30-8pm,https://happyiga.com/,N/A,Yes,Yes,N/A,N/A,N/A,N/A,N/A
531,Perry,Save-a-Lot - Hazard,Grocery,"52 Grand Vue Plaza, Hazard, KY 41701",606-435-0002,37.2054,-83.090866,Everyday 8-9,https://savealot.com/grocery-stores/hazard-41701-24474/,N/A,Yes,Yes,N/A,N/A,N/A,N/A,N/A
532,Perry,Perry County Farmers' Market,Farmer's Market,"Perry Park Road 420 Main Street, Hazard, KY 41701",571-217-5913,37.282943,-83.209918,Seasonal,https://www.facebook.com/PerryCountyFarmersMarket/,N/A,No,Yes,Yes,N/A,N/A,N/A,N/A
533,Perry,Dixie Recycling,Recycling Centers,2647 N. Main Street Hazard KY 41701,606-435-0287,37.270296,-83.189297,Mon-Fri 9-4,https://www.facebook.com/pages/category/Community/,Call for material requirements. Formerly Zip Recycling,N/A,N/A,N/A,"AL, FE, NONFE, CARBAT",4,"Handler, process, dropoff, broker",Commercial recycler
534,Perry,Hazard Recycling AKA Gorman Hollow,Recycling Centers,105 Gorman Hollow Road Hazard KY 41701,606-439-1863,37.240819,-83.198651,Mon-Fri 7-4,N/A,Also accept magazines and paperback books.,N/A,N/A,N/A,"GL, AL, PL( HDPE, PET), OCC, OPMIX, ST CANS, ONP",7,"Handler, dropoff",Government facility
535,Perry,Perry County Maintenance Garage & 2 Dropoff Trailers,Recycling Centers,2715 Christopher Road Hazard KY 41701,606-439-0149,37.240819,-83.198651,Mon-Fri 8-4,https://perrycounty.ky.gov/da/Pages/Solid-Waste.aspx,"We accept any type of electronics you may have: old computers, TVs, microwaves, stoves, and anything that has or once had a cord. This service is provided to you free of charge.",N/A,N/A,N/A,"AL, PL( PET, OTHER), OCC, ST CANS, ONP, ESCRAP, MRP",7,Dropoff,Government facility
536,Perry,Walmart Supercenter - Hazard,Recycling Centers,120 Daniel Boone Plaza,606-439-1882,37.240819,-83.198651,N/A,N/A,N/A,N/A,N/A,N/A,CARBAT,1,"Dropoff, other",Automotive Service
537,Perry,Wright's Recycling,Recycling Centers,43 Ready Mix Dr Hazard KY 41701,606-436-0903,37.286588,-83.170643,N/A,N/A,Scrap Metal Dealer,N/A,N/A,N/A,"AL, FE, NONFE, OCC, CARBAT, UO",6,"Dropoff, broker",Commercial recycler
538,Perry,Social Security Adminstration - Hazard,Family Services,"122 Reynolds Lane, Hazard, KY 41701",800-772-1213,37.2502469,-83.2046709,Mon-Fri 9-4,https://www.ssa.gov/,N/A,N/A,N/A,N/A,N/A,N/A,N/A,N/A
539,Perry,Social Security Administration Office of Disability Adjudication and Review ,Family Services,"825 High St, Hazard, KY 41701",606-435-0724,37.251406,-83.194704,Mon-Fri 8-4:30,https://www.ssa.gov/,N/A,N/A,N/A,N/A,N/A,N/A,N/A,N/A
540,Perry,Cabinet for Families & Children - Hazard,Family Services,"548 Village Ln, Hazard, KY 41701",606-435-6060,37.278099,-83.232588,Mon-Fri 8-4:30,https://www.dcfoffices.org/state/KY#,N/A,N/A,N/A,N/A,N/A,N/A,N/A,N/A
541,Perry,Social Services Office - Hazard,Family Services,"1332 KY-15 Hazard, KY 41701",855-306-8959,37.244325,-83.184213,Mon-Fri 8-4:30,https://chfs.ky.gov/Pages/index.aspx,N/A,N/A,N/A,N/A,N/A,N/A,N/A,N/A
542,Perry,Perry County Community Ministries,Community Services,"151 Miss Edna Ln, Hazard, KY 41701",606-436-2662,37.2749249,-83.2309159,Mon-Fri 8-4:30,https://www.facebook.com/pages/category/Social-Service/Hazard-Perry-County-Community-Ministries-736403759797774/,N/A,N/A,N/A,N/A,N/A,N/A,N/A,N/A
543,Perry,Hope House,Family Services,"1001 N Main St, Hazard, KY 41701",606-436-5043,37.253942,-83.194478,Mon-Fri 6:30-6,https://www.facebook.com/hazardhopehouse/?ref=page_internal,N/A,N/A,N/A,N/A,N/A,N/A,N/A,N/A
544,Perry,Kentucky River Community Care,Family Services,"115 Rockwood Ln Hazard, KY 41701",606-436-5761,37.280359,-83.228611,N/A,http://krccnet.com/,N/A,N/A,N/A,N/A,N/A,N/A,N/A,N/A
545,Perry,LKLP Safe House,Community Services,"398 Roy Campbell Dr, Hazard, KY 41701",606-436-8853,37.271935,-83.229825,N/A,https://www.lklp.org/,N/A,N/A,N/A,N/A,N/A,N/A,N/A,N/A
546,Perry,Cabinet for Families & Children - Hazard,Family Services,"742 High St, Hazard, KY 41701",606-435-6108,37.250921,-83.195407,Mon-Fri 8-5,https://www.dcfoffices.org/state/KY#,N/A,N/A,N/A,N/A,N/A,N/A,N/A,N/A
547,Perry,Kentucky Career Center - Hazard,Career Services,"412 Roy Campbell Drive Hazard, KY 41701",606-435-6038,37.270593,-83.232674,"Mon-Wed 8-5, Thurs 8-4:30, Thurs 8-4:30, Fri 8-noon",https://kcc.ky.gov/Pages/default.aspx,N/A,N/A,N/A,N/A,N/A,N/A,N/A,N/A
548,Perry,Office for Children with Special Health Care Needs - Hazard,Family Services,"110 Johnson Ln, Barbourville, KY 40906",606-546-5109,36.869324,-83.886317,Mon-Fri 8-4:30,https://chfs.ky.gov/agencies/ccshcn/Pages/default.aspx,N/A,N/A,N/A,N/A,N/A,N/A,N/A,N/A
549,Perry,Perry County Public Library,Library,289 Black Gold Blvd. Hazard KY 41701-2604,606-436-2475,37.251066,-83.206349,"Mon-Fri 9-7, Sat 8-4",http://perrycountyLibrary.org,N/A,N/A,N/A,N/A,N/A,N/A,"Meeting rooms, auditorium, bookmobile and outreach services, teen room, genealogy, 3D printing, exam proctoring, study rooms, free computer and internet access, free printing services",
550,Perry,Perry County Extension,Cooperative Extension Offices,"933 Perry Park Rd. Hazard, KY 41701",606-436-2044,37.282518,-83.209259,"Mon-Fri 8-4:30, closed daily 12-1",http://perry.ca.uky.edu/,N/A,N/A,N/A,N/A,N/A,N/A,N/A,N/A
551,Pike,Walmart Supercenter - Pikeville,Grocery,"254 Cassidy Blvd, Pikeville, KY 41501",606-432-6177,37.507048,-82.540489,Everyday 6-11pm,https://www.walmart.com/store/1505/pikeville-ky/details,N/A,Yes,Yes,N/A,N/A,N/A,N/A,N/A
552,Pike,Save-a-Lot - Pikeville,Grocery,"4195 N Mayo Trail, Pikeville, KY 41501",606-433-0827,37.52338,-82.573346,"Mon-Sat 8-9, Sun 10-9",https://savealot.com/grocery-stores/pikeville-41501-24469/,N/A,Yes,Yes,N/A,N/A,N/A,N/A,N/A
553,Pike,Save-a-Lot - Pikeville,Grocery,"240 S Mayo Trail, Pikeville, KY 41501",606-432-8867,37.471299,-82.533412,Everyday 8-9,https://savealot.com/grocery-stores/pikeville-41501-24468/,N/A,Yes,Yes,N/A,N/A,N/A,N/A,N/A
554,Pike,Food City - South Williamson,Grocery,"28093 Thompson Plaza, South Williamson, KY 41503",606-237-1150,37.653951,-82.270528,Everyday 7-10,https://www.foodcity.com/stores/store-details/425/?utm_source=googlebusiness&utm_medium=businesslocal&utm_campaign=grocery&utm_content=425,N/A,Yes,Yes,N/A,N/A,N/A,N/A,N/A
555,Pike,Save-a-Lot - Virgie,Grocery,"669 KY-610, Virgie, KY 41572",606-639-0085,37.340767,-82.591351,"Mon-Sat 8-9, Sun 9-8",https://savealot.com/grocery-stores/virgie-41572-25000/,N/A,Yes,Yes,N/A,N/A,N/A,N/A,N/A
556,Pike,Save-a-Lot - Phelps,Grocery,"13300 Phelps 632 Rd, Phelps, KY 41553",606-456-8704,37.509733,-82.159758,"Mon-Sat 8-9, Sun 9-8",https://savealot.com/grocery-stores/phelps-41553-45108/,N/A,Yes,Yes,N/A,N/A,N/A,N/A,N/A
557,Pike,Walmart Supercenter - South Williamson,Grocery,"28402 US-119, South Williamson, KY 41503",606-237-0477,37.658862,-82.271161,Everyday 6-11pm,https://www.walmart.com/store/2548/south-williamson-ky/details,N/A,Yes,Yes,N/A,N/A,N/A,N/A,N/A
558,Pike,Save-a-Lot - Goody,Grocery,"28640 US-119, Goody, KY 41514",606-237-5928,37.661314,-82.272467,"Mon-Sat 8-9, Sun 9-8",https://savealot.com/grocery-stores/goody-41514-23506/,N/A,Yes,Yes,N/A,N/A,N/A,N/A,N/A
559,Pike,Mike Tackett's Market,Grocery,"145 KY-610, Virgie, KY 41572",606-639-2388,37.347989,-82.592677,N/A,N/A,N/A,Yes,Yes,N/A,N/A,N/A,N/A,N/A
560,Pike,Food City #458,Grocery,"215 Cassidy Blvd Pikeville , KY 41501",606-432-8150,37.504613,-82.53673,Everyday 7-10,https://www.foodcity.com/stores/store-details/458/?utm_source=googlebusiness&utm_medium=businesslocal&utm_campaign=grocery&utm_content=458,N/A,Yes,Yes,N/A,N/A,N/A,N/A,N/A
561,Pike,Food City #475,Grocery,"2138 S. Mayo Trail Pikeville , KY 41501",606-432-0796,37.439819,-82.509933,Everyday 7-10,https://www.foodcity.com/stores/store-details/475/?utm_source=googlebusiness&utm_medium=businesslocal&utm_campaign=grocery&utm_content=475,N/A,Yes,Yes,N/A,N/A,N/A,N/A,N/A
562,Pike,Reynold's Produce,Grocery,"673 Bypass Rd Pikeville, KY 41501",606-437-7821,37.478357,-82.515294,Mon-Sat 7-6,https://www.facebook.com/ReynoldsProduceMarket/,N/A,Yes,Yes,N/A,N/A,N/A,N/A,N/A
563,Pike,Quality Foods - Robinson Creek,Grocery,"5284 Collins Hwy, Robinson Creek KY 41560",606-639-2560,37.386761,-82.538592,Everyday 8-11,N/A,N/A,Yes,Yes,N/A,N/A,N/A,N/A,N/A
564,Pike,Quality Foods - Regina,Grocery,"10023 US-460 Regina, KY 41559",606-754-5443,37.386761,-82.538592,"Mon-Fri 7-11, Sat-Sun 8-11",N/A,N/A,Yes,Yes,N/A,N/A,N/A,N/A,N/A
565,Pike,Quality Foods - McCar,Grocery,"11341 State Hwy 1056 McCarr, KY 41544",606-427-1004,37.619806,-82.167257,"Mon-Fri 7-11, Sat-Sun 8-11",N/A,N/A,Yes,Yes,N/A,N/A,N/A,N/A,N/A
566,Pike,"Velocity Market - Hambley Blvd, Pikeville",Grocery,"533 Hambley Blvd # 1 Pikeville, KY 41501",606-432-4112,37.485388,-82.524534,Everyday 8-10,https://www.facebook.com/VelocityMarket/,N/A,Yes,Yes,N/A,N/A,N/A,N/A,N/A
567,Pike,"Velocity Market - Zebulon Hwy, Pikeville",Grocery,"4704 Zebulon Hwy Pikeville, KY 41501",606-432-5419,37.532852,-82.4674,Everyday 8-10,https://www.facebook.com/VelocityMarket/,N/A,Yes,Yes,N/A,N/A,N/A,N/A,N/A
568,Pike,Velocity Market - Elkhorn City,Grocery,"197 Elkhorn Creek Rd Elkhorn City, KY 41522",606-754-4725,37.294853,-82.363056,Everyday 8-11,https://www.facebook.com/VelocityMarketElkhorn/,N/A,Yes,Yes,N/A,N/A,N/A,N/A,N/A
569,Pike,Pikeville Farmers' Market,Farmers Market,"130 Adams Ln, Pikeville, KY 41501",606-432-2534,37.485078,-82.545437,Seasonal,https://www.facebook.com/PikevilleFarmersMarket/,N/A,No,Yes,Yes,N/A,N/A,N/A,N/A
570,Pike,Black Gem Park (County Drop-off),Recycling Centers,Black Gem Road Pikeville KY 41501,606-432-6245,37.6442481,-82.2649189,N/A,N/A,Approximate location,N/A,N/A,N/A,"AL, PL( HDPE, PET), OCC, OPMIX, OPSORT, ST CANS, ONP, MRP",8,Dropoff,Government facility
571,Pike,Pike County Solid Waste,Recycling Centers,170 Ford Mountain Road Pikeville KY 41501,606-631-0902,37.568361,-82.453139,N/A,http://www.pikecountyky.gov/?page_id=31,N/A,N/A,N/A,N/A,"GL, AL, PL( HDPE, PET), NONFE, OCC, CARBAT, OPMIX, OPSORT, ST CANS, ONP, UO, MRP, RUB, EGC",14,Dropoff,Government facility
572,Pike,Walmart Supercenter - Pikeville,Recycling Centers,254 Cassidy Blvd Pikeville KY 41501,606-432-6177,37.5070729,-82.5425906,N/A,N/A,N/A,N/A,N/A,N/A,CARBAT,1,"Dropoff, other",Automotive Service
573,Pike,Social Security Adminstration - Pikeville,Family Services,"333 Hambley Blvd, Pikeville, KY 41501",800-772-1213,37.482179,-82.532922,Mon-Fri 9-4,www.ssa.gov/,N/A,N/A,N/A,N/A,N/A,N/A,N/A,N/A
574,Pike,Social Service Department - Pikeville,Family Services,"131 Summit Dr # 400, Pikeville, KY 41501",606-433-7596,37.476456,-82.5157,Mon-Fri 8-4:30,chfs.ky.gov,N/A,N/A,N/A,N/A,N/A,N/A,N/A,N/A
575,Pike,Judi's Place for Kids,Family Services,"128 S College St, Pikeville, KY 41501",606-437-7447,37.475694,-82.523765,Mon-Fri 8:30-5,https://www.judisplace.org/,N/A,N/A,N/A,N/A,N/A,N/A,N/A,N/A
576,Pike,Habitat for Humanity - Pikeville,Community Services,"137 Main St, Pikeville, KY 41501",606-437-4011,37.479026,-82.51805,N/A,https://www.habitat.org/us-ky/pikeville/sandy-valley-hfh,N/A,N/A,N/A,N/A,N/A,N/A,N/A,N/A
578,Pike,Kentucky Career Center - Pikeville,Career Services,"138 College Street Pikeville, KY 41501",606-433-7721,37.476548,-82.521029,"Mon-Wed 8-5, Thurs 8-4:30, Fri 8-noon",https://kcc.ky.gov/Pages/default.aspx,N/A,N/A,N/A,N/A,N/A,N/A,N/A,N/A
579,Pike,Big Sandy Area Community Action Program,Career Services,"478 Town Mountain Road Pikeville, KY 41501",606-432-2775,37.49024,-82.499622,Mon-Fri 8-4:30,https://kcc.ky.gov/Pages/default.aspx,N/A,N/A,N/A,N/A,N/A,N/A,N/A,N/A
580,Pike,Belfry Branch Library,Library,"24371 U.S. Highway 119 Belfry, KY 41514",606-353-9429,37.613117,-82.272403,"Tues, Thurs, Fri 10-7, Sat 9-6",http://www.informationplace.org,N/A,N/A,N/A,N/A,N/A,N/A,"Ebooks, online career help, legal form database,genealogical services",
581,Pike,Elkhorn City Branch Library,Library,150 East Main Street Elkhorn City KY 41522,606-754-5451,37.30567,-82.353176,"Tues, Thurs, Fri 10-7, Sat 9-6",http://www.informationplace.org,N/A,N/A,N/A,N/A,N/A,N/A,"Ebooks, online career help, legal form database,genealogical services",
582,Pike,Phelps Branch Library,Library,"38575 State Highway 194 East Phelps, KY 41553-9702",606-456-7860,37.51847,-82.153774,"Tues, Thurs, Fri 10-7, Sat 9-6",http://www.informationplace.org,N/A,N/A,N/A,N/A,N/A,N/A,"Ebooks, online career help, legal form database,genealogical services",
583,Pike,Pikeville Public Library,Library,119 College Street Pikeville KY 41502,606-432-1285,37.476409,-82.521999,Mon-Fri 10-7,http://www.informationplace.org,N/A,N/A,N/A,N/A,N/A,N/A,"Ebooks, online career help, legal form database,genealogical services",
584,Pike,Vesta Roberts Johnson Memorial Library,Library,"180 Highway 610 West Virgie, KY 41572",606-639-9839,37.347842,-82.592082,"Tues, Thurs, Fri 10-7, Sat 9-6",http://www.informationplace.org,N/A,N/A,N/A,N/A,N/A,N/A,"Ebooks, online career help, legal form database,genealogical services",
585,Pike,Lee Avenue Branch Library,Library,"126 Lee Avenue Pikeville, KY 41501",606-437-6001,37.501614,-82.535128,"Tues, Thurs, Fri 10-7, Sat 9-6",http://www.informationplace.org,N/A,N/A,N/A,N/A,N/A,N/A,"Ebooks, online career help, legal form database,genealogical services",
586,Pike,Pike County Extension,Cooperative Extension Offices,"148 Trivette Drive Pikeville, KY 41501",606-432-2534,37.48379,-82.515491,Mon-Fri 8-4:30,http://pike.ca.uky.edu/,N/A,N/A,N/A,N/A,N/A,N/A,N/A,N/A
587,Powell,Kroger - Stanton,Grocery,"179 W College Ave, Stanton, KY 40380",606-663-2873,37.84436,-83.861737,Everyday 7-10,https://www.kroger.com/stores/details/024/00411?cid=loc_02400411_gmb,N/A,Yes,Yes,N/A,N/A,N/A,N/A,N/A
588,Powell,Superior IGA,Grocery,"5669 Main St, Clay City, KY 40312",606-663-1500,37.865522,-83.940009,Everyday 7-9,https://www.facebook.com/SuperiorIGA/,N/A,Yes,Yes,N/A,N/A,N/A,N/A,N/A
589,Powell,Save-a-Lot - Stanton,Grocery,"576 E College Ave, Stanton, KY 40380",606-663-5714,37.844827,-83.847417,Everyday 8-9,https://savealot.com/grocery-stores/stanton-40380-23614/,N/A,Yes,Yes,N/A,N/A,N/A,N/A,N/A
590,Powell,Powell County Farmers' Market in Stanton,Farmers Market,"91 N Main St, Stanton, KY 40380",606-663-6405,37.844569,-83.858758,Seasonal,https://www.facebook.com/pages/category/Community-Organization/Powell-County-Farmers-Market-569811056469409/,N/A,No,No,Yes,N/A,N/A,N/A,N/A
591,Powell,Powell County Farmers' Market in Clay City,Farmers Market,"Highway 15, Clay City, KY, 40312",606-663-6405,37.864927,-83.934141,Seasonal,https://www.facebook.com/pages/category/Community-Organization/Powell-County-Farmers-Market-569811056469409/,N/A,No,No,Yes,N/A,N/A,N/A,N/A
592,Powell,Powell County Transfer Station,Recycling Centers,2479 Stanton Road Stanton KY 40380,606-481-9474,37.838728,-83.89572,Mon-Fri 7:30- 5,N/A,N/A,N/A,N/A,N/A,"GL, AL, PL( HDPE, PET), NONFE, OCC, OPMIX, WHITE, ONP",8,Dropoff,Government facility
593,Powell,Powell County Child Support,Family Services,"565 Washington St, Stanton, KY 40380",606-663-6424,37.853153,-83.859838,Mon-Fri 8-4:30,https://powellcounty.ky.gov/department/Pages/child-support.aspx,N/A,N/A,N/A,N/A,N/A,N/A,N/A,N/A
594,Powell,Cabinet for Families & Children - Stanton,Family Services,"124 N Main St, Stanton, KY 40380",606-663-2293,37.847233,-83.857888,Mon-Fri 8-4:30,chfs.ky.gov,N/A,N/A,N/A,N/A,N/A,N/A,N/A,N/A
595,Powell,Powell County Public Library,Library,725 Breckenridge Street Stanton KY 40380-2018,606-663-4511,37.852714,-83.86086,"Mon-Tues 9-7, Wed 9-5, Thurs 9-7, Fri 9-5, Sat 10-3",http://www.pcplky.org,N/A,N/A,N/A,N/A,N/A,N/A,"Free computer and internet access, copy services, Ancestry.com, family/adult/teen/children programs, bookmobile and outreach services",
596,Powell,Powell County Extension,Cooperative Extension Offices,"169 Maple Street Stanton, KY 40380",606-663-6405,37.853977,-83.859464,"Mon-Fri 8-4:30, closed daily 12-1",http://powell.ca.uky.edu/,N/A,N/A,N/A,N/A,N/A,N/A,N/A,N/A
597,Pulaski,"Kroger - Hwy 27, Somerset",Grocery,"181 S Hwy 27, Somerset, KY 42501",606-678-5147,37.090977,-84.619231,Everyday 7-10,https://www.kroger.com,N/A,Yes,Yes,N/A,N/A,N/A,N/A,N/A
598,Pulaski,Walmart Supercenter - Somerset,Grocery,"177 Washington Dr, Somerset, KY 42501",606-679-9204,37.068394,-84.622848,Everyday 6-11pm,https://www.walmart.com/store/689/somerset-ky/details,N/A,Yes,Yes,N/A,N/A,N/A,N/A,N/A
599,Pulaski,"Kroger - Stonegate Center, Somerset",Grocery,"50 Stonegate Center, Somerset, KY 42501",606-678-0202,37.058293,-84.625266,Everyday 7-10,https://www.kroger.com/stores/details/024/00745?cid=loc_02400745_gmb,N/A,Yes,Yes,N/A,N/A,N/A,N/A,N/A
600,Pulaski,IGA - Somerset,Grocery,"470 E, KY-80, Somerset, KY 42501",606-677-2409,37.100903,-84.614031,Everyday 7-11pm,https://www.myiga.com/,N/A,Yes,Yes,N/A,N/A,N/A,N/A,N/A
601,Pulaski,"Save-a-Lot - 1114 US-27, Somerset",Grocery,"1114 N US-27, Somerset, KY 42503",606-678-4669,37.109297,-84.620507,Everyday 8-9,https://savealot.com/grocery-stores/somerset-42503-24737/,N/A,Yes,Yes,N/A,N/A,N/A,N/A,N/A
602,Pulaski,"Save-a-Lot - 5194 US-27, Somerset",Grocery,"5194 S Hwy 27, Somerset, KY 42501",606-679-4131,37.020119,-84.626515,Everyday 8-9,https://savealot.com/grocery-stores/somerset-42501-24736/,N/A,Yes,Yes,N/A,N/A,N/A,N/A,N/A
603,Pulaski,Aldi - Somerset,Grocery,"4105 S Hwy 27 S, Somerset, KY 42501",855-955-2534,37.036138,-84.628136,Everyday 9-8,https://www.aldi.us/en/weekly-specials/our-weekly-ads/,N/A,Yes,No,N/A,N/A,N/A,N/A,N/A
604,Pulaski,Crossroads IGA,Grocery,"1830 KY-80, Somerset, KY 42501",606-678-5962,37.109297,-84.620507,Everyday 6-11pm,https://www.myiga.com/,N/A,Yes,Yes,N/A,N/A,N/A,N/A,N/A
605,Pulaski,Hillside Pantry,Grocery,"2020 Etna Rd, Eubank, KY 42567",606-423-1000,37.216768,-84.670345,Mon-Sat 9:30-5,https://www.hillsidepantryeubank.com/,N/A,Yes,Yes,N/A,N/A,N/A,N/A,N/A
606,Pulaski,J&J Farm Produce and Deli,Grocery,"476 Parkers Mill Rd, Somerset, KY 42501",606-485-2420,37.040567,-84.619311,"Mon-Fri 9-6, Sat 9-2",https://www.facebook.com/jjfarmproduce,N/A,No,No,N/A,N/A,N/A,N/A,N/A
607,Pulaski,Burnett Farms,Farm,"925 Parkers Mill Rd, Somerset, KY 42501",606-451-9315,37.04192,-84.609941,Seasonal,https://www.facebook.com/5farm/,N/A,No,No,N/A,N/A,N/A,N/A,N/A
608,Pulaski,Hail's Farm,Farm,"3115 Hwy 461 Somerset, Kentucky 42503",606-274-0011,37.196875,-84.46683,Seasonal,https://www.facebook.com/pages/category/Fruit---Vegetable-Store/Hails-Farm-574037332607189/,N/A,No,No,N/A,N/A,N/A,N/A,N/A
609,Pulaski,The Market on Main,Produce Market,"3661 S Hwy 27 suite c, Somerset, KY 42501",606-677-6725,37.047944,-84.626474,"Mon-Sat 10-6, Sun 12-5",https://www.facebook.com/pg/MarketOnMainKY/posts/?ref=page_internal,N/A,No,Yes,Yes,N/A,N/A,N/A,N/A
610,Pulaski,Haney's Appledale Farm,Farm,"8350 W Highway 80 Nancy, Kentucky 42544",606-636-6148,37.047944,-84.626474,Seasonal,https://www.facebook.com/haneysfarm/,N/A,No,No,N/A,N/A,N/A,N/A,N/A
611,Pulaski,Pulaski Growers Farmers' Market,Farmers Market,"East Mt Vernon St Somerset, Kentucky 42501",606-305-6647,37.092701,-84.601822,Seasonal,https://www.facebook.com/Pulaski-Growers-Farmers-Market-654606937940884/,N/A,No,No,yes,N/A,N/A,N/A,N/A
612,Pulaski,Somerset Farmers' Market,Farmers Market,4150 South Hwy 27 Somerset KY 42501,606-679 6361,37.036482,-84.626042,Seasonal,https://www.facebook.com/Somerset-Farmers-Market-219538324723901/,N/A,No,No,yes,N/A,N/A,N/A,N/A
613,Pulaski,Kentucky South Recycling,Recycling Centers,1025 Liberty Road Eubank KY 42567,606-379-0568,37.306968,-84.528149,N/A,N/A,N/A,N/A,N/A,N/A,"PL( HDPE, PS, PP, LDPE), OCC",2,"Dropoff, broker",Government facility
614,Pulaski,Midstate Auto,Recycling Centers,1106 Govers lane Ferguson KY 42533,606-679-4339,37.069312,-84.58841,N/A,N/A,Auto salvage,N/A,N/A,N/A,"AL, FE, NONFE, ST CANS",4,"Dropoff, broker",Commercial recycler
615,Pulaski,Pulaski Regional Recycling Center,Recycling Centers,218 W HWY 80 Somerset KY 42503,606-677-0320,37.092129,-84.623936,N/A,http://pcgovt.com/solid-waste-and-recycling/,N/A,N/A,N/A,N/A,"AL, PL( HDPE, PET), FE, NONFE, OCC, CARBAT, OPMIX, OPSORT, ST CANS, ONP, UO, ESCRAP, MRP, EGC",14,Dropoff,Government facility
616,Pulaski,"Somerset Recycling Services, Inc",Recycling Centers,1 Recycle Way Somerset KY 42502,606-274-4170,37.092129,-84.623936,Mon-Fri 7-9,http://www.somerset-recycling.com/,Shipping hours Mon-Fri. 7:00-4:00.,N/A,N/A,N/A,"PL( HDPE, PET, PS, PP, PVC, LDPE, OTHER), OCC",2,"Handler, process, dropoff, broker",Commercial recycler
617,Pulaski,"Somerset Scrap Metal, Inc. AKA River Metals",Recycling Centers,905 Crane Road Ferguson KY 42553,606-679-2448,37.092129,-84.623936,N/A,http://www.rmrecycling.com/locations/somerset/,Scrap metal dealer,N/A,N/A,N/A,"AL, FE, NONFE, CARBAT, ST CANS, UO",6,"Dropoff, broker",Commercial recycler
618,Pulaski,Walmart Supercenter - Somerset,Recycling Centers,177 Washington Drive Somerset KY 42502,606-679-9204,37.068515,-84.623056,N/A,N/A,N/A,N/A,N/A,N/A,CARBAT,1,"Dropoff, other",Automotive Service
619,Pulaski,Social Security Office - Somerset,Family Services,"3975 S HIGHWAY 27 SOMERSET, KY 42501",800-772-1213,37.037879,-84.628441,Mon-Fri 8-4:30,socialsecurity.gov,N/A,N/A,N/A,N/A,N/A,N/A,N/A,N/A
620,Pulaski,Pulaski County Child Support,Family Services,"100 N Main St, Somerset, KY 42501",606-679-4449,37.092348,-84.604954,Mon-Fri 9-4:30,http://pulaskicountyattorney.com/child-support/,N/A,N/A,N/A,N/A,N/A,N/A,N/A,N/A
621,Pulaski,DCBS Social Services Office,Family Services,"67 Eagle Creek Dr, Somerset, KY 42503",855-306-8959,37.0920097,-84.636919,Mon-Fri 8-4:30,chfs.ky.gov,N/A,N/A,N/A,N/A,N/A,N/A,N/A,N/A
622,Pulaski,United Way - South Central KY,Community Services,"208 E Mt Vernon St, Somerset, KY 42501",606-679-2974,37.092622,-84.603288,N/A,https://www.unitedway.org/local/united-states/kentucky/united-way-of-south-central-kentucky,N/A,N/A,N/A,N/A,N/A,N/A,N/A,N/A
623,Pulaski,Broadening Horizons Inc,Community Services,"176 Enterprise Dr # 3, Somerset, KY 42501",606-679-1173,37.034595,-84.622261,Mon-Fri 8-5,http://broadeninghorizonsky.com/,N/A,N/A,N/A,N/A,N/A,N/A,N/A,N/A
624,Pulaski,Independent Opportunities Comm,,"90 Southern School Rd, Somerset, KY 42501",606-676-0630,37.038229,-84.62276,N/A,http://independentopportunities.com/,N/A,N/A,N/A,N/A,N/A,N/A,N/A,N/A
625,Pulaski,American Cancer Society - Somerset,Community Services,"402 Coomer St # 102, Somerset, KY 42503",606-679-6143,37.081109,-84.618115,N/A,https://www.facebook.com/CANHELPCASEMANAGEMENT/,N/A,N/A,N/A,N/A,N/A,N/A,N/A,N/A
626,Pulaski,Can Help Inc,Family Services,"428 Enterprise Dr, Somerset, KY 42501",606-676-0545,37.031464,-84.620245,Mon-Fri 9-4,https://www.facebook.com/CANHELPCASEMANAGEMENT/,N/A,N/A,N/A,N/A,N/A,N/A,N/A,N/A
627,Pulaski,Kentucky Career Center - Somerset,Career Services,"410 E. Mount Vernon Somerset, KY 42502",606-677-4124,37.09437,-84.599793,Mon-Fri 8-4:30,https://kcc.ky.gov/Pages/default.aspx,N/A,N/A,N/A,N/A,N/A,N/A,N/A,N/A
628,Pulaski,Office for Children with Special Health Care Needs - Somerset,Family Services,"Professional Plaza 401 Bogle St., Suite 104 Somerset, KY 42503",606-678-4454,37.085738,-84.623003,Mon-Fri 8-4:30,https://chfs.ky.gov/agencies/ccshcn/Pages/default.aspx,N/A,N/A,N/A,N/A,N/A,N/A,N/A,N/A
629,Pulaski,Burnside Branch Library,Library,85 East French Avenue Burnside KY 42519,606-561-5287,36.990141,-84.598954,"Mon 10-5, Tues 12-7, Wed 10-5, Thurs 12-7, Fri 10-5,  Sat 9-12",http://www.pulaskipublicLibrary.org,N/A,N/A,N/A,N/A,N/A,N/A,"Meeting rooms, notary services, book-a-librarian, passport services, bookmobile and outreach services",
630,Pulaski,Nancy Branch Library,Library,Mills Spring Plaza Nancy KY 42544,606-636-4241,37.1305829,-84.8783297,"Mon 10-5, Tues 12-7, Wed 10-5, Thurs 12-7, Fri 10-5,  Sat 9-12",http://www.pulaskipublicLibrary.org,N/A,N/A,N/A,N/A,N/A,N/A,"Meeting rooms, notary services, book-a-librarian, passport services, bookmobile and outreach services",
631,Pulaski,Pulaski County Public Library,Library,304 South Main Street Somerset KY 42501,606-679-8401,36.990141,-84.598954,"Mon-Fri 9-7, Sat 9-5",http://www.pulaskipublicLibrary.org,N/A,N/A,N/A,N/A,N/A,N/A,"Meeting rooms, notary services, book-a-librarian, passport services, bookmobile and outreach services",
632,Pulaski,Science Hill Branch Library,Library,215 Main Street Science Hill KY 42553,606-423-4221,37.176777,-84.635128,"Mon 10-5, Tues 12-7, Wed 10-5, Thurs 12-7, Fri 10-5,  Sat 9-12",http://www.pulaskipublicLibrary.org,N/A,N/A,N/A,N/A,N/A,N/A,"Meeting rooms, notary services, book-a-librarian, passport services, bookmobile and outreach services",
633,Pulaski,Shopville Branch Library,Library,144 Shopville Road Somerset KY 42503,606-274-1671,37.159109,-84.484018,"Mon 10-5, Tues 12-7, Wed 10-5, Thurs 12-7, Fri 10-5,  Sat 9-12",http://www.pulaskipublicLibrary.org,N/A,N/A,N/A,N/A,N/A,N/A,"Meeting rooms, notary services, book-a-librarian, passport services, bookmobile and outreach services",
634,Pulaski,Pulaski County Extension,Cooperative Extension Offices,"28 Parkway Dr. Somerset, KY 42502",606-679-6361,37.091885,-84.637811,Mon-Fri 8-4:30,http://pulaski.ca.uky.edu/,N/A,N/A,N/A,N/A,N/A,N/A,N/A,N/A
635,Rockcastle,IGA - Mt Vernon,Grocery,"305 US-150, Mt Vernon, KY 40456",606-256-2514,37.351835,-84.345337,Everyday 8-8,https://www.mtvernoniga.com/,N/A,Yes,Yes,N/A,N/A,N/A,N/A,N/A
636,Rockcastle,Save-a-Lot - Mt Vernon,Grocery,"910 W Main St, Mt Vernon, KY 40456",606-256-9810,37.359881,-84.354129,"Mon-Sat 8-9, Sun 12-6",https://savealot.com/grocery-stores/mt-vernon-40456-23520/,N/A,Yes,Yes,N/A,N/A,N/A,N/A,N/A
637,Rockcastle,Hilltop Produce - Mt. Vernon,Grocery,"1174 S Wilderness Rd, Mt Vernon, KY 40456",606-256-3773,37.347299,-84.320194,Mon-Sat 9-5,https://www.facebook.com/Hilltop-Produce-Garden-Center-956398751058005/,N/A,No,Yes,N/A,N/A,N/A,N/A,N/A
638,Rockcastle,Rockcastle Farmer's Market,Farmers Market,"120 Richmond Street Mount Vernon, Kentucky 40456",606-308-2418,37.354698,-84.339916,Seasonal,https://www.facebook.com/RockcastleFarmersMarket/,N/A,No,No,Yes,N/A,N/A,N/A,N/A
639,Rockcastle,Eastern Kentucky Recycling - Mt. Vernon,Recycling Centers,937 South Wilderness Rd. Mount Vernon KY 40456,606-355-2322,37.3480447,-84.3269155,N/A,www.easternkentuckyrecycling.com,"Markets to: KY, TN, IN. Email: ekrdchesnut@gmail.com",N/A,N/A,N/A,"FE, NONFE",2,"Dropoff, broker",Commercial recycler
640,Rockcastle,Rockcastle County Recycling Center,Recycling Centers,2528 South Wilderness Road Mount Vernon KY 40456,606-256-1902,37.339914,-84.3022642,N/A,http://www.rockcastlecountyky.com/,N/A,N/A,N/A,N/A,"AL, PL( HDPE, PET), FE, NONFE, OCC, CARBAT, OPMIX, OPSORT, ST CANS, WHITE, ONP, UO, ESCRAP, MRP",14,Dropoff,Government facility
641,Rockcastle,"Cabinet for Health and Family Services, Rockcastle County Protection & Permanency",Family Services,"125 W Main St, Mt Vernon, KY 40456",606-256-2138,37.354097,-84.342427,Mon-Fri 8-4:30,https://kentucky.gov/health/Pages/default.aspx,N/A,N/A,N/A,N/A,N/A,N/A,N/A,N/A
642,Rockcastle,Daniel Boone Community Action Agency - Mt. Vernon,Community Services,"105 East Main Street, Box 7 Mt. Vernon, KY 40456",606-256-5315,37.353114,-84.339397,Mon-Fri 8-4:30,http://danielboonecaa.org/,N/A,N/A,N/A,N/A,N/A,N/A,N/A,N/A
643,Rockcastle,Rockcastle County Public Library,Library,60 Ford Drive Mount Vernon KY 40456-2148,606-256-2388,37.350156,-84.33607,"Mon - Fri 9:30-6, Sat 9:30-2",http://www.rockcastleLibrary.org,N/A,N/A,N/A,N/A,N/A,N/A,"Free computer and internet access, bookmobile, ebooks, copy services, children programs",
644,Rockcastle,Rockcastle County Extension,Cooperative Extension Offices,"1050 West Main St. Mount Vernon, KY 40456",606-256-2403,37.360374,-84.356866,"Mon-Fri 8-4:30, closed daily 12-1",http://rockcastle.ca.uky.edu/,N/A,N/A,N/A,N/A,N/A,N/A,N/A,N/A
645,Rowan,Allen's IGA,Grocery,"224 Plaza Morehead, KY 40351",606-784-4311,38.180012,-83.435958,"Mon-Tues 6:30-10, Wed 6:30-9, Thurs-Sun 6:30-10",https://allens.iga.com/,N/A,Yes,Yes,N/A,N/A,N/A,N/A,N/A
646,Rowan,Save-a-Lot - Morehead,Grocery,"303 Lee Clay Ave, Morehead, KY 40351",606-784-6536,38.168727,-83.437601,Everyday 9-9,https://savealot.com/grocery-stores/morehead-40351-23817/,N/A,Yes,Yes,N/A,N/A,N/A,N/A,N/A
647,Rowan,Kroger - Morehead,Grocery,"300 Trademore Center, Morehead, KY 40351",606-784-7529,38.191833,-83.484975,Everyday 7-10,https://www.kroger.com/stores/details/024/00734?cid=loc_02400734_gmb,N/A,Yes,Yes,N/A,N/A,N/A,N/A,N/A
648,Rowan,Walmart Supercenter - Morehead,Grocery,"200 Walmart Way, Morehead, KY 40351",606-784-3262,38.201163,-83.481412,Everyday 6-11pm,https://www.walmart.com/store/1139/morehead-ky/details,N/A,Yes,Yes,N/A,N/A,N/A,N/A,N/A
649,Rowan,Arnett Family Farms,Produce Market,"1575 Moores School Rd, Morehead, KY 40351",740-395-7018,38.170748,-83.542247,Mon-Fri 8-5,https://www.facebook.com/arnettfamilyfarms,N/A,No,No,N/A,N/A,N/A,N/A,N/A
650,Rowan,Rowan County Farmers Market,Farmers Market,"201 Rowan Street Morehead, KY 40351",606-784-5457,38.183569,-83.431502,Seasonal,https://www.facebook.com/rowancountyfarmersmarket/,N/A,No,No,Yes,N/A,N/A,N/A,N/A
651,Rowan,Advance Disposal Local Sanitation Landfill,Recycling Centers,300 Old Phelps Road Morehead KY 40351,606-784- 6544,38.184643,-83.551022,N/A,N/A,N/A,N/A,N/A,N/A,"AL, PL( HDPE, PET), OCC, ST CANS, ONP",5,Curbside,Commercial recycler
652,Rowan,Caudill's Recycling,Recycling Centers,11445 Cranston Rd Morehead KY 40351,606-784-4077,38.338585,-83.404845,"Mon-Fri. 8-5, Sat. 8-1",N/A,"Call for material requirements. Must separate all items. Accepts alternators, starters, transmissions (pan and fluid must be removed.)",N/A,N/A,N/A,"AL, FE, NONFE, CARBAT, ST CANS",5,"Handler, dropoff, broker",Commercial recycler
653,Rowan,Henry's Recycling,Recycling Centers,2155 Cranston Rd Morehead KY 40351,606-784-2464,38.230298,-83.460379,"Mon- Fri 9-5, Sat 9-12",https://henrysrecycling.com/,N/A,N/A,N/A,N/A,"AL, FE, NONFE, CARBAT, ST CANS",5,"Dropoff, broker",Commercial recycler
654,Rowan,Morehead Rowan Community Recycling Center,Recycling Centers,325 Triplett Street Morehead KY 40351,606-784-1250,38.230298,-83.460379,"Mon-Fri 8:30-4:30, Sat 9:30-1:30",https://moreheadrecycling.org/,"Also accepts grocery bags, shrink-wrap, magazines, books, and paperboard.",N/A,N/A,N/A,"GL, AL, PL( HDPE, PET, PP, LDPE), OCC, OPMIX, OPSORT, ST CANS, ONP, UO, ESCRAP, MRP",11,"Handler, process, dropoff",Government facility
655,Rowan,Social Service Department - Morehead,Family Services,"511 Hecks Plaza Dr, Morehead, KY 40351",606-784-4178,38.191565,-83.475272,N/A,N/A,N/A,N/A,N/A,N/A,N/A,N/A,N/A,N/A
656,Rowan,Rowan County Child Support,Family Services,"600 W Main St #148, Morehead, KY 40351",606-784-2225,38.1751439,-83.4388737,Mon-Fri 8-5,https://childsupportoffice.us/kentucky-child-support-offices/morehead-ky-child-support-and-social-service-office/,N/A,N/A,N/A,N/A,N/A,N/A,N/A,N/A
657,Rowan,Community Action Agency - Morehead,Community Services,"136 Lee Ave # E, Morehead, KY 40351",606-784-7735,38.189168,-83.427715,Mon-Fri 8-4:30,http://gatewaycaa.org/locations/rowan-county/,N/A,N/A,N/A,N/A,N/A,N/A,N/A,N/A
658,Rowan,Christian Social Services - Morehead,Community Services,"1446 E Main St, Morehead, KY 40351",606-784-5329,38.197455,-83.411683,N/A,http://www.christiansocialservices.org/index.html,N/A,N/A,N/A,N/A,N/A,N/A,N/A,N/A
659,Rowan,Family Resource Center - Morehead,Family Services,"91 Christy Creek Rd, Morehead, KY 40351",606-784-9211,38.196274,-83.411007,Mon-Fri 8-3:30,https://www.rowan.kyschools.us/5/Content2/78,N/A,N/A,N/A,N/A,N/A,N/A,N/A,N/A
660,Rowan,Gateway Children's Advocacy Center,Family Services,"310 E Main St, Morehead, KY 40351",606-780-7848,38.185144,-83.43222,Mon-Fri 9-5,https://www.gatewaycac.com/,N/A,N/A,N/A,N/A,N/A,N/A,N/A,N/A
661,Rowan,Kentucky Career Center - Morehead,Career Services,"1225 US 60W, Suite 106 Morehead, KY 40351",606-783-8525,38.166188,-83.443591,Mon-Fri 8-4:30,https://kcc.ky.gov/Pages/default.aspx,N/A,N/A,N/A,N/A,N/A,N/A,N/A,N/A
662,Rowan,Office for Children with Special Health Care Needs - Morehead,Family Services,"214 W. First St. Morehead, KY 40351",606-783-8610,38.179112,-83.434853,Mon-Fri 8-4:30,https://chfs.ky.gov/agencies/ccshcn/Pages/default.aspx,N/A,N/A,N/A,N/A,N/A,N/A,N/A,N/A
663,Rowan,Rowan County Public Library,Library,175 Beacon Hill Drive Morehead KY 40351,606-784-7137,38.186577,-83.479513,"Mon-Thurs 9-8, Fri-Sat 9-5, Sun 1-5",http://www.rowancountyLibrary.org/,N/A,N/A,N/A,N/A,N/A,N/A,"Free computer and internet access, meeting rooms, notary services, genealogy room,",
664,Rowan,Rowan County Extension,Cooperative Extension Offices,"600 West Main Street Morehead, KY 40351",606-784-5457,38.175578,-83.438789,"Mon-Fri 8-4:30, closed daily 12-1",http://rowan.ca.uky.edu/,N/A,N/A,N/A,N/A,N/A,N/A,N/A,N/A
665,Russell,Price Less Foods - Russell Springs,Grocery,"2453 Lakeway Dr, Russell Springs, KY 42642",270-866-3507,37.067443,-85.07305,"Mon-Sat 7-9, Sun 7-8",https://www.mypricelessfoods.com/,N/A,Yes,Yes,N/A,N/A,N/A,N/A,N/A
666,Russell,Kroger - Russell Springs,Grocery,"181 S, US-127, Russell Springs, KY 42642",606-325-8911,37.061732,-85.071294,Everyday 7-10,https://www.kroger.com/stores/details/029/00796?cid=loc_02900796_gmb,N/A,Yes,Yes,N/A,N/A,N/A,N/A,N/A
667,Russell,Save-a-Lot Russell Springs,Grocery,"238 E W Steve Wariner Dr, Russell Springs, KY 42642",270-866-2992,37.065121,-85.075258,"Mon-Sat 8-8, Sun 8-6",https://savealot.com/grocery-stores/russell-springs-42642-45170/,N/A,Yes,Yes,N/A,N/A,N/A,N/A,N/A
668,Russell,Fruit Market - Russell Springs,Grocery,"2408 US-127, Russell Springs, KY 42642",270-866-5250,37.03184,-85.075608,Mon-Sat 8-5,https://www.facebook.com/pages/category/Deli/Fruit-Market-924650924327340/,N/A,Yes,Yes,N/A,N/A,N/A,N/A,N/A
669,Russell,Farmers Produce Inc,Produce Market,"479 Lakeway Dr, Russell Springs, KY 42642",270-866-5556,37.043985,-85.081213,Mon-Sat 9-4,https://www.facebook.com/pages/category/Local-Business/Farmers-Produce-416014002151677/,N/A,Yes,Yes,N/A,N/A,N/A,N/A,N/A
670,Russell,French Valley Farms,Farms,1842 N Main St Jamestown KY 42629,270-566-1757,36.998052,-85.071609,Seasonal,N/A,N/A,No,No,N/A,N/A,N/A,N/A,N/A
671,Russell,Russell County Farmers Market,Farmers Market,"2688 S. Hwy 127 Russell Springs, KY 42642",270-866-4477,37.02787,-85.076488,Seasonal,https://russell.ca.uky.edu/content/russell-county-farmers-market,N/A,No,No,Yes,N/A,N/A,N/A,N/A
672,Russell,Morgan's Sanitation,Recycling Centers,2449 US-127 #1 Russell Springs KY 42642,270-866-4774,37.031494,-85.077,N/A,http://www.morgansanitationinc.com/,N/A,N/A,N/A,N/A,OCC,1,Dropoff,Commercial recycler
673,Russell,Russell Co. Recycling Facility,Recycling Centers,199 Landfill Road Russell Springs KY 42642,270-585-1416,37.037956,-85.061021,Mon-Fri 7:30-3:30,N/A,N/A,N/A,N/A,N/A,"GL, AL, PL( HDPE, PET), OCC, OPMIX, OPSORT, ST CANS, WHITE, ONP, MRP",10,Dropoff,Government facility
674,Russell,Social Service Deparment - Russell Springs,Family Services,104 Monument Square Russell Springs KY 42642,270-343-5544,36.984535,-85.062248,Mon-Fri 8-4,https://childsupportoffice.us/kentucky-child-support-offices/russell-springs-ky-child-support-and-social-service-office/,N/A,N/A,N/A,N/A,N/A,N/A,N/A,N/A
675,Russell,Lake Cumberland Community Action - Jamestown,Community Services,"23 Industry Dr Jamestown, KY 42629",270-343-4565,37.003971,-85.074532,N/A,http://www.lc-caa.org/,N/A,N/A,N/A,N/A,N/A,N/A,N/A,N/A
676,Russell,Human Resources Department - Jamestown,Family Services,"Courthouse, Jamestown, KY 42629",270-343-3220,36.984969,-85.062536,Mon-Fri 8-4:30,https://chfs.ky.gov/Pages/index.aspx,N/A,N/A,N/A,N/A,N/A,N/A,N/A,N/A
677,Russell,Habitat for Humanity - Russell Springs,Community Services,"338 Main St, Russell Springs, KY 42642",270-866-6690,37.058367,-85.083943,N/A,https://www.habitat.org/,N/A,N/A,N/A,N/A,N/A,N/A,N/A,N/A
678,Russell,Community-Based Services - Jamestown,Community Services,"100 S Main St, Jamestown, KY 42629",270-343-3196,36.982812,-85.062085,Mon-Fri 8-4:30,https://chfs.ky.gov/agencies/dcbs/Pages/default.aspx,N/A,N/A,N/A,N/A,N/A,N/A,N/A,N/A
679,Russell,Youth Service Center - Russell Springs,Community Services,"2258 US-127, Russell Springs, KY 42642",270-866-8822,37.034324,-85.073998,Mon-Fri 10-2,https://www.russell.k12.ky.us/Content2/222,N/A,N/A,N/A,N/A,N/A,N/A,N/A,N/A
680,Russell,Kentucky Career Center - Russell Springs,Career Services,"2384 Lakeway Drive Russell Springs, KY 42642",270-866-8435,37.066688,-85.072916,Mon-Fri 8-4,https://kcc.ky.gov/Pages/default.aspx,N/A,N/A,N/A,N/A,N/A,N/A,N/A,N/A
681,Russell,"Lake Cumberland Area Development District, Inc - Russell Springs",Community Services,"2384 Lakeway Dr, Russell Springs, KY 42642",270-866-4200,37.066688,-85.072916,Mon-Fri 8-4,lcadd.org,N/A,N/A,N/A,N/A,N/A,N/A,N/A,N/A
682,Russell,Russell County Public Library,Library,535 North Main Street Jamestown KY 42629,270-343-7323,36.991036,-85.068566,"Mon-Thurs 8-6, Fri 8-4, Sat 9-1",http://www.russellcountyLibrary.com,N/A,N/A,N/A,N/A,N/A,N/A,"Free computer and internet access, copy services, notary services, book-a-librarian,outreach services, Kids and teen programs",
683,Russell,Russell County Extension,Cooperative Extension Offices,"2688 S. Hwy 127 Russell Springs, KY 42642",270-866-4477,37.028038,-85.076479,"Mon-Fri 7:30-4, closed daily 12-1",http://russell.ca.uky.edu/,N/A,N/A,N/A,N/A,N/A,N/A,N/A,N/A
684,Wayne,Walmart Supercenter - Monticello,Grocery,"175 Walmart Plaza Dr, Monticello, KY 42633",606-348-3331,36.857456,-84.848554,Everyday 6-11pm,https://www.walmart.com/store/1234/monticello-ky/details,N/A,Yes,Yes,N/A,N/A,N/A,N/A,N/A
685,Wayne,Save-a-Lot - Monticello,Grocery,"1500 N Main St #124, Monticello, KY 42633",606-348-6829,36.847026,-84.834112,Everyday 9-6,https://savealot.com/grocery-stores/monticello-42633-23468/,N/A,Yes,Yes,N/A,N/A,N/A,N/A,N/A
686,Wayne,Wayne County Farmers' Market,Farmers Market,"40 South Main St. Monticello, Kentucky 42633",N/A,36.82925,-84.850262,Seasonal,https://www.facebook.com/wckyfarmersmarket/,N/A,Yes,No,Yes,N/A,N/A,N/A,N/A
687,Wayne,T&B Recycling AKA Ironman Recycling,Recycling Centers,HWY 90 W Monticello KY 42633,606-340-8198,36.8055488,-84.9089638,"Mon-Fri 8-4:30, Sat 8-11",N/A,N/A,N/A,N/A,N/A,"FE, NONFE",2,"Handler, process, dropoff",Commercial recycler
688,Wayne,Walmart - Monticello,Recycling Centers,1461 East HWY 90 Bypass Monticello KY 42633,606-348-3331,36.8575242,-84.8505697,N/A,N/A,N/A,N/A,N/A,N/A,CARBAT,1,"Dropoff, other",Automotive Service
689,Wayne,Social Service Department - Monticello,Family Services,"1520 N Main St #6, Monticello, KY 42633",606-348-9361,36.84807,-84.834874,Mon-Fri 8-4:30,https://chfs.ky.gov/Pages/index.aspx,N/A,N/A,N/A,N/A,N/A,N/A,N/A,N/A
690,Wayne,Wayne Co Child Support Program,Family Services,"31 Columbia Ave, Monticello, KY 42633",606-340-8527,36.829463,-84.849686,Mon-Fri 9-5,https://csws.chfs.ky.gov/csws/,N/A,N/A,N/A,N/A,N/A,N/A,N/A,N/A
691,Wayne,Wayne County Youth Services Center,Community Services,"2 Cs-1122, Monticello, KY 42633",606-348-3479,36.830664,-84.866528,Mon-Fri 8-4:30,https://www3.wayne.kyschools.us/1/Content2/44,N/A,N/A,N/A,N/A,N/A,N/A,N/A,N/A
692,Wayne,Kentucky Career Center - Monticello,Career Services,"1500 N. Main St. Monticello, KY 42633",606-348-6050,36.847137,-84.834171,Mon-Fri 8-4:30,https://kcc.ky.gov/Pages/default.aspx,N/A,N/A,N/A,N/A,N/A,N/A,N/A,N/A
693,Wayne,Wayne County Public Library,Library,157 Rolling Hills Boulevard Monticello KY 42633,606-348-8565,36.854672,-84.843944,"Monday 9-5:30, Tues 9-7:30, Wed 9-5:30, Thurs 9-7:30, Fri 9-5:30, Sat 8-4",http://www.waynecountyLibrary.org,N/A,N/A,N/A,N/A,N/A,N/A,"Free computer and internet access, printing services, community meeting rooms, bookmobile, teen, child and adult programs",
694,Wayne,Wayne County Extension,Cooperative Extension Offices,"255 Rolling Hills Blvd Monticello, KY 42633",606-348-8453,36.853955,-84.845394,Mon-Fri 8-4:30,http://wayne.ca.uky.edu/,N/A,N/A,N/A,N/A,N/A,N/A,N/A,N/A
695,Whitley,IGA - Williamsburg,Grocery,"25 N Highway 25 W, Williamsburg, KY 40769",606-549-2921,36.74746,-84.1593,Everyday 7-10,https://www.myiga.com/,N/A,Yes,Yes,N/A,N/A,N/A,N/A,N/A
696,Whitley,"Save-a-Lot - 12075 US-25, Williamsburg",Grocery,"12075 S, Hwy 25, Williamsburg, KY 40769",606-786-4111,36.592394,-84.126582,"Mon-Sat 8-9, Sun 10-7",https://savealot.com/grocery-stores/williamsburg-40769-24671/,N/A,Yes,Yes,N/A,N/A,N/A,N/A,N/A
697,Whitley,Walmart Supercenter -  Williamsburg,Grocery,"589 W, KY-92, Williamsburg, KY 40769",606-549-4075,36.720827,-84.171286,Everyday 6-11pm,https://www.walmart.com/store/1048/williamsburg-ky/details,N/A,Yes,Yes,N/A,N/A,N/A,N/A,N/A
698,Whitley,"Save-a-Lot - 1645 US-25, Williamsburg",Grocery,"1645 South Hwy 25, Williamsburg, KY 40769",606-549-5794,36.722813,-84.163556,Everyday 9-6,https://savealot.com/grocery-stores/williamsburg-40769-23476/,N/A,Yes,Yes,N/A,N/A,N/A,N/A,N/A
699,Whitley,Johnny Creekmore Riverside Produce,Grocery,"1378 Hwy 25, Williamsburg, KY 40769",606-549-3215,36.726019,-84.160928,N/A,N/A,N/A,No,No,N/A,N/A,N/A,N/A,N/A
700,Whitley,"Kroger - Cumberland Falls Hwy, Corbin",Grocery,"1019 Cumberland Falls Hwy, Corbin, KY 40701",606-526-1717,36.928573,-84.104651,Everyday 7-10,https://www.kroger.com/stores/details/024/00719?cid=loc_02400719_gmb,N/A,Yes,Yes,N/A,N/A,N/A,N/A,N/A
701,Whitley,"Save-a-Lot  - Cumberland Falls Hwy, Corbin",Grocery,"1520 Cumberland Falls Hwy, Corbin, KY 40701",606-528-3763,36.925268,-84.112948,Everyday 9-6,https://savealot.com/grocery-stores/corbin-40701-23472/,N/A,Yes,Yes,N/A,N/A,N/A,N/A,N/A
702,Whitley,Williamsburg Market,Farmers Market,"Cumberland Ave Williamsburg, KY 40769",606-549-1430,36.741931,-84.159339,Seasonal,https://whitley.ca.uky.edu/FarmersMarket,N/A,Yes,Yes,Yes,N/A,N/A,N/A,N/A
703,Whitley,Corbin Market,Farmers Market,"108 S Main St, Corbin, KY 40701",606-549-1430,36.946922,-84.096532,Seasonal,https://www.facebook.com/WCFarmersMarket/,N/A,Yes,Yes,Yes,N/A,N/A,N/A,N/A
704,Whitley,Cedar Ridge Ministries Recycling,Recycling Centers,537 South 10th Street Williamsburg KY 40769,606-549-1372,36.7682174,-84.1595885,"Mon, Tues, Thurs, Fri 9-3",http://www.cedaridgeministries.org/recycling-services/,ALSO ACCEPTS MAGAZINES,N/A,N/A,N/A,"AL, PL( HDPE, PET), OCC, OPMIX, ST CANS, ONP",6,"Handler, dropoff",Commercial recycler
705,Whitley,City of Corbin Recycling,Recycling Centers,701 Main Street Corbin KY 40701,606-523-6532,36.942802,-84.094468,Mon-Fri 7 -3:30,https://corbin-ky.gov/corbin-recycling/,N/A,N/A,N/A,N/A,"GL, AL, PL( HDPE, PET), OCC, OPMIX, ST CANS, ONP",7,"Handler, dropoff",Government facility
706,Whitley,Eastern Kentucky Recycling,Recycling Centers,300 Savoy-Clear Creek Road Williamsburg KY 40769,606-355-2322,36.722724,-84.156011,Mon-Fri 8-4,www.easternkentuckyrecycling.com,N/A,N/A,N/A,N/A,"FE, NONFE",2,"Handler, process, dropoff",Commercial recycler
707,Whitley,Ellis Sanitation,Recycling Centers,2141 Craig Road Williamsburg KY 40769,505-549-0483,36.813291,-84.276914,Mon-Fri 8-8,N/A,N/A,N/A,N/A,N/A,"FE, OCC, ST CANS",3,"Handler, process, dropoff",Commercial recycler
708,Whitley,Walmart Supercenter -  Williamsburg,Recycling Centers,589 HWY West 92 Williamsburg KY 40769,606-549-4075,36.813291,-84.276914,Everyday 6-11pm,N/A,N/A,N/A,N/A,N/A,CARBAT,1,"Dropoff, other",Automotive Service
709,Whitley,"Walmart - S Stewart Road, Corbin",Recycling Centers,60 South Stewart Road Corbin KY 40702,606-523-1770,36.972397,-84.102723,Everyday 6-11pm,N/A,N/A,N/A,N/A,N/A,CARBAT,1,"Dropoff, other",Automotive Service
710,Whitley,Social Security Office - Corbin,Family Services,"159 FUTURE DR CORBIN, KY 40701",877-405-0470,36.904524,-84.162607,Mon-Fri 9-4,https://www.ssa.gov/,N/A,N/A,N/A,N/A,N/A,N/A,N/A,N/A
711,Whitley,Bell-Whitley Community Action Agency - Williamsburg,Community Services,"215 N 4th St, Williamsburg, KY 40769",606-549-3933,36.742875,-84.1616,N/A,https://www.bellwhitley.com/,N/A,N/A,N/A,N/A,N/A,N/A,N/A,N/A
712,Whitley,Oak Grove Family Resource Center,Family Services,"4505 Cumberland Falls Hwy, Corbin, KY 40701",606-523-0741,36.904524,-84.162607,Mon-Fri 7-3,https://www.whitley.k12.ky.us/5/Content2/192,N/A,N/A,N/A,N/A,N/A,N/A,N/A,N/A
713,Whitley,Kentucky Career Center and Social Security Department - West Williamsburg,Career Services,"1000 South HWY 25 West Williamsburg, KY 40769",606-549-5009,36.950231,-84.093246,Mon-Fri 8-4,https://kcc.ky.gov/Pages/default.aspx,N/A,N/A,N/A,N/A,N/A,N/A,N/A,N/A
714,Whitley,Corbin Public Library,Library,215 Roy Kidd Avenue Corbin KY 40701-1200,606-528-6366,36.949506,-84.094769,"Mon-Tues, 10-7, Wed 10-2, Thurs-Fri 10-7, Sat 10-2",http://www.corbinkyLibrary.org,N/A,N/A,N/A,N/A,N/A,N/A,"Community programs, ebooks, free internet and computer access, printing services, exam proctoring services",
715,Whitley,Whitley County Public Library,Library,"285 South Third Street Williamsburg, KY 40769-1265",606-549-0818,36.741787,-84.15853,"Mon 9-8, Tues-Wed 9-6, Thurs 9-8, Fri 9-6, Sat 9-2",http://www.whitleyLibrary.org,N/A,N/A,N/A,N/A,N/A,N/A,"Free WiFi, bookmobile, ebooks, community programs, genealogy services, community room",
716,Whitley,Whitley County Extension,Cooperative Extension Offices,"4275 US-25W Williamsburg, KY 40769",606-549-1430,36.795369,-84.176893,Mon-Fri 8-4:30,http://whitley.ca.uky.edu/,N/A,N/A,N/A,N/A,N/A,N/A,N/A,N/A
717,Wolfe,Save-a-Lot - Campton,Grocery,"719 KY-15, Campton, KY 41301",606-668-7965,37.723848,-83.534445,"Mon-Sat 8-9, Sun 9-9",https://savealot.com/grocery-stores/campton-41301-24813/,N/A,Yes,Yes,N/A,N/A,N/A,N/A,N/A
718,Wolfe,Kenny's Gas & Grocery,Grocery,"6580 KY-15, Campton, KY 41301",606-668-6813,37.666647,-83.484951,Everyday 8-9,https://www.facebook.com/kennysgasgrocery/?rf=134432753266406,N/A,Yes,Yes,N/A,N/A,N/A,N/A,N/A
719,Wolfe,Wolfe County Farmers Market,Farmers Market,"31 N Washington Street Campton,  KY 41301",606-668-3712,37.740995,-83.549076,Seasonal,https://wolfe.ca.uky.edu/,N/A,No,No,Yes,N/A,N/A,N/A,N/A
720,Wolfe,Wolf County Transfer Station,Recycling Centers,2190 Quillen Chapel Road Campton KY 41301,606-668-7354,37.74824,-83.586799,"Mon-Fri 8-4, Sat 8-12",N/A,N/A,N/A,N/A,N/A,"GL, AL, PL( HDPE, PET), NONFE, ST CANS, WHITE",6,Dropoff,Commercial recycler
721,Wolfe,Social Service Department - Campton,Family Services,"15 Court St, Campton, KY 41301",606-668-3101,37.735177,-83.547147,Mon-Fri 8-4:30,https://www.countyoffice.org/campton-social-service-department-campton-ky-1e8/,N/A,N/A,N/A,N/A,N/A,N/A,N/A,N/A
722,Wolfe,Wolfe County Child Support Division,Family Services,"16 Court St, Campton, KY 41301",606-668-7021,37.735177,-83.547147,Mon-Fri 8-4,https://csws.chfs.ky.gov/csws/General/Landing.aspx,N/A,N/A,N/A,N/A,N/A,N/A,N/A,N/A
723,Wolfe,Daniel Boone Development - Campton,Community Services,"10 Court St, Campton, KY 41301",606-668-3509,37.735177,-83.547147,Mon-Fri 8-4:30,http://danielboonecaa.org/,N/A,N/A,N/A,N/A,N/A,N/A,N/A,N/A
724,Wolfe,Department for Community-Based Services - Campton,Community Services,"330 Main St, Campton, KY 41301",606-668-3175,37.734535,-83.547084,"Mon, Wed-Fri 7-2",https://chfs.ky.gov/agencies/dcbs/Pages/default.aspx,N/A,N/A,N/A,N/A,N/A,N/A,N/A,N/A
725,Wolfe,Wolfe County Public Library,Library,164 KY HWY 15 North Campton KY 41301,606-668-6571,37.731144,-83.55424,"Mon 9-4:30, Tues 9-6, Wed 9-4:30, Thurs 9-6, Fri 9-4:30, Sat 9-1",http://wcplib.org,N/A,N/A,N/A,N/A,N/A,N/A,"Free computer and internet access, ebooks, Driver's License Study Computer Station, help with job searches and benefits reporting, genealogy services",
726,Wolfe,Wolfe County Extension,Cooperative Extension Offices,"20 North Washington Street Campton, KY 41301",606-668-3712,37.736373,-83.547476,Mon-Fri 8-4:30,http://wolfe.ca.uky.edu/,N/A,N/A,N/A,N/A,N/A,N/A,N/A,N/A