OBJECTID,county,name,sector,address,phone,y,x,hours,website,additional,re_mat,re_num,GL
31,Bell,Bell Co Recycling Center,Recycling centers,900 North 15th Street Middlesborro KY 40977,606-248-78161,36.618776,-83.708774,N/A,"<a href = ""https://bellcounty.ky.gov/services/Pages/default.aspx"">Click here to access their website</a>",Also accepts motor oil,"GL, AL, PL( HDPE, PET), FE, NONFE, OCC, OPMIX, OPSORT, ST CANS, ONP, UO, ESCRAP, MRP, RUB",14,Yes
100,Casey,Casey County Road Dept,Recycling centers,1175 Campbellsville Street Liberty KY 42539,606-787-0703,37.32032,-84.947487,N/A,N/A,N/A,"GL, AL, FE, NONFE, OCC, OPMIX, OPSORT, ST CANS, WHITE, ONP, UO, MRP, RUB",13,Yes
112,Clark,Winchester Municipal Utilities Recycling Center,Recycling centers,150 Maple Street Winchester KY 40391,859-744-1170,37.997074,-84.176483,24/7,"<a href = ""http://www.wmutilities.com/Views/public/Content.aspx?"">Click here to access their website</a>","WMU Voluntary Recycling Center at 175 N. Maple Street is open 24 hours per day, 7 days per week. The recycling center is located behind WMU's Main Office at 150 N. Main Street; however, it is only accessible from the WMU N. Maple Street entrance. Any questions please call 859-744-1170","GL, AL, PL( HDPE, PET), OCC, OPMIX, ST CANS, WHITE, ONP, ESCRAP",9,Yes
136,Clinton,Morrison Recycling & TS,Recycling centers,235 Transfer Station Road Albany KY 42602,606-387-9902,36.751328,-85.201057,Mon-Fri 7-4,N/A,N/A,"GL, AL, PL( HDPE, PET), OCC, CARBAT, OPMIX, ONP, UO, MRP",9,Yes
165,Estill,Advanced Disposal,Recycling centers,2700 Winchester Rd Irvine KY 40336,606-723-5552,37.737238,-83.984627,N/A,"<a href = ""https://www.advanceddisposal.com/for-home.aspx"">Click here to access their website</a>",N/A,"GL, AL, PL( HDPE, PET), OPMIX, ST CANS, ONP, MRP",7,Yes
179,Fleming,Flemingsburg City Maintenance Garage,Recycling centers,140 West Electric Ave Flemingsburg KY 41041,606-845-9307,38.422285,-83.735947,N/A,"<a href = ""http://www.flemingcountyky.us/road.asp"">Click here to access their website</a>",N/A,"GL, AL, PL( HDPE, PET), OCC, OPMIX, WHITE, ONP, MRP",8,Yes
212,Garrard,Lancaster-Garrard Co. Recycling,Recycling centers,400 South Campbell St Lancaster KY 40444,859-792-1868,37.614201,-84.578106,"Mon-Fri 9-5, Sat 9-4","<a href = ""http://garrardcounty.us/index.php/solid-waste-recycling"">Click here to access their website</a>",N/A,"GL, AL, PL( HDPE, PET), OCC, CARBAT, OPMIX, ST CANS, ONP, ESCRAP",9,Yes
331,Laurel,London Regional Recycle Facility,Recycling centers,950 TLC Lane London KY 40741,606-864-5521,37.120108,-84.056849,24/7,"<a href = ""https://www.londonky.gov/departments/recycling-progr"">Click here to access their website</a>","We are working hard to accommodate all of your recycling needs.  If you have any questions, feel free to contact us anytime at 606-864-5521. coflsaedge@gmail.com Curbside recycling available for the city of London.","GL, AL, PL( HDPE, PET, PS, PP, PVC, LDPE, OTHER), FE, NONFE, OCC, CARBAT, OPMIX, OPSORT, ST CANS, WHITE, ONP, UO, ESCRAP, MRP, EGC",16,Yes
395,Lewis,Lewis County Recycling Center,Recycling centers,199 County Drive Vanceburg KY 41179,606-796-0624,38.590529,-83.350549,Mon-Fri 7-3:30,"<a href = ""https://lewiscounty.ky.gov/Departments-and-Services/"">Click here to access their website</a>",N/A,"GL, AL, PL( HDPE, PET, OTHER), FE, NONFE, OCC, CARBAT, OPMIX, OPSORT, ST CANS, WHITE, ONP, UO, ESCRAP, MRP, RUB",16,Yes
396,Lewis,Vanceburg Recycling,Recycling centers,90 River Street Vanceburg KY 41179,606-796-6003,38.604004,-83.323793,N/A,"<a href = ""http://www.cityofvanceburg.com/publicworks"">Click here to access their website</a>",N/A,"GL, AL, PL( HDPE, PET, OTHER), FE, NONFE, OCC, OPMIX, OPSORT, ST CANS, ONP, ESCRAP",11,Yes
427,Madison,Berea College,Recycling centers,310 N. Main Street,859-985-3844,37.576206,-84.289259,N/A,N/A,FOR BEREA COLLEGE STAFFAND STUDENTS ONLY. DROP-OFF BINS AT MANY CAMPUS LOCATIONS. ALSO ACCEPTS MAGAZINES,"GL, AL, PL( HDPE, PET), OCC, OPMIX, OPSORT, ST CANS, ONP",8,Yes
432,Madison,Richmond-Madison Co. Recycling Ctr.,Recycling centers,550 Recycle Drive Richmond KY 40475,859-625-0202,37.726422,-84.290442,N/A,"<a href = ""https://www.richmond.ky.us/recycling-faqs-information/"">Click here to access their website</a>",Our innovative drop chute design makes your visit to the center a pleasant one. Simply open the doors and place materials inside the chutes. The materials are then ready for our employees to gather on the inside. This design saves both time and money,"GL, AL, PL( HDPE, PET), OCC, OPMIX, OPSORT, ST CANS, ONP",8,Yes
497,Montgomery,Rumpke Recycling Inc.,Recycling centers,30 Lairson Road Jeffersonville KY 40337,859-498-3322,37.950248,-83.952076,Mon-Fri 8-5,"<a href = ""https://www.rumpke.com/"">Click here to access their website</a>",N/A,"GL, AL, PL( HDPE, PET), OCC, CARBAT, OPMIX, ST CANS, ONP, UO, MRP",10,Yes
534,Perry,Hazard Recycling AKA Gorman Hollow,Recycling centers,105 Gorman Hollow Road Hazard KY 41701,606-439-1863,37.240819,-83.198651,Mon-Fri 7-4,N/A,Also accept magazines and paperback books.,"GL, AL, PL( HDPE, PET), OCC, OPMIX, ST CANS, ONP",7,Yes
571,Pike,Pike County Solid Waste,Recycling centers,170 Ford Mountain Road Pikeville KY 41501,606-631-0902,37.568361,-82.453139,N/A,"<a href = ""http://www.pikecountyky.gov/?page_id=31"">Click here to access their website</a>",N/A,"GL, AL, PL( HDPE, PET), NONFE, OCC, CARBAT, OPMIX, OPSORT, ST CANS, ONP, UO, MRP, RUB, EGC",14,Yes
592,Powell,Powell County Transfer Station,Recycling centers,2479 Stanton Road Stanton KY 40380,606-481-9474,37.838728,-83.89572,Mon-Fri 7:30- 5,N/A,N/A,"GL, AL, PL( HDPE, PET), NONFE, OCC, OPMIX, WHITE, ONP",8,Yes
654,Rowan,Morehead Rowan Community Recycling Center,Recycling centers,325 Triplett Street Morehead KY 40351,606-784-1250,38.230298,-83.460379,"Mon-Fri 8:30-4:30, Sat 9:30-1:30","<a href = ""https://moreheadrecycling.org/"">Click here to access their website</a>","Also accepts grocery bags, shrink-wrap, magazines, books, and paperboard.","GL, AL, PL( HDPE, PET, PP, LDPE), OCC, OPMIX, OPSORT, ST CANS, ONP, UO, ESCRAP, MRP",11,Yes
673,Russell,Russell Co. Recycling Facility,Recycling centers,199 Landfill Road Russell Springs KY 42642,270-585-1416,37.037956,-85.061021,Mon-Fri 7:30-3:30,N/A,N/A,"GL, AL, PL( HDPE, PET), OCC, OPMIX, OPSORT, ST CANS, WHITE, ONP, MRP",10,Yes
705,Whitley,City of Corbin Recycling,Recycling centers,701 Main Street Corbin KY 40701,606-523-6532,36.942802,-84.094468,Mon-Fri 7 -3:30,"<a href = ""https://corbin-ky.gov/corbin-recycling/"">Click here to access their website</a>",N/A,"GL, AL, PL( HDPE, PET), OCC, OPMIX, ST CANS, ONP",7,Yes
720,Wolfe,Wolf County Transfer Station,Recycling centers,2190 Quillen Chapel Road Campton KY 41301,606-668-7354,37.74824,-83.586799,"Mon-Fri 8-4, Sat 8-12",N/A,N/A,"GL, AL, PL( HDPE, PET), NONFE, ST CANS, WHITE",6,Yes